{"type": "FeatureCollection", "features": [{"type": "Feature", "properties": {"osm_id": "relation/13070911", "addr:city": "Nanjing", "addr:province": "Jiangsu", "amenity": "university", "name": "南京信息工程大学", "name:en": "Nanjing University of Information Science & Technology", "name:es": "Universidad de Ciencias de la Información y Tecnología de Nankin", "operator": "Jiangsu Provincial People’s Government, the Ministry of Education of the People’s Republic of China and the China Meteorological Administration", "type": "multipolygon", "website": "https://en.nuist.edu.cn/", "wikidata": "Q6963692", "wikipedia": "zh:南京信息工程大学"}, "geometry": {"type": "MultiPolygon", "coordinates": [[[[118.6919042, 32.1980054], [118.6910087, 32.1964153], [118.6916908, 32.196015], [118.6924026, 32.1956166], [118.6928569, 32.1961185], [118.6937112, 32.1970945], [118.6919042, 32.1980054]]], [[[118.717213, 32.2048716], [118.7176824, 32.2048546], [118.7187231, 32.2047286], [118.7212685, 32.2043519], [118.7221196, 32.2071063], [118.7229046, 32.2096466], [118.7226525, 32.2098645], [118.7211893, 32.2098304], [118.7199488, 32.209734], [118.7188451, 32.2095899], [118.7178688, 32.2094764], [118.7166819, 32.2092268], [118.7149626, 32.2088569], [118.7137985, 32.2086027], [118.7141606, 32.2078833], [118.7145549, 32.2071094], [118.715027, 32.2061062], [118.7153354, 32.2050373], [118.7154696, 32.204311], [118.7164418, 32.2046492], [118.716883, 32.2047842], [118.717213, 32.2048716]]], [[[118.7007737, 32.2078946], [118.7003536, 32.2072537], [118.7002557, 32.2067738], [118.7000365, 32.2059474], [118.6999581, 32.20524], [118.7000169, 32.2045106], [118.7004545, 32.2035258], [118.7011734, 32.2024205], [118.7018546, 32.2013696], [118.7028427, 32.1998348], [118.7032655, 32.1991976], [118.7046248, 32.1998727], [118.7076623, 32.2013813], [118.7094319, 32.2022299], [118.7103466, 32.2025408], [118.7114972, 32.2029539], [118.7133164, 32.2036009], [118.715101, 32.2042048], [118.7151705, 32.2043269], [118.7151023, 32.2046644], [118.71498, 32.2051044], [118.7150592, 32.2051077], [118.7148523, 32.2058332], [118.7144798, 32.2066169], [118.7140936, 32.207443], [118.7135679, 32.2085664], [118.7127846, 32.2083984], [118.7118566, 32.2082441], [118.7111217, 32.208176], [118.7106901, 32.2081779], [118.7100595, 32.2081806], [118.7084877, 32.2081942], [118.7070068, 32.2080853], [118.7059983, 32.2079761], [118.704966, 32.2078106], [118.7041211, 32.2077562], [118.7028566, 32.2077685], [118.7024903, 32.2077721], [118.7013128, 32.2078674], [118.7007737, 32.2078946]]]]}}, {"type": "Feature", "properties": {"osm_id": "relation/20451657", "area": "yes", "leisure": "track", "type": "multipolygon"}, "geometry": {"type": "Polygon", "coordinates": [[[118.7027682, 32.2041432], [118.7027822, 32.2041633], [118.7028108, 32.2041962], [118.7028432, 32.2042265], [118.7028791, 32.204254], [118.7029179, 32.2042782], [118.7029595, 32.2042991], [118.7030033, 32.2043163], [118.7030489, 32.2043298], [118.7030959, 32.2043393], [118.7031438, 32.2043448], [118.7031921, 32.2043462], [118.7032403, 32.2043435], [118.7032922, 32.2043359], [118.7033429, 32.2043236], [118.7033916, 32.2043067], [118.7034379, 32.2042854], [118.7034812, 32.2042599], [118.7035209, 32.2042306], [118.7035566, 32.2041979], [118.7035879, 32.204162], [118.7036144, 32.2041234], [118.7036357, 32.2040827], [118.7036516, 32.2040402], [118.703662, 32.2039965], [118.7037852, 32.2032149], [118.7037899, 32.2031705], [118.7037889, 32.2031259], [118.7037821, 32.2030817], [118.7037696, 32.2030384], [118.7037517, 32.2029965], [118.7037284, 32.2029565], [118.7037001, 32.2029188], [118.7036672, 32.2028841], [118.7036299, 32.2028525], [118.7035888, 32.2028246], [118.7035444, 32.2028006], [118.7034971, 32.2027809], [118.7034476, 32.2027657], [118.7033964, 32.2027551], [118.7033442, 32.2027493], [118.7032915, 32.2027484], [118.703239, 32.2027523], [118.7031873, 32.2027611], [118.7031412, 32.2027732], [118.7030968, 32.2027892], [118.7030544, 32.2028089], [118.7030146, 32.2028321], [118.7029778, 32.2028585], [118.7029692, 32.202866], [118.7029778, 32.2028117], [118.7028745, 32.2028001], [118.7026567, 32.2041856], [118.7027597, 32.2041972], [118.7027682, 32.2041432]], [[118.7029322, 32.2031257], [118.7028099, 32.20389], [118.7028074, 32.203922], [118.7028087, 32.203954], [118.7028138, 32.2039857], [118.7028225, 32.2040169], [118.702835, 32.2040472], [118.7028509, 32.2040762], [118.7028702, 32.2041038], [118.7028926, 32.2041296], [118.702918, 32.2041533], [118.7029461, 32.2041748], [118.7029766, 32.2041938], [118.7030091, 32.2042102], [118.7030434, 32.2042237], [118.7030792, 32.2042342], [118.703116, 32.2042417], [118.7031535, 32.204246], [118.7031914, 32.2042471], [118.7032291, 32.2042449], [118.7032698, 32.204239], [118.7033095, 32.2042294], [118.7033477, 32.2042161], [118.703384, 32.2041994], [118.7034179, 32.2041795], [118.703449, 32.2041565], [118.703477, 32.2041309], [118.7035015, 32.2041027], [118.7035222, 32.2040725], [118.7035389, 32.2040406], [118.7035514, 32.2040073], [118.7035596, 32.203973], [118.7036818, 32.2032087], [118.7036855, 32.2031739], [118.7036847, 32.203139], [118.7036793, 32.2031043], [118.7036696, 32.2030704], [118.7036555, 32.2030375], [118.7036373, 32.2030062], [118.7036151, 32.2029767], [118.7035893, 32.2029494], [118.7035601, 32.2029247], [118.7035279, 32.2029029], [118.7034931, 32.2028841], [118.7034561, 32.2028686], [118.7034173, 32.2028567], [118.7033772, 32.2028484], [118.7033362, 32.2028439], [118.703295, 32.2028431], [118.7032538, 32.2028462], [118.7032133, 32.2028531], [118.7031772, 32.2028626], [118.7031424, 32.2028751], [118.7031092, 32.2028906], [118.703078, 32.2029087], [118.7030491, 32.2029294], [118.7030229, 32.2029525], [118.7029994, 32.2029777], [118.7029791, 32.2030047], [118.702962, 32.2030333], [118.7029484, 32.2030632], [118.7029385, 32.2030941], [118.7029322, 32.2031257]]]}}, {"type": "Feature", "properties": {"osm_id": "relation/20451658", "athletics": "long_jump", "leisure": "pitch", "sport": "athletics", "type": "multipolygon"}, "geometry": {"type": "Polygon", "coordinates": [[[118.703702, 32.2040098], [118.7037372, 32.2040139], [118.7037453, 32.2040148], [118.7037339, 32.2040854], [118.7036804, 32.2040792], [118.7036918, 32.2040087], [118.703702, 32.2040098]]]}}, {"type": "Feature", "properties": {"osm_id": "relation/20451659", "area": "yes", "athletics": "long_jump", "leisure": "track", "sport": "athletics", "type": "multipolygon"}, "geometry": {"type": "Polygon", "coordinates": [[[118.7038315, 32.2032066], [118.7038666, 32.2032107], [118.7037372, 32.2040139], [118.703702, 32.2040098], [118.7038315, 32.2032066]]]}}, {"type": "Feature", "properties": {"osm_id": "relation/20451660", "athletics": "long_jump", "leisure": "pitch", "sport": "athletics", "type": "multipolygon"}, "geometry": {"type": "Polygon", "coordinates": [[[118.7038315, 32.2032066], [118.7038666, 32.2032107], [118.7038747, 32.2032116], [118.7038859, 32.2031421], [118.7038322, 32.2031359], [118.703821, 32.2032054], [118.7038315, 32.2032066]]]}}, {"type": "Feature", "properties": {"osm_id": "relation/20452213", "area": "yes", "leisure": "track", "type": "multipolygon"}, "geometry": {"type": "Polygon", "coordinates": [[[118.7066095, 32.2033177], [118.7064475, 32.2032992], [118.7066627, 32.2019533], [118.7068282, 32.2019722], [118.7068419, 32.2019634], [118.706886, 32.2019404], [118.7069328, 32.2019213], [118.7069822, 32.2019062], [118.7070326, 32.2018959], [118.7070841, 32.20189], [118.7071361, 32.2018891], [118.7071876, 32.2018925], [118.707239, 32.2019003], [118.707289, 32.2019125], [118.7073368, 32.2019297], [118.7073825, 32.2019502], [118.7074255, 32.2019751], [118.7074649, 32.202004], [118.7075012, 32.2020357], [118.7075327, 32.2020705], [118.70756, 32.2021081], [118.7075826, 32.2021477], [118.7076, 32.2021893], [118.707612, 32.2022318], [118.7076189, 32.2022753], [118.7076204, 32.2023193], [118.7076168, 32.2023633], [118.7074939, 32.2031141], [118.7074844, 32.2031572], [118.7074697, 32.2031997], [118.7074498, 32.2032403], [118.7074251, 32.2032789], [118.7073956, 32.2033151], [118.707362, 32.2033488], [118.7073242, 32.2033791], [118.7072832, 32.203406], [118.7072391, 32.203429], [118.7071918, 32.2034481], [118.707143, 32.2034627], [118.7070925, 32.203473], [118.707041, 32.2034789], [118.706989, 32.2034803], [118.706937, 32.2034769], [118.7068861, 32.2034691], [118.7068362, 32.2034564], [118.7067878, 32.2034398], [118.7067421, 32.2034187], [118.7066996, 32.2033938], [118.7066597, 32.2033655], [118.7066239, 32.2033337], [118.7066095, 32.2033177]], [[118.7067511, 32.2022677], [118.7067574, 32.202236], [118.7067674, 32.202205], [118.706781, 32.202175], [118.7067981, 32.2021463], [118.7068186, 32.2021191], [118.7068421, 32.2020939], [118.7068684, 32.2020707], [118.7068974, 32.2020499], [118.7069287, 32.2020317], [118.706962, 32.2020161], [118.7069969, 32.2020035], [118.7070332, 32.2019939], [118.7070739, 32.201987], [118.7071153, 32.2019838], [118.7071568, 32.2019845], [118.707198, 32.2019891], [118.7072384, 32.2019974], [118.7072774, 32.2020094], [118.7073147, 32.2020249], [118.7073497, 32.2020438], [118.7073821, 32.2020658], [118.7074115, 32.2020906], [118.7074375, 32.2021181], [118.7074598, 32.2021477], [118.7074781, 32.2021793], [118.7074922, 32.2022123], [118.707502, 32.2022465], [118.7075074, 32.2022813], [118.7075082, 32.2023165], [118.7075045, 32.2023515], [118.7073834, 32.2031194], [118.7073751, 32.2031539], [118.7073625, 32.2031874], [118.7073456, 32.2032195], [118.7073247, 32.2032499], [118.7073, 32.2032781], [118.7072718, 32.2033039], [118.7072405, 32.203327], [118.7072063, 32.203347], [118.7071698, 32.2033637], [118.7071313, 32.203377], [118.7070913, 32.2033866], [118.7070504, 32.2033925], [118.7070125, 32.2033945], [118.7069745, 32.2033934], [118.7069369, 32.203389], [118.7068999, 32.2033814], [118.706864, 32.2033708], [118.7068296, 32.2033572], [118.706797, 32.2033408], [118.7067664, 32.2033216], [118.7067383, 32.2033], [118.7067128, 32.2032762], [118.7066903, 32.2032502], [118.706671, 32.2032226], [118.706655, 32.2031934], [118.7066426, 32.203163], [118.7066338, 32.2031317], [118.7066287, 32.2030999], [118.7066275, 32.2030677], [118.70663, 32.2030356], [118.7067511, 32.2022677]]]}}, {"type": "Feature", "properties": {"osm_id": "relation/20452214", "athletics": "long_jump", "leisure": "pitch", "sport": "athletics", "type": "multipolygon"}, "geometry": {"type": "Polygon", "coordinates": [[[118.7076241, 32.2025007], [118.7075997, 32.2024981], [118.7076124, 32.202413], [118.7076847, 32.2024207], [118.7076721, 32.2025058], [118.7076595, 32.2025045], [118.7076241, 32.2025007]]]}}, {"type": "Feature", "properties": {"osm_id": "relation/20452215", "area": "yes", "athletics": "long_jump", "leisure": "track", "sport": "athletics", "type": "multipolygon"}, "geometry": {"type": "Polygon", "coordinates": [[[118.7076595, 32.2025045], [118.7076241, 32.2025007], [118.7075503, 32.2029976], [118.7075857, 32.2030013], [118.7076595, 32.2025045]]]}}, {"type": "Feature", "properties": {"osm_id": "relation/20452216", "athletics": "long_jump", "leisure": "pitch", "sport": "athletics", "type": "multipolygon"}, "geometry": {"type": "Polygon", "coordinates": [[[118.7075503, 32.2029976], [118.7075857, 32.2030013], [118.707609, 32.2030038], [118.7075964, 32.2030889], [118.707524, 32.2030812], [118.7075367, 32.2029961], [118.7075503, 32.2029976]]]}}, {"type": "Feature", "properties": {"osm_id": "relation/20452366", "area": "yes", "leisure": "track", "type": "multipolygon"}, "geometry": {"type": "Polygon", "coordinates": [[[118.7202648, 32.2079394], [118.7202748, 32.2078755], [118.7201628, 32.207863], [118.719946, 32.2092529], [118.7200577, 32.2092654], [118.7200673, 32.2092045], [118.7200777, 32.2092196], [118.7201057, 32.2092524], [118.7201375, 32.2092828], [118.7201726, 32.2093103], [118.7202108, 32.2093348], [118.7202516, 32.209356], [118.7202947, 32.2093737], [118.7203396, 32.2093877], [118.720386, 32.2093979], [118.7204333, 32.2094042], [118.7204811, 32.2094066], [118.7205289, 32.2094049], [118.7205823, 32.2093983], [118.7206344, 32.2093867], [118.7206847, 32.2093704], [118.7207326, 32.2093494], [118.7207774, 32.209324], [118.7208187, 32.2092946], [118.7208558, 32.2092616], [118.7208884, 32.2092252], [118.720916, 32.2091861], [118.7209383, 32.2091445], [118.7209551, 32.2091012], [118.7209661, 32.2090565], [118.7210941, 32.2082873], [118.7210992, 32.2082419], [118.7210983, 32.2081963], [118.7210914, 32.2081511], [118.7210787, 32.2081067], [118.7210602, 32.2080639], [118.7210363, 32.208023], [118.7210071, 32.2079846], [118.7209732, 32.2079492], [118.7209348, 32.2079172], [118.7208924, 32.207889], [118.7208466, 32.2078649], [118.720798, 32.2078453], [118.720747, 32.2078303], [118.7206945, 32.2078202], [118.7206409, 32.2078151], [118.720587, 32.207815], [118.7205334, 32.20782], [118.7204808, 32.20783], [118.7204354, 32.2078429], [118.7203917, 32.2078596], [118.7203502, 32.2078798], [118.7203113, 32.2079034], [118.7202752, 32.2079301], [118.7202648, 32.2079394]], [[118.720229, 32.2081903], [118.7201117, 32.2089589], [118.7201094, 32.2089906], [118.7201107, 32.2090223], [118.7201157, 32.2090538], [118.7201243, 32.2090847], [118.7201365, 32.2091147], [118.7201521, 32.2091436], [118.720171, 32.209171], [118.720193, 32.2091968], [118.7202179, 32.2092205], [118.7202454, 32.2092421], [118.7202753, 32.2092613], [118.7203073, 32.2092779], [118.7203411, 32.2092918], [118.7203763, 32.2093028], [118.7204126, 32.2093108], [118.7204496, 32.2093157], [118.7204871, 32.2093175], [118.7205246, 32.2093163], [118.7205664, 32.2093111], [118.7206073, 32.209302], [118.7206467, 32.2092892], [118.7206842, 32.2092727], [118.7207193, 32.2092529], [118.7207516, 32.2092298], [118.7207807, 32.2092039], [118.7208062, 32.2091755], [118.7208279, 32.2091448], [118.7208454, 32.2091122], [118.7208585, 32.2090783], [118.7208671, 32.2090433], [118.7209844, 32.2082746], [118.7209884, 32.208239], [118.7209877, 32.2082033], [118.7209823, 32.2081679], [118.7209724, 32.2081331], [118.7209579, 32.2080995], [118.7209391, 32.2080675], [118.7209163, 32.2080375], [118.7208897, 32.2080097], [118.7208596, 32.2079846], [118.7208264, 32.2079625], [118.7207905, 32.2079437], [118.7207524, 32.2079283], [118.7207125, 32.2079165], [118.7206713, 32.2079086], [118.7206293, 32.2079046], [118.7205871, 32.2079046], [118.7205451, 32.2079085], [118.7205039, 32.2079163], [118.7204683, 32.2079264], [118.7204341, 32.2079395], [118.7204016, 32.2079553], [118.7203711, 32.2079738], [118.7203428, 32.2079947], [118.7203172, 32.2080179], [118.7202943, 32.2080431], [118.7202745, 32.20807], [118.7202579, 32.2080985], [118.7202448, 32.2081282], [118.7202351, 32.2081589], [118.720229, 32.2081903]]]}}, {"type": "Feature", "properties": {"osm_id": "relation/20452367", "athletics": "long_jump", "leisure": "pitch", "sport": "athletics", "type": "multipolygon"}, "geometry": {"type": "Polygon", "coordinates": [[[118.7211582, 32.2082802], [118.7211883, 32.2082836], [118.7212018, 32.2081989], [118.7211205, 32.2081896], [118.721107, 32.2082743], [118.7211378, 32.2082778], [118.7211582, 32.2082802]]]}}, {"type": "Feature", "properties": {"osm_id": "relation/20452368", "athletics": "long_jump", "leisure": "pitch", "sport": "athletics", "type": "multipolygon"}, "geometry": {"type": "Polygon", "coordinates": [[[118.7210116, 32.2090671], [118.7210321, 32.2090695], [118.7210621, 32.2090729], [118.7210481, 32.2091608], [118.7209666, 32.2091515], [118.7209807, 32.2090636], [118.7210116, 32.2090671]]]}}, {"type": "Feature", "properties": {"osm_id": "relation/20452369", "area": "yes", "athletics": "long_jump", "leisure": "track", "sport": "athletics", "type": "multipolygon"}, "geometry": {"type": "Polygon", "coordinates": [[[118.7210321, 32.2090695], [118.7210116, 32.2090671], [118.7211378, 32.2082778], [118.7211582, 32.2082802], [118.7210321, 32.2090695]]]}}, {"type": "Feature", "properties": {"osm_id": "way/160714720", "name": "龙王山", "natural": "wood"}, "geometry": {"type": "Polygon", "coordinates": [[[118.6965893, 32.1849247], [118.6959783, 32.1848466], [118.6940004, 32.1848398], [118.6940546, 32.1855467], [118.6940562, 32.1863825], [118.6942499, 32.1873019], [118.694067, 32.1883461], [118.6939844, 32.1891156], [118.694023, 32.1896531], [118.6939784, 32.190142], [118.6940541, 32.1908507], [118.6945068, 32.1919457], [118.694862, 32.1923811], [118.695826, 32.1937148], [118.6967609, 32.1947713], [118.6980698, 32.1955885], [118.6982629, 32.1960424], [118.6991641, 32.1968958], [118.699958, 32.1971319], [118.7010181, 32.1976893], [118.7021896, 32.1982395], [118.7096784, 32.2018891], [118.7104723, 32.2016349], [118.7114087, 32.20144], [118.7119505, 32.201642], [118.7123687, 32.2013285], [118.7130314, 32.2014218], [118.7137446, 32.2020594], [118.7142488, 32.2017371], [118.7146354, 32.2018826], [118.7153647, 32.2015986], [118.7162015, 32.2011288], [118.7161267, 32.2009248], [118.7159282, 32.2008022], [118.7156463, 32.200861], [118.714413, 32.200885], [118.7133133, 32.2004674], [118.7135837, 32.2002913], [118.7150428, 32.2001461], [118.7150213, 32.1995832], [118.7137982, 32.1991292], [118.7137982, 32.1988206], [118.7144634, 32.198185], [118.7131416, 32.198107], [118.713412, 32.197259], [118.7133348, 32.1968722], [118.7127254, 32.1970774], [118.7123177, 32.1973498], [118.7121031, 32.1970411], [118.712146, 32.1966235], [118.7120816, 32.196115], [118.7112662, 32.1952979], [118.710438, 32.1964364], [118.7100217, 32.1968777], [118.7096655, 32.1969449], [118.7093136, 32.1966416], [118.709614, 32.196115], [118.7090218, 32.1956556], [118.7081978, 32.1954977], [118.7076828, 32.1949348], [118.7068545, 32.1956738], [118.7064168, 32.1951527], [118.7064812, 32.1946805], [118.7066958, 32.1940268], [118.7058804, 32.1930463], [118.7049577, 32.1923018], [118.7047217, 32.1916844], [118.7037131, 32.1902498], [118.7033698, 32.1896142], [118.703048, 32.1890513], [118.7024471, 32.1884157], [118.7016618, 32.1881015], [118.7005803, 32.1886881], [118.7001083, 32.1884157], [118.7009022, 32.1872898], [118.7011168, 32.1868721], [118.7008, 32.1867344], [118.7005589, 32.1863818], [118.7001512, 32.1867268], [118.699722, 32.187435], [118.6994001, 32.1869629], [118.6987993, 32.1867087], [118.6981341, 32.186636], [118.697705, 32.1869629], [118.6970913, 32.1875749], [118.696469, 32.1878654], [118.6960967, 32.187544], [118.6965034, 32.1865271], [118.6966536, 32.1859641], [118.6968467, 32.1855464], [118.6965893, 32.1849247]]]}}, {"type": "Feature", "properties": {"osm_id": "way/1525414357", "natural": "water", "water": "lake"}, "geometry": {"type": "Polygon", "coordinates": [[[118.700969, 32.226142], [118.70095, 32.226249], [118.701076, 32.22657], [118.701454, 32.227494], [118.701489, 32.227592], [118.70148, 32.227681], [118.701426, 32.227761], [118.70122, 32.227861], [118.69997, 32.228136], [118.698197, 32.228607], [118.697303, 32.228896], [118.695556, 32.229376], [118.695438, 32.229475], [118.69533, 32.229573], [118.695172, 32.22969], [118.694998, 32.229742], [118.694782, 32.22975], [118.69453, 32.229716], [118.694396, 32.229681], [118.69427, 32.229672], [118.693897, 32.229727], [118.692996, 32.229933], [118.691345, 32.230278], [118.690131, 32.230584], [118.688784, 32.230857], [118.688641, 32.230894], [118.68856, 32.230948], [118.688532, 32.231081], [118.688491, 32.231189], [118.688384, 32.231252], [118.68822, 32.231287], [118.687927, 32.231198], [118.687599, 32.231029], [118.68748, 32.230948], [118.687453, 32.230857], [118.68748, 32.230762], [118.68756, 32.230662], [118.687831, 32.230547], [118.689151, 32.230171], [118.690292, 32.229727], [118.6908, 32.22952], [118.691017, 32.229512], [118.692317, 32.22946], [118.693404, 32.229314], [118.694229, 32.229208], [118.694834, 32.229082], [118.695777, 32.228751], [118.696511, 32.228547], [118.697303, 32.228288], [118.698275, 32.22795], [118.699034, 32.227752], [118.699783, 32.227626], [118.700621, 32.227494], [118.70074, 32.227442], [118.700827, 32.227353], [118.700854, 32.227123], [118.700789, 32.226865], [118.700442, 32.226168], [118.700245, 32.225674], [118.699932, 32.225031], [118.699763, 32.22476], [118.699183, 32.223842], [118.69855, 32.22277], [118.698252, 32.22221], [118.696807, 32.2196], [118.69641, 32.218892], [118.695759, 32.217831], [118.695418, 32.217072], [118.694797, 32.215734], [118.694397, 32.214781], [118.693842, 32.213742], [118.69343, 32.212767], [118.69277, 32.21135], [118.692406, 32.210332], [118.691718, 32.209039], [118.691407, 32.208186], [118.69112, 32.207346], [118.690986, 32.207096], [118.690506, 32.206428], [118.689612, 32.205269], [118.688952, 32.204358], [118.688034, 32.203305], [118.687516, 32.202732], [118.687043, 32.2023], [118.686947, 32.202203], [118.686893, 32.202133], [118.686902, 32.20207], [118.686962, 32.202046], [118.687027, 32.20207], [118.687405, 32.202402], [118.688353, 32.203412], [118.68941, 32.204531], [118.690014, 32.205252], [118.690448, 32.205862], [118.690623, 32.206146], [118.690712, 32.206298], [118.690749, 32.206367], [118.691136, 32.20702], [118.691389, 32.20745], [118.691504, 32.207569], [118.691578, 32.207596], [118.691611, 32.207589], [118.691691, 32.207567], [118.69178, 32.207509], [118.691845, 32.207494], [118.691925, 32.207526], [118.691982, 32.207604], [118.692008, 32.207693], [118.692008, 32.207756], [118.691967, 32.208236], [118.691967, 32.208346], [118.691959, 32.208449], [118.691965, 32.208503], [118.692039, 32.208696], [118.692579, 32.209592], [118.692738, 32.20976], [118.692829, 32.209881], [118.692909, 32.210029], [118.693005, 32.210374], [118.6931, 32.211003], [118.693202, 32.211396], [118.693434, 32.212101], [118.693575, 32.212448], [118.693625, 32.212572], [118.693973, 32.213388], [118.694461, 32.214343], [118.694839, 32.215218], [118.695308, 32.216141], [118.695724, 32.216946], [118.696319, 32.217987], [118.696929, 32.218992], [118.697482, 32.219936], [118.697543, 32.220036], [118.697903, 32.220715], [118.698367, 32.22172], [118.698422, 32.221839], [118.699715, 32.224176], [118.700301, 32.225081], [118.700381, 32.22519], [118.700607, 32.225472], [118.700733, 32.225635], [118.700969, 32.226142]]]}}, {"type": "Feature", "properties": {"osm_id": "way/1516036347", "landuse": "residential", "name": "创客公寓"}, "geometry": {"type": "Polygon", "coordinates": [[[118.6909086, 32.1961026], [118.6900074, 32.1946915], [118.6912029, 32.1931039], [118.6924046, 32.1953452], [118.6909086, 32.1961026]]]}}, {"type": "Feature", "properties": {"osm_id": "way/1528155488", "landuse": "commercial", "name": "聚慧园"}, "geometry": {"type": "Polygon", "coordinates": [[[118.6937607, 32.1962894], [118.6927943, 32.1947049], [118.6956703, 32.1936668], [118.6962139, 32.1945201], [118.6960699, 32.1946262], [118.6964509, 32.1953615], [118.6937607, 32.1962894]]]}}, {"type": "Feature", "properties": {"osm_id": "way/1528155487", "landuse": "commercial", "name": "聚智园"}, "geometry": {"type": "Polygon", "coordinates": [[[118.6952893, 32.1981727], [118.6946621, 32.1972291], [118.6941417, 32.1966], [118.6941092, 32.1964781], [118.6965949, 32.1955856], [118.696883, 32.1959906], [118.697106, 32.1962225], [118.6973801, 32.1964388], [118.6978308, 32.1964427], [118.6980446, 32.1965096], [118.6981514, 32.1967573], [118.6983094, 32.1967887], [118.6985464, 32.1970757], [118.6985835, 32.1971898], [118.6985324, 32.1972881], [118.6968737, 32.1977599], [118.6952893, 32.1981727]]]}}, {"type": "Feature", "properties": {"osm_id": "way/1008052054", "landuse": "residential", "name": "区域"}, "geometry": {"type": "Polygon", "coordinates": [[[118.6913852, 32.2057438], [118.6923245, 32.2067351], [118.6945622, 32.2075383], [118.6947078, 32.2072453], [118.6937937, 32.2067743], [118.6938665, 32.2060171], [118.6927905, 32.205687], [118.692564, 32.2052416], [118.6927501, 32.2045362], [118.6925883, 32.204111], [118.6922243, 32.2037809], [118.6904307, 32.2046789], [118.6908634, 32.2051583], [118.6913852, 32.2057438]]]}}, {"type": "Feature", "properties": {"osm_id": "way/1057168425", "addr:city": "南京市", "addr:district": "浦口区", "addr:postcode": "210044", "addr:province": "江苏省", "addr:street": "宁六路219号", "amenity": "school", "name": "南京信息工程大学南苑(毓园)校区", "operator": "李北群", "operator:type": "public", "website": "https://www.nuist.edu.cn/"}, "geometry": {"type": "Polygon", "coordinates": [[[118.6919042, 32.1980054], [118.6910087, 32.1964153], [118.6916908, 32.196015], [118.6924026, 32.1956166], [118.6928569, 32.1961185], [118.6937112, 32.1970945], [118.6919042, 32.1980054]]]}}, {"type": "Feature", "properties": {"osm_id": "way/1525414369", "natural": "water", "water": "lake"}, "geometry": {"type": "Polygon", "coordinates": [[[118.715678, 32.24492], [118.715617, 32.245048], [118.715598, 32.245273], [118.715572, 32.246027], [118.715591, 32.247377], [118.715617, 32.249501], [118.715593, 32.250335], [118.715578, 32.250762], [118.715578, 32.251085], [118.715622, 32.25135], [118.715704, 32.251576], [118.715845, 32.251767], [118.714741, 32.251752], [118.714812, 32.251697], [118.714836, 32.251673], [118.714949, 32.251496], [118.715003, 32.251348], [118.715144, 32.250912], [118.715216, 32.250545], [118.71527, 32.250074], [118.715324, 32.249206], [118.715376, 32.247637], [118.715385, 32.246656], [118.715396, 32.245399], [118.715385, 32.244117], [118.715376, 32.242893], [118.715405, 32.241769], [118.715405, 32.240315], [118.715411, 32.239169], [118.715431, 32.238062], [118.715431, 32.237813], [118.715468, 32.237581], [118.715476, 32.237405], [118.715487, 32.237199], [118.715487, 32.237121], [118.715422, 32.23681], [118.715422, 32.236322], [118.715465, 32.235224], [118.715491, 32.234154], [118.715502, 32.233329], [118.715483, 32.232561], [118.715411, 32.232007], [118.715296, 32.231667], [118.71509, 32.231302], [118.714404, 32.230608], [118.713549, 32.229661], [118.712432, 32.228394], [118.711594, 32.227457], [118.710745, 32.226514], [118.709719, 32.225336], [118.708927, 32.224461], [118.708823, 32.224366], [118.708742, 32.224325], [118.708449, 32.224023], [118.70841, 32.223932], [118.708221, 32.223682], [118.706864, 32.222269], [118.706395, 32.221802], [118.706173, 32.221514], [118.705948, 32.221312], [118.705848, 32.221123], [118.705867, 32.220908], [118.705954, 32.220798], [118.706573, 32.220503], [118.708064, 32.21985], [118.709529, 32.219236], [118.709687, 32.219179], [118.70977, 32.219162], [118.71008, 32.219177], [118.710538, 32.219179], [118.711137, 32.219203], [118.711681, 32.219223], [118.712333, 32.219225], [118.71294, 32.219236], [118.713635, 32.219262], [118.713891, 32.219268], [118.714043, 32.219268], [118.714158, 32.219268], [118.714238, 32.219249], [118.714305, 32.219203], [118.714359, 32.219114], [118.714477, 32.218739], [118.714741, 32.217769], [118.715069, 32.216766], [118.715488, 32.215466], [118.715735, 32.21467], [118.716064, 32.213551], [118.716453, 32.212214], [118.716696, 32.211311], [118.717128, 32.209933], [118.717566, 32.208559], [118.717822, 32.207709], [118.718319, 32.205996], [118.718417, 32.205753], [118.718551, 32.205547], [118.718744, 32.205441], [118.719641, 32.205241], [118.720423, 32.205037], [118.720911, 32.204915], [118.721141, 32.204883], [118.721232, 32.204876], [118.721302, 32.204889], [118.721332, 32.20495], [118.721304, 32.204998], [118.721198, 32.20503], [118.71998, 32.205293], [118.719011, 32.205534], [118.718853, 32.205601], [118.718718, 32.205675], [118.718612, 32.205775], [118.718558, 32.205897], [118.718397, 32.206376], [118.718139, 32.207348], [118.717735, 32.208698], [118.717325, 32.210002], [118.717013, 32.210929], [118.716659, 32.212173], [118.716338, 32.21319], [118.715915, 32.214527], [118.715664, 32.215379], [118.715256, 32.216805], [118.714759, 32.218507], [118.714581, 32.21904], [118.714516, 32.219179], [118.714425, 32.219301], [118.714318, 32.219383], [118.714199, 32.219409], [118.713882, 32.219416], [118.712311, 32.219329], [118.711074, 32.21931], [118.710182, 32.219301], [118.71003, 32.219314], [118.709809, 32.219388], [118.708973, 32.219711], [118.707645, 32.220245], [118.706818, 32.220605], [118.706284, 32.220854], [118.706158, 32.220945], [118.706115, 32.221006], [118.706104, 32.221093], [118.70613, 32.221186], [118.70633, 32.221385], [118.707278, 32.222423], [118.708313, 32.223511], [118.709506, 32.224789], [118.710735, 32.226093], [118.712321, 32.22791], [118.712601, 32.228249], [118.715094, 32.231042], [118.715266, 32.231209], [118.715426, 32.231382], [118.715526, 32.231539], [118.715602, 32.231821], [118.715656, 32.232346], [118.715667, 32.233184], [118.715648, 32.234213], [118.715606, 32.235382], [118.715578, 32.236365], [118.715583, 32.23699], [118.715583, 32.237264], [118.715587, 32.237719], [118.715587, 32.237991], [118.715552, 32.239282], [118.715567, 32.240862], [118.715557, 32.243435], [118.715567, 32.244293], [118.715567, 32.244418], [118.715613, 32.244516], [118.715674, 32.244579], [118.715678, 32.24492]]]}}, {"type": "Feature", "properties": {"osm_id": "way/1057178085", "leisure": "park"}, "geometry": {"type": "Polygon", "coordinates": [[[118.7038288, 32.2055763], [118.7049776, 32.2055737], [118.7059389, 32.2056444], [118.7059692, 32.2052552], [118.7055031, 32.2051458], [118.705784, 32.2043698], [118.7054042, 32.2037744], [118.7054945, 32.2034873], [118.7049776, 32.2032185], [118.7042273, 32.202855], [118.7041452, 32.2033587], [118.704053, 32.2039246], [118.7038288, 32.2055763]]]}}, {"type": "Feature", "properties": {"osm_id": "way/1114848802", "natural": "water", "water": "pond"}, "geometry": {"type": "Polygon", "coordinates": [[[118.7052031, 32.2043582], [118.7053374, 32.204366], [118.7053241, 32.2042872], [118.7052835, 32.2042362], [118.7052137, 32.2041001], [118.7050867, 32.2040308], [118.7050191, 32.2039708], [118.7049457, 32.2038629], [118.7049303, 32.203709], [118.7048779, 32.2031433], [118.7050319, 32.2029504], [118.7050852, 32.2028468], [118.7051922, 32.2023851], [118.7052114, 32.2022426], [118.7052503, 32.2019998], [118.7053092, 32.2016677], [118.7054232, 32.2004606], [118.7052478, 32.2004013], [118.7051985, 32.2004639], [118.7052169, 32.2005708], [118.7051615, 32.2007403], [118.7050783, 32.2009697], [118.705106, 32.2011235], [118.7051522, 32.201379], [118.7051307, 32.2014781], [118.7051091, 32.2016971], [118.7048534, 32.2021325], [118.7047887, 32.2024349], [118.7046617, 32.2027857], [118.7047064, 32.2028201], [118.7046753, 32.2029011], [118.7046617, 32.2030299], [118.70456, 32.2031193], [118.7043527, 32.2030815], [118.7042714, 32.2031297], [118.7042226, 32.2033223], [118.7041452, 32.2033587], [118.7041941, 32.2033877], [118.7042348, 32.2034771], [118.7044503, 32.2036044], [118.7044989, 32.2037403], [118.7045112, 32.2039124], [118.704465, 32.2041418], [118.7043726, 32.2042852], [118.7043356, 32.2043373], [118.7041292, 32.2044859], [118.7040522, 32.2045563], [118.7040183, 32.2046398], [118.7039844, 32.204963], [118.7038858, 32.2055288], [118.7038827, 32.2058442], [118.7038426, 32.2062014], [118.7038519, 32.2062196], [118.7040601, 32.2061654], [118.7041569, 32.2054505], [118.7042925, 32.205315], [118.7044589, 32.2053072], [118.7046437, 32.2053828], [118.7047608, 32.2053984], [118.7048656, 32.2053749], [118.7047885, 32.2053306], [118.7045236, 32.2052498], [118.7043695, 32.2050856], [118.7042524, 32.2049291], [118.7042339, 32.204817], [118.7043387, 32.2045798], [118.7044619, 32.2044182], [118.7046345, 32.2041992], [118.7046653, 32.2042122], [118.7047269, 32.2041809], [118.7048686, 32.2040819], [118.7050054, 32.2041121], [118.7051398, 32.2042044], [118.7051942, 32.2043113], [118.7052031, 32.2043582]]]}}, {"type": "Feature", "properties": {"osm_id": "way/1229235510", "amenity": "research_institute", "name": "中国气象谷"}, "geometry": {"type": "Polygon", "coordinates": [[[118.7116341, 32.2043622], [118.7115991, 32.2030787], [118.7149442, 32.2042401], [118.714989, 32.2046311], [118.7148235, 32.205028], [118.7138544, 32.2048704], [118.7139027, 32.2046574], [118.7116341, 32.2043622]]]}}, {"type": "Feature", "properties": {"osm_id": "way/1498513301", "natural": "water"}, "geometry": {"type": "Polygon", "coordinates": [[[118.7052008, 32.2044273], [118.7051939, 32.2047249], [118.7051512, 32.2049376], [118.7050625, 32.205172], [118.7052423, 32.205377], [118.7056067, 32.2055622], [118.7056889, 32.2055821], [118.7056583, 32.2059296], [118.705699, 32.2060274], [118.7058483, 32.2060471], [118.7058507, 32.206111], [118.7059873, 32.2061705], [118.7061134, 32.2061668], [118.7061831, 32.2060977], [118.7061487, 32.2060175], [118.7059549, 32.2059519], [118.7059048, 32.2058286], [118.7058738, 32.2055938], [118.7058267, 32.2054551], [118.7057292, 32.2053936], [118.7054408, 32.2053021], [118.7053461, 32.2051465], [118.705281, 32.2049723], [118.7052572, 32.2048023], [118.7053038, 32.2044418], [118.7052008, 32.2044273]]]}}, {"type": "Feature", "properties": {"osm_id": "way/1057165400", "leisure": "pitch", "name": "西苑篮球场", "sport": "basketball"}, "geometry": {"type": "Polygon", "coordinates": [[[118.7008427, 32.2035075], [118.7017346, 32.2039239], [118.7020808, 32.2034151], [118.7011864, 32.2029997], [118.7008427, 32.2035075]]]}}, {"type": "Feature", "properties": {"osm_id": "way/1245982405", "leisure": "pitch", "name": "西苑网球场", "sport": "tennis"}, "geometry": {"type": "Polygon", "coordinates": [[[118.701208, 32.2029969], [118.7013682, 32.2027479], [118.7020691, 32.2030764], [118.7019089, 32.2033254], [118.701208, 32.2029969]]]}}, {"type": "Feature", "properties": {"osm_id": "way/1245982406", "leisure": "pitch", "name": "西苑排球场", "sport": "volleyball"}, "geometry": {"type": "Polygon", "coordinates": [[[118.7013978, 32.202723], [118.701814, 32.2020451], [118.7025312, 32.2023951], [118.7020838, 32.2030465], [118.7013978, 32.202723]]]}}, {"type": "Feature", "properties": {"osm_id": "way/1316148870", "leisure": "pitch", "sport": "basketball"}, "geometry": {"type": "Polygon", "coordinates": [[[118.702085, 32.2064911], [118.7020265, 32.2058073], [118.7025874, 32.2057729], [118.702646, 32.2064567], [118.702085, 32.2064911]]]}}, {"type": "Feature", "properties": {"osm_id": "way/1499624139", "athletics": "shot_put", "leisure": "pitch", "sport": "athletics"}, "geometry": {"type": "Polygon", "coordinates": [[[118.7031321, 32.2040914], [118.7031221, 32.2041254], [118.7031079, 32.2041581], [118.7030895, 32.2041894], [118.7030672, 32.2042188], [118.7028629, 32.204061], [118.7031321, 32.2040914]]]}}, {"type": "Feature", "properties": {"osm_id": "way/1499624140", "athletics": "shot_put", "leisure": "pitch", "sport": "athletics"}, "geometry": {"type": "Polygon", "coordinates": [[[118.7032144, 32.204232], [118.7031999, 32.2041993], [118.7031896, 32.2041654], [118.7031838, 32.2041308], [118.7031825, 32.2040959], [118.7034565, 32.204128], [118.7032144, 32.204232]]]}}, {"type": "Feature", "properties": {"osm_id": "way/1499624141", "leisure": "pitch", "sport": "soccer"}, "geometry": {"type": "Polygon", "coordinates": [[[118.7028154, 32.2039867], [118.703522, 32.2040673], [118.703538, 32.2040402], [118.7035508, 32.2040068], [118.7035587, 32.2039733], [118.7036797, 32.2032079], [118.7036829, 32.2031739], [118.7036822, 32.20314], [118.7036769, 32.2031106], [118.7029701, 32.2030278], [118.7029503, 32.2030651], [118.7029407, 32.2030947], [118.7029343, 32.2031262], [118.7028107, 32.20389], [118.7028083, 32.2039224], [118.7028093, 32.2039537], [118.7028154, 32.2039867]]]}}, {"type": "Feature", "properties": {"osm_id": "way/682188172", "natural": "water", "water": "pond"}, "geometry": {"type": "Polygon", "coordinates": [[[118.708287, 32.2069506], [118.7084211, 32.2069732], [118.7085069, 32.2069279], [118.7085659, 32.2069006], [118.7086678, 32.2069324], [118.7086893, 32.2068689], [118.7086947, 32.2067281], [118.7087054, 32.2066101], [118.7087537, 32.206533], [118.7087805, 32.2064376], [118.708759, 32.2063514], [118.7087376, 32.2062742], [118.7084694, 32.2062062], [118.7081743, 32.2061608], [118.7079973, 32.2061245], [118.7078471, 32.2061426], [118.707831, 32.2063106], [118.7077827, 32.2064603], [118.7077344, 32.2066101], [118.7076969, 32.2068189], [118.7076861, 32.2069959], [118.7077881, 32.2070141], [118.7078524, 32.2070277], [118.7078954, 32.2070277], [118.7080241, 32.2069823], [118.708067, 32.2069778], [118.7081153, 32.2069823], [118.7081904, 32.2070141], [118.7082387, 32.2070141], [118.708287, 32.2069506]]]}}, {"type": "Feature", "properties": {"osm_id": "way/971606047", "amenity": "parking"}, "geometry": {"type": "Polygon", "coordinates": [[[118.7098572, 32.2074839], [118.7101876, 32.2075226], [118.7102464, 32.2071632], [118.7099161, 32.2071245], [118.7098572, 32.2074839]]]}}, {"type": "Feature", "properties": {"osm_id": "way/971606048", "amenity": "parking"}, "geometry": {"type": "Polygon", "coordinates": [[[118.708873, 32.2069669], [118.7096164, 32.2070541], [118.7096675, 32.2067424], [118.7089242, 32.2066551], [118.708873, 32.2069669]]]}}, {"type": "Feature", "properties": {"osm_id": "way/1057168412", "amenity": "parking"}, "geometry": {"type": "Polygon", "coordinates": [[[118.708143, 32.2013969], [118.7084395, 32.2015544], [118.7085415, 32.2014169], [118.7082449, 32.2012595], [118.708143, 32.2013969]]]}}, {"type": "Feature", "properties": {"osm_id": "way/1057168413", "leisure": "pitch", "name": "中苑老田径场"}, "geometry": {"type": "Polygon", "coordinates": [[[118.7102581, 32.2060824], [118.711316, 32.2061972], [118.7114844, 32.2058513], [118.7117288, 32.2049371], [118.711242, 32.2048537], [118.7105046, 32.2047233], [118.7103958, 32.2051352], [118.7103013, 32.2056253], [118.7102581, 32.2060824]]]}}, {"type": "Feature", "properties": {"osm_id": "way/1316302534", "landuse": "residential", "name": "家属宿舍"}, "geometry": {"type": "Polygon", "coordinates": [[[118.7090754, 32.2052657], [118.7102717, 32.2053906], [118.7101161, 32.2063347], [118.7102556, 32.2067954], [118.7102134, 32.2071273], [118.7096783, 32.2070615], [118.7096981, 32.2067261], [118.708875, 32.2066123], [118.7090754, 32.2052657]]]}}, {"type": "Feature", "properties": {"osm_id": "way/1424986314", "amenity": "parking"}, "geometry": {"type": "Polygon", "coordinates": [[[118.7109856, 32.2022128], [118.7109339, 32.2022009], [118.7109561, 32.2020789], [118.71095, 32.2020102], [118.7109172, 32.2019087], [118.7108521, 32.2018094], [118.7108072, 32.2017612], [118.7109473, 32.2016607], [118.7110218, 32.201739], [118.7110949, 32.2018758], [118.711125, 32.2019558], [118.7111331, 32.2020812], [118.7111063, 32.2022366], [118.7109856, 32.2022128]]]}}, {"type": "Feature", "properties": {"osm_id": "way/1499631772", "area": "yes", "athletics": "sprint", "leisure": "track", "sport": "athletics"}, "geometry": {"type": "Polygon", "coordinates": [[[118.7103038, 32.2060167], [118.7104229, 32.2060319], [118.7105902, 32.2050905], [118.7104709, 32.2050753], [118.7103038, 32.2060167]]]}}, {"type": "Feature", "properties": {"osm_id": "way/1499631773", "leisure": "pitch", "sport": "soccer"}, "geometry": {"type": "Polygon", "coordinates": [[[118.7104874, 32.2059901], [118.7110626, 32.206064], [118.7111805, 32.205407], [118.7106052, 32.2053331], [118.7104874, 32.2059901]]]}}, {"type": "Feature", "properties": {"osm_id": "way/1499631774", "leisure": "pitch", "sport": "volleyball"}, "geometry": {"type": "Polygon", "coordinates": [[[118.7109237, 32.2053429], [118.7110134, 32.2053548], [118.7110426, 32.2051977], [118.7109529, 32.2051857], [118.7109237, 32.2053429]]]}}, {"type": "Feature", "properties": {"osm_id": "way/1499631775", "leisure": "pitch", "sport": "volleyball"}, "geometry": {"type": "Polygon", "coordinates": [[[118.7110646, 32.2053617], [118.7111543, 32.2053737], [118.7111836, 32.2052166], [118.7110938, 32.2052046], [118.7110646, 32.2053617]]]}}, {"type": "Feature", "properties": {"osm_id": "way/1499631776", "leisure": "pitch", "sport": "basketball"}, "geometry": {"type": "Polygon", "coordinates": [[[118.7114116, 32.2054033], [118.7115695, 32.2054268], [118.7116192, 32.2051875], [118.7114613, 32.205164], [118.7114116, 32.2054033]]]}}, {"type": "Feature", "properties": {"osm_id": "way/1499631777", "leisure": "pitch", "sport": "basketball"}, "geometry": {"type": "Polygon", "coordinates": [[[118.7113649, 32.2056738], [118.7115237, 32.2056924], [118.711563, 32.2054517], [118.7114042, 32.2054331], [118.7113649, 32.2056738]]]}}, {"type": "Feature", "properties": {"osm_id": "way/1499631778", "leisure": "pitch", "sport": "basketball"}, "geometry": {"type": "Polygon", "coordinates": [[[118.7114629, 32.2051295], [118.7116208, 32.205153], [118.7116705, 32.2049137], [118.7115126, 32.2048902], [118.7114629, 32.2051295]]]}}, {"type": "Feature", "properties": {"osm_id": "way/1499631779", "leisure": "pitch", "sport": "basketball"}, "geometry": {"type": "Polygon", "coordinates": [[[118.7112755, 32.2051075], [118.7114334, 32.205131], [118.7114831, 32.2048916], [118.7113252, 32.2048682], [118.7112755, 32.2051075]]]}}, {"type": "Feature", "properties": {"osm_id": "way/1499631780", "leisure": "pitch", "sport": "basketball"}, "geometry": {"type": "Polygon", "coordinates": [[[118.7110894, 32.2050779], [118.7112473, 32.2051014], [118.711297, 32.2048621], [118.711139, 32.2048386], [118.7110894, 32.2050779]]]}}, {"type": "Feature", "properties": {"osm_id": "way/1499631781", "leisure": "pitch", "sport": "basketball"}, "geometry": {"type": "Polygon", "coordinates": [[[118.7108918, 32.205057], [118.7110497, 32.2050804], [118.7110994, 32.2048411], [118.7109415, 32.2048176], [118.7108918, 32.205057]]]}}, {"type": "Feature", "properties": {"osm_id": "way/1499631782", "leisure": "pitch", "sport": "basketball"}, "geometry": {"type": "Polygon", "coordinates": [[[118.7107056, 32.2050317], [118.7108635, 32.2050552], [118.7109133, 32.2048158], [118.7107553, 32.2047924], [118.7107056, 32.2050317]]]}}, {"type": "Feature", "properties": {"osm_id": "way/1499631783", "leisure": "pitch", "sport": "basketball"}, "geometry": {"type": "Polygon", "coordinates": [[[118.7105176, 32.2050059], [118.7106755, 32.2050294], [118.7107252, 32.20479], [118.7105673, 32.2047666], [118.7105176, 32.2050059]]]}}, {"type": "Feature", "properties": {"osm_id": "way/1421123694", "leisure": "pitch"}, "geometry": {"type": "Polygon", "coordinates": [[[118.7193733, 32.2001904], [118.7196798, 32.2001266], [118.7195628, 32.1997238], [118.7192562, 32.1997876], [118.7193733, 32.2001904]]]}}, {"type": "Feature", "properties": {"osm_id": "way/1421123702", "amenity": "parking"}, "geometry": {"type": "Polygon", "coordinates": [[[118.7232077, 32.2003869], [118.7230441, 32.1996107], [118.7236476, 32.1994291], [118.7238032, 32.200304], [118.7232077, 32.2003869]]]}}, {"type": "Feature", "properties": {"osm_id": "way/383624544", "construction_date": "2016", "landuse": "residential", "name:en": "Panjin Huafu", "residential": "apartments"}, "geometry": {"type": "Polygon", "coordinates": [[[118.7225213, 32.204269], [118.7227761, 32.2052155], [118.7266278, 32.2052699], [118.7266707, 32.2054061], [118.7266922, 32.2059326], [118.7267458, 32.20714], [118.7268638, 32.2074396], [118.7281257, 32.2078356], [118.7284784, 32.2078878], [118.7287465, 32.2077721], [118.7285643, 32.2076256], [118.7285429, 32.2074464], [118.7289606, 32.2067546], [118.7289323, 32.2066528], [118.7291022, 32.2066528], [118.7292367, 32.206539], [118.7294136, 32.2064731], [118.7287907, 32.2053831], [118.728366, 32.2046763], [118.7278828, 32.2039286], [118.7277272, 32.2039712], [118.7276173, 32.2039661], [118.7275073, 32.2039411], [118.7273517, 32.2038424], [118.7271992, 32.2036456], [118.7225213, 32.204269]]]}}, {"type": "Feature", "properties": {"osm_id": "way/398533173", "landuse": "residential", "name": "盘龙山庄", "name:en": "Panlong Mountain Villa", "residential": "apartments"}, "geometry": {"type": "Polygon", "coordinates": [[[118.7216225, 32.2014358], [118.7225869, 32.2012014], [118.7225888, 32.2010604], [118.7226116, 32.2008936], [118.722888, 32.2007009], [118.723132, 32.2006734], [118.7231083, 32.2004255], [118.7239015, 32.2003167], [118.7238525, 32.2000062], [118.7237865, 32.1994843], [118.7242409, 32.1993471], [118.7248394, 32.1992817], [118.7248056, 32.199083], [118.7256441, 32.1990348], [118.7256348, 32.1987784], [118.7264237, 32.1985155], [118.7264894, 32.1985507], [118.7265632, 32.1986919], [118.7265795, 32.1990909], [118.7262976, 32.2021617], [118.7263647, 32.2024159], [118.7263905, 32.2029635], [118.72648, 32.2032194], [118.7223065, 32.2039116], [118.7216225, 32.2014358]]]}}, {"type": "Feature", "properties": {"osm_id": "way/478389350", "leisure": "pitch", "name": "东苑篮球场", "sport": "basketball"}, "geometry": {"type": "Polygon", "coordinates": [[[118.7153717, 32.2083433], [118.7161335, 32.2084431], [118.7163481, 32.2072993], [118.7155863, 32.2071995], [118.7153717, 32.2083433]]]}}, {"type": "Feature", "properties": {"osm_id": "way/1056191464", "construction": "hospital", "healthcare": "hospital", "landuse": "construction"}, "geometry": {"type": "Polygon", "coordinates": [[[118.7160916, 32.2042221], [118.7166041, 32.2043803], [118.7169738, 32.2044857], [118.7173417, 32.2045346], [118.7177843, 32.2045198], [118.7191116, 32.2043318], [118.7204309, 32.2041503], [118.7204066, 32.2028172], [118.7204048, 32.2025067], [118.7200686, 32.2020862], [118.7196884, 32.2020742], [118.7169829, 32.2020941], [118.7163641, 32.2021186], [118.7160636, 32.2022015], [118.7159201, 32.2023501], [118.7158298, 32.2026524], [118.715747, 32.2031387], [118.7158558, 32.2033136], [118.7158683, 32.2034542], [118.7155686, 32.2038047], [118.7154489, 32.204008], [118.7160916, 32.2042221]]]}}, {"type": "Feature", "properties": {"osm_id": "way/1057168418", "landuse": "forest"}, "geometry": {"type": "Polygon", "coordinates": [[[118.7211288, 32.2093771], [118.721443, 32.2093945], [118.7214574, 32.2097751], [118.7224762, 32.2097994], [118.7228295, 32.2096117], [118.7222605, 32.2078529], [118.7218518, 32.2077991], [118.7215108, 32.2077452], [118.7211678, 32.2075888], [118.7208248, 32.2075332], [118.7208104, 32.207707], [118.7211596, 32.2078929], [118.7213198, 32.2080824], [118.721289, 32.2083431], [118.7211288, 32.2093771]]]}}, {"type": "Feature", "properties": {"osm_id": "way/1057168420", "leisure": "park"}, "geometry": {"type": "Polygon", "coordinates": [[[118.7191026, 32.2073237], [118.7188828, 32.2087436], [118.7178291, 32.2086463], [118.7182707, 32.2072577], [118.7191026, 32.2073237]]]}}, {"type": "Feature", "properties": {"osm_id": "way/1057168421", "leisure": "park"}, "geometry": {"type": "Polygon", "coordinates": [[[118.7165022, 32.2064269], [118.7180201, 32.2065642], [118.7182214, 32.2059142], [118.7182657, 32.2057692], [118.7185018, 32.2055228], [118.7184709, 32.2054912], [118.7184173, 32.2055275], [118.7183516, 32.2054583], [118.7185232, 32.2053437], [118.7187003, 32.2052938], [118.7187928, 32.2052835], [118.7188397, 32.2053641], [118.718766, 32.2053755], [118.7187888, 32.205422], [118.7191226, 32.2053559], [118.7191241, 32.2052735], [118.7177469, 32.2051168], [118.7171718, 32.2050278], [118.7167733, 32.204967], [118.7165022, 32.2064269]]]}}, {"type": "Feature", "properties": {"osm_id": "way/1421123701", "amenity": "parking"}, "geometry": {"type": "Polygon", "coordinates": [[[118.7216681, 32.2013492], [118.721467, 32.2006604], [118.721994, 32.2005412], [118.7221201, 32.2009327], [118.7225197, 32.2008351], [118.7225506, 32.2011427], [118.7216681, 32.2013492]]]}}, {"type": "Feature", "properties": {"osm_id": "way/1421123710", "landuse": "residential", "name:en": "Peach Huli Garden"}, "geometry": {"type": "Polygon", "coordinates": [[[118.7210244, 32.1997832], [118.7206087, 32.1983918], [118.722395, 32.1972229], [118.7241813, 32.1960291], [118.7249082, 32.1959019], [118.7257183, 32.1959019], [118.7254983, 32.197005], [118.7252247, 32.1980446], [118.7249458, 32.1984032], [118.7234009, 32.1992611], [118.7211692, 32.1999125], [118.7210244, 32.1997832]]]}}, {"type": "Feature", "properties": {"osm_id": "way/1424152835", "amenity": "parking"}, "geometry": {"type": "Polygon", "coordinates": [[[118.724636, 32.2035905], [118.7264156, 32.2033272], [118.7263902, 32.2032114], [118.7246105, 32.2034815], [118.724636, 32.2035905]]]}}, {"type": "Feature", "properties": {"osm_id": "way/682188142", "name": "藕舫园", "natural": "water", "water": "pond"}, "geometry": {"type": "Polygon", "coordinates": [[[118.7122083, 32.2074578], [118.7125034, 32.2075032], [118.7125785, 32.2075077], [118.7126053, 32.2073942], [118.7126214, 32.207249], [118.7126268, 32.2071809], [118.7124658, 32.2071446], [118.7122566, 32.2071219], [118.712203, 32.2071355], [118.7121976, 32.2072399], [118.7121762, 32.2073352], [118.712144, 32.2074487], [118.7122083, 32.2074578]]]}}, {"type": "Feature", "properties": {"osm_id": "way/1057168415", "amenity": "parking"}, "geometry": {"type": "Polygon", "coordinates": [[[118.7125888, 32.2053751], [118.7131065, 32.2054566], [118.7131452, 32.2052806], [118.7126274, 32.2051993], [118.7125888, 32.2053751]]]}}, {"type": "Feature", "properties": {"osm_id": "way/1424945035", "amenity": "parking"}, "geometry": {"type": "Polygon", "coordinates": [[[118.7132125, 32.2048676], [118.7132503, 32.2046374], [118.7138658, 32.2047097], [118.713837, 32.204885], [118.7133195, 32.2048243], [118.7133105, 32.2048791], [118.7132125, 32.2048676]]]}}, {"type": "Feature", "properties": {"osm_id": "way/1057168419", "landuse": "forest"}, "geometry": {"type": "Polygon", "coordinates": [[[118.7202641, 32.2073371], [118.7210843, 32.207432], [118.7214363, 32.2073963], [118.7220438, 32.2070383], [118.7214194, 32.2050969], [118.7205721, 32.2052842], [118.7206006, 32.2053687], [118.7204105, 32.2054392], [118.7202063, 32.2054549], [118.7201849, 32.20538], [118.7192079, 32.2056114], [118.71917, 32.2058722], [118.720383, 32.2059944], [118.7204802, 32.2060647], [118.7204155, 32.2063786], [118.7203525, 32.2068558], [118.7202641, 32.2073371]]]}}, {"type": "Feature", "properties": {"osm_id": "way/1421104673", "access": "yes", "amenity": "motorcycle_parking", "surface": "asphalt"}, "geometry": {"type": "Polygon", "coordinates": [[[118.7224479, 32.2051432], [118.7224134, 32.2050238], [118.7223499, 32.2048036], [118.7226016, 32.2047515], [118.7226996, 32.2050912], [118.7224479, 32.2051432]]]}}, {"type": "Feature", "properties": {"osm_id": "way/1424152836", "amenity": "parking"}, "geometry": {"type": "Polygon", "coordinates": [[[118.7238888, 32.2036904], [118.72387, 32.203588], [118.7244068, 32.2035172], [118.7244257, 32.2036195], [118.7238888, 32.2036904]]]}}, {"type": "Feature", "properties": {"osm_id": "way/1424977470", "landuse": "construction"}, "geometry": {"type": "Polygon", "coordinates": [[[118.7193333, 32.2052949], [118.7195639, 32.2046345], [118.7206087, 32.2044745], [118.7207186, 32.2049919], [118.7193333, 32.2052949]]]}}, {"type": "Feature", "properties": {"osm_id": "way/1424986305", "amenity": "parking"}, "geometry": {"type": "Polygon", "coordinates": [[[118.7218961, 32.2034462], [118.7215453, 32.2022656], [118.7217768, 32.2022164], [118.7221276, 32.2033969], [118.7218961, 32.2034462]]]}}, {"type": "Feature", "properties": {"osm_id": "way/1057165396", "amenity": "school"}, "geometry": {"type": "Polygon", "coordinates": [[[118.7070662, 32.2114462], [118.7093261, 32.2113284], [118.7095848, 32.2102453], [118.7091957, 32.2101373], [118.7076203, 32.2098528], [118.7071824, 32.2097814], [118.7070662, 32.2114462]]]}}, {"type": "Feature", "properties": {"osm_id": "way/1425270072", "amenity": "parking"}, "geometry": {"type": "Polygon", "coordinates": [[[118.7104189, 32.2112307], [118.7106737, 32.2106542], [118.7114918, 32.2109765], [118.7111565, 32.2114644], [118.7104189, 32.2112307]]]}}, {"type": "Feature", "properties": {"osm_id": "way/1425270080", "leisure": "pitch"}, "geometry": {"type": "Polygon", "coordinates": [[[118.7082008, 32.2111512], [118.7085561, 32.2112341], [118.7086715, 32.2112227], [118.7088002, 32.2111251], [118.708933, 32.2106338], [118.7088539, 32.2104874], [118.7087694, 32.2104421], [118.7086621, 32.2104239], [118.708536, 32.2104591], [118.7085602, 32.2103638], [118.7093058, 32.2105113], [118.7093662, 32.2103195], [118.7092146, 32.21029], [118.7092401, 32.2101652], [118.708477, 32.2100233], [118.7082008, 32.2111512]]]}}, {"type": "Feature", "properties": {"osm_id": "way/1425270077", "amenity": "parking"}, "geometry": {"type": "Polygon", "coordinates": [[[118.702666, 32.2084563], [118.7026566, 32.2083485], [118.70267, 32.2082963], [118.7030201, 32.2082793], [118.7039213, 32.2082759], [118.7044068, 32.2082974], [118.7051618, 32.2083678], [118.705835, 32.2084404], [118.706342, 32.2085187], [118.7063152, 32.2086764], [118.7047943, 32.2084915], [118.7042606, 32.2084529], [118.7035485, 32.2084313], [118.702666, 32.2084563]]]}}, {"type": "Feature", "properties": {"osm_id": "way/1425270089", "landuse": "residential", "name": "盘城新居", "name:en": "Pancheng New Residence", "residential": "apartments"}, "geometry": {"type": "Polygon", "coordinates": [[[118.7017956, 32.2128215], [118.6991697, 32.2090384], [118.6992556, 32.2088137], [118.7015958, 32.2084484], [118.7017366, 32.2091054], [118.7027666, 32.2089544], [118.7034881, 32.2089249], [118.7034962, 32.2091837], [118.7038904, 32.2091837], [118.7039012, 32.2098236], [118.706063, 32.2099053], [118.7060416, 32.2105907], [118.7068891, 32.210627], [118.7068301, 32.2114667], [118.7049258, 32.2115938], [118.7035418, 32.2121112], [118.7017956, 32.2128215]]]}}, {"type": "Feature", "properties": {"osm_id": "way/682188845", "construction_date": "2005", "landuse": "residential", "name:en": "Panxin Homeland", "residential": "apartments"}, "geometry": {"type": "Polygon", "coordinates": [[[118.7150335, 32.2119867], [118.7155718, 32.2121294], [118.7161512, 32.2122837], [118.7163304, 32.2116383], [118.7165423, 32.2109371], [118.7167099, 32.2104662], [118.7169151, 32.209791], [118.7164162, 32.2096866], [118.7161615, 32.2103411], [118.715601, 32.2102094], [118.7154506, 32.2106942], [118.7152071, 32.2114213], [118.7150335, 32.2119867]]]}}, {"type": "Feature", "properties": {"osm_id": "way/682188846", "construction_date": "2006", "landuse": "residential", "name:en": "Panjin Garden", "residential": "apartments"}, "geometry": {"type": "Polygon", "coordinates": [[[118.7120228, 32.2111277], [118.7131949, 32.2113864], [118.7141712, 32.211602], [118.714963, 32.2117754], [118.7151502, 32.211257], [118.715515, 32.2102404], [118.7157296, 32.2095141], [118.7149142, 32.2093326], [118.7138661, 32.2091017], [118.7137514, 32.2094398], [118.7134932, 32.209397], [118.7130983, 32.2098455], [118.7127737, 32.2102608], [118.7124926, 32.2105817], [118.7122454, 32.2108826], [118.7120228, 32.2111277]]]}}, {"type": "Feature", "properties": {"osm_id": "way/1321673119", "leisure": "pitch", "sport": "soccer"}, "geometry": {"type": "Polygon", "coordinates": [[[118.7208277, 32.2091235], [118.7209737, 32.2081855], [118.720264, 32.2081064], [118.7201181, 32.2090444], [118.7208277, 32.2091235]]]}}, {"type": "Feature", "properties": {"osm_id": "way/1417005197", "amenity": "parking", "parking": "surface"}, "geometry": {"type": "Polygon", "coordinates": [[[118.7242177, 32.2112001], [118.7240329, 32.2105642], [118.7242825, 32.2105123], [118.7244672, 32.2111482], [118.7242177, 32.2112001]]]}}, {"type": "Feature", "properties": {"osm_id": "way/1417005198", "amenity": "parking", "parking": "surface"}, "geometry": {"type": "Polygon", "coordinates": [[[118.7245413, 32.2122998], [118.7242488, 32.211279], [118.7244691, 32.2112338], [118.7247617, 32.2122546], [118.7245413, 32.2122998]]]}}, {"type": "Feature", "properties": {"osm_id": "way/1499639000", "athletics": "long_jump", "leisure": "pitch", "sport": "athletics"}, "geometry": {"type": "Polygon", "coordinates": [[[118.7203658, 32.2092816], [118.7203835, 32.2092641], [118.7203988, 32.209245], [118.7204114, 32.2092246], [118.7204214, 32.2092031], [118.7204284, 32.2091809], [118.7204325, 32.2091581], [118.7201746, 32.2091299], [118.7203658, 32.2092816]]]}}, {"type": "Feature", "properties": {"osm_id": "way/1499639001", "athletics": "long_jump", "leisure": "pitch", "sport": "athletics"}, "geometry": {"type": "Polygon", "coordinates": [[[118.7204865, 32.2091651], [118.7204842, 32.2091881], [118.7204849, 32.2092111], [118.7204886, 32.2092339], [118.7204953, 32.2092563], [118.7205048, 32.2092779], [118.7205171, 32.2092984], [118.7207464, 32.2091945], [118.7204865, 32.2091651]]]}}, {"type": "Feature", "properties": {"osm_id": "way/586029342", "construction_date": "2013", "landuse": "residential", "name:en": "Xinting Yayuan", "residential": "apartments"}, "geometry": {"type": "Polygon", "coordinates": [[[118.7258633, 32.2131892], [118.7267778, 32.2127807], [118.7259221, 32.2115019], [118.7255144, 32.2104091], [118.7248975, 32.2104069], [118.7250289, 32.2111149], [118.7245582, 32.2112227], [118.7251873, 32.2133594], [118.7258633, 32.2131892]]]}}]}