{"type": "FeatureCollection", "features": [{"type": "Feature", "properties": {"osm_id": "relation/2474016", "building": "yes", "type": "multipolygon"}, "geometry": {"type": "Polygon", "coordinates": [[[118.7009128, 32.1945145], [118.7009633, 32.1944715], [118.7009896, 32.1944176], [118.7009888, 32.1943525], [118.7009633, 32.1943018], [118.7009299, 32.1942697], [118.7008939, 32.1942494], [118.7008463, 32.1942355], [118.7008169, 32.1942363], [118.7007644, 32.1942378], [118.7007078, 32.1942599], [118.7006575, 32.1943042], [118.700632, 32.1943603], [118.700633, 32.1944175], [118.7006624, 32.1944753], [118.7007099, 32.1945146], [118.7007784, 32.1945381], [118.7008455, 32.1945379], [118.7009128, 32.1945145]], [[118.7008939, 32.1944894], [118.7009351, 32.1944559], [118.7009564, 32.1944154], [118.7009546, 32.1943539], [118.7009389, 32.1943239], [118.7009023, 32.1942904], [118.7008492, 32.1942699], [118.7007777, 32.1942719], [118.7007323, 32.1942911], [118.7007001, 32.1943197], [118.7006777, 32.194366], [118.7006776, 32.1944086], [118.7007004, 32.1944556], [118.700738, 32.1944873], [118.7007892, 32.1945056], [118.7008379, 32.1945068], [118.7008939, 32.1944894]]]}}, {"type": "Feature", "properties": {"osm_id": "way/1425270042", "building": "yes"}, "geometry": {"type": "Polygon", "coordinates": [[[118.6981612, 32.2092829], [118.698113, 32.2092035], [118.6984221, 32.2090747], [118.698465, 32.2091451], [118.6981612, 32.2092829]]]}}, {"type": "Feature", "properties": {"osm_id": "way/1425270043", "building": "yes"}, "geometry": {"type": "Polygon", "coordinates": [[[118.6983383, 32.2095757], [118.6985005, 32.2096557], [118.6985616, 32.2096307], [118.6983745, 32.2093312], [118.698229, 32.2093987], [118.6983383, 32.2095757]]]}}, {"type": "Feature", "properties": {"osm_id": "way/1425270045", "building": "yes"}, "geometry": {"type": "Polygon", "coordinates": [[[118.6987191, 32.2114565], [118.6989042, 32.2113646], [118.6983718, 32.2105975], [118.6981827, 32.2106985], [118.6987191, 32.2114565]]]}}, {"type": "Feature", "properties": {"osm_id": "way/685183294", "building": "university", "building:levels": "6", "name": "揽江楼"}, "geometry": {"type": "Polygon", "coordinates": [[[118.7024042, 32.2007754], [118.7030455, 32.1998413], [118.7035283, 32.2000787], [118.7028868, 32.2010126], [118.7024042, 32.2007754]]]}}, {"type": "Feature", "properties": {"osm_id": "way/862952694", "building": "dormitory", "height": "10", "name": "沁园22栋"}, "geometry": {"type": "Polygon", "coordinates": [[[118.7115432, 32.2061142], [118.7115683, 32.2059851], [118.7122328, 32.2060774], [118.7122077, 32.2062066], [118.7115432, 32.2061142]]]}}, {"type": "Feature", "properties": {"osm_id": "way/862952695", "building": "dormitory", "name": "沁园23栋"}, "geometry": {"type": "Polygon", "coordinates": [[[118.7116571, 32.2057714], [118.7116839, 32.2056481], [118.712245, 32.2057354], [118.7122183, 32.2058586], [118.7116571, 32.2057714]]]}}, {"type": "Feature", "properties": {"osm_id": "way/862952696", "building": "apartments"}, "geometry": {"type": "Polygon", "coordinates": [[[118.7117172, 32.2054312], [118.7117426, 32.2053117], [118.7123005, 32.2053968], [118.712275, 32.2055163], [118.7117172, 32.2054312]]]}}, {"type": "Feature", "properties": {"osm_id": "way/862952697", "building": "university", "name": "风云剧场"}, "geometry": {"type": "Polygon", "coordinates": [[[118.7117842, 32.2051924], [118.7118768, 32.2047592], [118.7124351, 32.2048446], [118.7123426, 32.2052779], [118.7117842, 32.2051924]]]}}, {"type": "Feature", "properties": {"osm_id": "way/862959362", "building": "university", "name": "见山园"}, "geometry": {"type": "Polygon", "coordinates": [[[118.7051956, 32.2029414], [118.7053233, 32.2021666], [118.7062771, 32.2022792], [118.7061493, 32.203054], [118.7051956, 32.2029414]]]}}, {"type": "Feature", "properties": {"osm_id": "way/1114839561", "building": "college", "name": "长望楼"}, "geometry": {"type": "Polygon", "coordinates": [[[118.7116153, 32.2067062], [118.7120623, 32.2067712], [118.7119119, 32.2075113], [118.7115925, 32.2074649], [118.7116295, 32.2072827], [118.711737, 32.2072983], [118.7117577, 32.2071965], [118.7115226, 32.2071623], [118.7116153, 32.2067062]]]}}, {"type": "Feature", "properties": {"osm_id": "way/1114843833", "building": "university", "name": "阅江楼"}, "geometry": {"type": "Polygon", "coordinates": [[[118.7019035, 32.2015589], [118.7023403, 32.2009063], [118.7028224, 32.2011375], [118.7023854, 32.20179], [118.7019035, 32.2015589]]]}}, {"type": "Feature", "properties": {"osm_id": "way/1114843835", "building": "dormitory", "name": "沁园25栋"}, "geometry": {"type": "Polygon", "coordinates": [[[118.7115673, 32.204445], [118.7120571, 32.2044933], [118.7120288, 32.2046986], [118.7119282, 32.2046887], [118.7119372, 32.204623], [118.7116417, 32.2045938], [118.7116333, 32.204655], [118.7115397, 32.2046458], [118.7115673, 32.204445]]]}}, {"type": "Feature", "properties": {"osm_id": "way/1114843838", "building": "yes", "leisure": "sports_centre", "name": "水云方", "sport": "swimming"}, "geometry": {"type": "Polygon", "coordinates": [[[118.7056004, 32.2017829], [118.7056111, 32.2017395], [118.705535, 32.201726], [118.7055615, 32.2015898], [118.7056677, 32.2015958], [118.7056677, 32.2015434], [118.7055527, 32.2015194], [118.7056341, 32.2009474], [118.7060835, 32.2010073], [118.7059951, 32.2015763], [118.7057827, 32.2015538], [118.7057739, 32.2016107], [118.7058818, 32.2016257], [118.7058553, 32.2017635], [118.7057597, 32.201753], [118.7057473, 32.2018054], [118.7056004, 32.2017829]]]}}, {"type": "Feature", "properties": {"osm_id": "way/1114843846", "building": "yes", "man_made": "observatory", "name": "西苑观测场"}, "geometry": {"type": "Polygon", "coordinates": [[[118.7042585, 32.206332], [118.7055909, 32.2063322], [118.7055909, 32.2058711], [118.7042585, 32.2058711], [118.7042585, 32.206332]]]}}, {"type": "Feature", "properties": {"osm_id": "way/1424945039", "building": "yes"}, "geometry": {"type": "Polygon", "coordinates": [[[118.7116688, 32.2037164], [118.7119076, 32.2037743], [118.7121637, 32.2038061], [118.7124346, 32.2037561], [118.7124775, 32.203536], [118.7124547, 32.2035156], [118.7117225, 32.2034191], [118.7116943, 32.2034305], [118.7116541, 32.2036744], [118.7116688, 32.2037164]]]}}, {"type": "Feature", "properties": {"osm_id": "way/1424945040", "building": "yes"}, "geometry": {"type": "Polygon", "coordinates": [[[118.7117735, 32.2041862], [118.7120122, 32.2043701], [118.71244, 32.2044313], [118.7124681, 32.2044109], [118.7125097, 32.2042066], [118.7124896, 32.2041794], [118.7122267, 32.2040591], [118.7118874, 32.2040092], [118.7118016, 32.2040625], [118.7117735, 32.2041862]]]}}, {"type": "Feature", "properties": {"osm_id": "way/862959369", "building": "dormitory", "building:levels": "6", "name": "文园7栋"}, "geometry": {"type": "Polygon", "coordinates": [[[118.7020051, 32.2054529], [118.7020282, 32.2052955], [118.702623, 32.2053581], [118.7025999, 32.2055154], [118.7020051, 32.2054529]]]}}, {"type": "Feature", "properties": {"osm_id": "way/862959370", "building": "dormitory", "building:levels": "6", "name": "文园6栋"}, "geometry": {"type": "Polygon", "coordinates": [[[118.702085, 32.205051], [118.702111, 32.2048882], [118.7026767, 32.2049527], [118.7026507, 32.2051155], [118.702085, 32.205051]]]}}, {"type": "Feature", "properties": {"osm_id": "way/862959371", "building": "dormitory", "building:levels": "6", "name": "文园5栋"}, "geometry": {"type": "Polygon", "coordinates": [[[118.7020957, 32.2046568], [118.7021104, 32.2044988], [118.7027025, 32.2045382], [118.7026878, 32.2046963], [118.7020957, 32.2046568]]]}}, {"type": "Feature", "properties": {"osm_id": "way/862959372", "building": "dormitory", "building:levels": "6", "name": "文园10幢"}, "geometry": {"type": "Polygon", "coordinates": [[[118.7030073, 32.2055245], [118.7030309, 32.2053748], [118.7035155, 32.2054296], [118.7034918, 32.2055794], [118.7030073, 32.2055245]]]}}, {"type": "Feature", "properties": {"osm_id": "way/862959373", "building": "dormitory", "building:levels": "6", "name": "文园9幢"}, "geometry": {"type": "Polygon", "coordinates": [[[118.7030437, 32.2051241], [118.7030672, 32.2049743], [118.7035838, 32.2050323], [118.7035604, 32.205182], [118.7030437, 32.2051241]]]}}, {"type": "Feature", "properties": {"osm_id": "way/862959374", "building": "dormitory", "building:levels": "6", "name": "文园8栋"}, "geometry": {"type": "Polygon", "coordinates": [[[118.7030903, 32.204744], [118.703113, 32.2046173], [118.7036063, 32.2046807], [118.7035836, 32.2048073], [118.7030903, 32.204744]]]}}, {"type": "Feature", "properties": {"osm_id": "way/862959375", "building": "university", "name": "滨江楼"}, "geometry": {"type": "Polygon", "coordinates": [[[118.7027351, 32.2016151], [118.702798, 32.2015205], [118.7031788, 32.2017072], [118.7033005, 32.2015282], [118.7032494, 32.2014933], [118.7032226, 32.201516], [118.7029091, 32.2012939], [118.7030629, 32.2011341], [118.703432, 32.2014093], [118.7036106, 32.2014912], [118.7040564, 32.2016324], [118.7039841, 32.2018092], [118.7035961, 32.2016978], [118.7036075, 32.2016681], [118.7035458, 32.201642], [118.7034277, 32.2018203], [118.7038183, 32.2020071], [118.703753, 32.2021047], [118.7037174, 32.2020903], [118.7037047, 32.2021067], [118.7035337, 32.2020233], [118.7035444, 32.2020034], [118.7033634, 32.2019166], [118.703354, 32.2019278], [118.7033131, 32.2019047], [118.7033607, 32.2018344], [118.7033359, 32.2018224], [118.7033258, 32.2018361], [118.7032239, 32.2017844], [118.703232, 32.2017691], [118.7032011, 32.2017555], [118.703148, 32.2018299], [118.7031106, 32.2018094], [118.7031166, 32.2017997], [118.7029389, 32.2017192], [118.7029248, 32.2017351], [118.7027525, 32.2016482], [118.7027653, 32.201629], [118.7027351, 32.2016151]]]}}, {"type": "Feature", "properties": {"osm_id": "way/862959377", "amenity": "restaurant", "building": "yes", "building:levels": "3", "name": "西苑新食堂"}, "geometry": {"type": "Polygon", "coordinates": [[[118.7005687, 32.2064986], [118.7005208, 32.2060855], [118.7012565, 32.2060244], [118.7013044, 32.2064375], [118.7005687, 32.2064986]]]}}, {"type": "Feature", "properties": {"osm_id": "way/862959378", "building": "dormitory", "height": "6", "name": "文园17栋"}, "geometry": {"type": "Polygon", "coordinates": [[[118.7010361, 32.2076086], [118.7010233, 32.20742], [118.70181, 32.2073816], [118.7018228, 32.2075702], [118.7010361, 32.2076086]]]}}, {"type": "Feature", "properties": {"osm_id": "way/862959379", "building": "dormitory", "height": "6", "name": "文园16栋"}, "geometry": {"type": "Polygon", "coordinates": [[[118.7021133, 32.207527], [118.7021003, 32.2073497], [118.7027173, 32.2073171], [118.7027303, 32.2074945], [118.7021133, 32.207527]]]}}, {"type": "Feature", "properties": {"osm_id": "way/862959380", "building": "dormitory", "height": "6", "name": "文园14栋"}, "geometry": {"type": "Polygon", "coordinates": [[[118.7029682, 32.2074848], [118.7029558, 32.2073367], [118.7035033, 32.2073037], [118.7035158, 32.2074519], [118.7029682, 32.2074848]]]}}, {"type": "Feature", "properties": {"osm_id": "way/862959381", "building": "dormitory", "building:levels": "6", "name": "文园15栋"}, "geometry": {"type": "Polygon", "coordinates": [[[118.7021201, 32.2071459], [118.7021038, 32.2069845], [118.7026678, 32.2069439], [118.702684, 32.2071054], [118.7021201, 32.2071459]]]}}, {"type": "Feature", "properties": {"osm_id": "way/862959382", "building": "dormitory", "building:levels": "6", "name": "文苑13栋"}, "geometry": {"type": "Polygon", "coordinates": [[[118.7029024, 32.207085], [118.702893, 32.2069203], [118.7034708, 32.2068967], [118.7034802, 32.2070614], [118.7029024, 32.207085]]]}}, {"type": "Feature", "properties": {"osm_id": "way/862959383", "building": "dormitory", "building:levels": "6", "name": "文园12栋"}, "geometry": {"type": "Polygon", "coordinates": [[[118.7020639, 32.2067414], [118.7020457, 32.2065573], [118.702647, 32.2065146], [118.7026653, 32.2066987], [118.7020639, 32.2067414]]]}}, {"type": "Feature", "properties": {"osm_id": "way/862959384", "building": "dormitory", "building:levels": "6", "name": "文园11栋"}, "geometry": {"type": "Polygon", "coordinates": [[[118.7014066, 32.2063091], [118.7013967, 32.2061383], [118.7019758, 32.2061141], [118.7019857, 32.206285], [118.7014066, 32.2063091]]]}}, {"type": "Feature", "properties": {"osm_id": "way/862959385", "building": "dormitory", "building:levels": "6", "name": "文园18幢"}, "geometry": {"type": "Polygon", "coordinates": [[[118.7028962, 32.2060784], [118.7028935, 32.2059171], [118.7036068, 32.2059085], [118.7036095, 32.2060699], [118.7028962, 32.2060784]]]}}, {"type": "Feature", "properties": {"osm_id": "way/862959386", "building": "dormitory", "building:levels": "6", "name": "文园4栋"}, "geometry": {"type": "Polygon", "coordinates": [[[118.7011587, 32.2049424], [118.7011808, 32.2047972], [118.7016989, 32.2048535], [118.7016769, 32.2049986], [118.7011587, 32.2049424]]]}}, {"type": "Feature", "properties": {"osm_id": "way/862959387", "building": "dormitory", "building:levels": "6", "name": "文园2栋"}, "geometry": {"type": "Polygon", "coordinates": [[[118.7004749, 32.2044915], [118.7004971, 32.2043353], [118.700992, 32.2043857], [118.7009698, 32.2045419], [118.7004749, 32.2044915]]]}}, {"type": "Feature", "properties": {"osm_id": "way/862959388", "building": "dormitory", "building:levels": "6", "name": "文园3栋"}, "geometry": {"type": "Polygon", "coordinates": [[[118.7011448, 32.2045421], [118.7011689, 32.2043993], [118.7017366, 32.204468], [118.7017124, 32.2046109], [118.7011448, 32.2045421]]]}}, {"type": "Feature", "properties": {"osm_id": "way/862959389", "building": "dormitory", "building:levels": "6", "name": "文园1栋"}, "geometry": {"type": "Polygon", "coordinates": [[[118.7005413, 32.2040949], [118.7005585, 32.2039667], [118.7010007, 32.2040093], [118.7009834, 32.2041375], [118.7005413, 32.2040949]]]}}, {"type": "Feature", "properties": {"osm_id": "way/862959390", "building": "dormitory", "building:levels": "6", "name": "文园19栋"}, "geometry": {"type": "Polygon", "coordinates": [[[118.7012632, 32.2041707], [118.7012776, 32.2040266], [118.701793, 32.2040635], [118.7017785, 32.2042077], [118.7012632, 32.2041707]]]}}, {"type": "Feature", "properties": {"osm_id": "way/1114843839", "amenity": "restaurant", "building": "yes", "building:levels": "3", "name": "西苑老食堂"}, "geometry": {"type": "Polygon", "coordinates": [[[118.7003725, 32.2057272], [118.7003264, 32.2053027], [118.7009976, 32.2052506], [118.7010437, 32.205675], [118.7003725, 32.2057272]]]}}, {"type": "Feature", "properties": {"osm_id": "way/1245445293", "addr:city": "南京市", "addr:district": "浦口区", "addr:housenumber": "219号", "addr:postcode": "210044", "addr:province": "江苏省", "addr:street": "宁六路", "building": "university", "name": "信息科技大楼"}, "geometry": {"type": "Polygon", "coordinates": [[[118.7038089, 32.2024024], [118.7039401, 32.2022082], [118.7043175, 32.2016497], [118.7046543, 32.201151], [118.7048293, 32.2012356], [118.7046054, 32.201567], [118.7048226, 32.201672], [118.7046948, 32.2018611], [118.704417, 32.2017267], [118.7042871, 32.2019191], [118.7045676, 32.2020548], [118.7044497, 32.2022293], [118.7041546, 32.2020866], [118.704021, 32.2022843], [118.7044515, 32.2024926], [118.7043391, 32.2026589], [118.7038089, 32.2024024]]]}}, {"type": "Feature", "properties": {"osm_id": "way/1245446261", "building": "dormitory", "building:levels": "6", "name": "文园21幢"}, "geometry": {"type": "Polygon", "coordinates": [[[118.7007898, 32.2072811], [118.7007676, 32.2070661], [118.7017465, 32.2069941], [118.7017687, 32.2072089], [118.7007898, 32.2072811]]]}}, {"type": "Feature", "properties": {"osm_id": "way/1245446262", "building": "dormitory", "building:levels": "6", "name": "文园20幢"}, "geometry": {"type": "Polygon", "coordinates": [[[118.7006207, 32.2068733], [118.7006031, 32.2066831], [118.7017784, 32.2066049], [118.701796, 32.2067953], [118.7006207, 32.2068733]]]}}, {"type": "Feature", "properties": {"osm_id": "way/862952698", "amenity": "restaurant", "building": "yes", "name": "教职工食堂"}, "geometry": {"type": "Polygon", "coordinates": [[[118.7109946, 32.2069911], [118.7110629, 32.2066028], [118.7114346, 32.2066496], [118.7113663, 32.2070379], [118.7109946, 32.2069911]]]}}, {"type": "Feature", "properties": {"osm_id": "way/862952701", "amenity": "library", "building": "yes", "name": "图书馆"}, "geometry": {"type": "Polygon", "coordinates": [[[118.7077769, 32.2054183], [118.707864, 32.2048133], [118.7087972, 32.2049094], [118.7087101, 32.2055145], [118.7077769, 32.2054183]]]}}, {"type": "Feature", "properties": {"osm_id": "way/862959352", "building": "dormitory", "name": "沁园27栋"}, "geometry": {"type": "Polygon", "coordinates": [[[118.7097453, 32.2044011], [118.70976, 32.2041724], [118.7102915, 32.2041967], [118.7102769, 32.2044255], [118.7097453, 32.2044011]]]}}, {"type": "Feature", "properties": {"osm_id": "way/862959353", "building": "dormitory", "name": "沁园28栋"}, "geometry": {"type": "Polygon", "coordinates": [[[118.7098153, 32.2040512], [118.7098332, 32.2037893], [118.7103316, 32.2038137], [118.7103136, 32.2040756], [118.7098153, 32.2040512]]]}}, {"type": "Feature", "properties": {"osm_id": "way/862959354", "building": "dormitory", "name": "沁园29栋"}, "geometry": {"type": "Polygon", "coordinates": [[[118.7098937, 32.2036749], [118.7099029, 32.2034333], [118.7103466, 32.2034454], [118.7103374, 32.2036871], [118.7098937, 32.2036749]]]}}, {"type": "Feature", "properties": {"osm_id": "way/862959355", "building": "dormitory", "name": "沁园34栋"}, "geometry": {"type": "Polygon", "coordinates": [[[118.7091633, 32.2031122], [118.7091827, 32.2029741], [118.7098224, 32.2030384], [118.709803, 32.2031766], [118.7091633, 32.2031122]]]}}, {"type": "Feature", "properties": {"osm_id": "way/862959356", "building": "dormitory", "name": "沁园35栋"}, "geometry": {"type": "Polygon", "coordinates": [[[118.707633, 32.2037037], [118.7076593, 32.2035232], [118.7083863, 32.2035989], [118.70836, 32.2037796], [118.707633, 32.2037037]]]}}, {"type": "Feature", "properties": {"osm_id": "way/862959357", "building": "dormitory", "name": "沁园36栋"}, "geometry": {"type": "Polygon", "coordinates": [[[118.7076628, 32.2033562], [118.7077019, 32.203118], [118.7084443, 32.2032053], [118.7084052, 32.2034434], [118.7076628, 32.2033562]]]}}, {"type": "Feature", "properties": {"osm_id": "way/862959358", "building": "dormitory", "name": "沁园37栋"}, "geometry": {"type": "Polygon", "coordinates": [[[118.7077187, 32.2030257], [118.7077602, 32.2027522], [118.7085598, 32.202839], [118.7085183, 32.2031126], [118.7077187, 32.2030257]]]}}, {"type": "Feature", "properties": {"osm_id": "way/862959359", "building": "dormitory", "name": "沁园38栋"}, "geometry": {"type": "Polygon", "coordinates": [[[118.7078836, 32.2026021], [118.7079094, 32.2024315], [118.7083731, 32.2024816], [118.7083474, 32.2026521], [118.7078836, 32.2026021]]]}}, {"type": "Feature", "properties": {"osm_id": "way/862959360", "building": "dormitory", "name": "沁园39栋"}, "geometry": {"type": "Polygon", "coordinates": [[[118.7079452, 32.2022394], [118.7079664, 32.2020905], [118.7084342, 32.2021384], [118.7084129, 32.2022872], [118.7079452, 32.2022394]]]}}, {"type": "Feature", "properties": {"osm_id": "way/862959361", "amenity": "restaurant", "building": "yes", "name": "中苑新食堂"}, "geometry": {"type": "Polygon", "coordinates": [[[118.7085005, 32.2026134], [118.7085784, 32.2022241], [118.7093004, 32.2025715], [118.7093287, 32.2026493], [118.7092508, 32.2027092], [118.7085005, 32.2026134]]]}}, {"type": "Feature", "properties": {"osm_id": "way/862959367", "building": "yes"}, "geometry": {"type": "Polygon", "coordinates": [[[118.7056692, 32.205105], [118.7056975, 32.2049493], [118.7062, 32.2050151], [118.7062354, 32.2048235], [118.7057329, 32.2047576], [118.7057683, 32.2045779], [118.7063982, 32.2046558], [118.7063204, 32.2052008], [118.7056692, 32.205105]]]}}, {"type": "Feature", "properties": {"osm_id": "way/862959368", "building": "university", "name": "逸夫楼"}, "geometry": {"type": "Polygon", "coordinates": [[[118.7059664, 32.2044042], [118.7059806, 32.2042186], [118.7063133, 32.2042485], [118.7063345, 32.2040509], [118.7060231, 32.2040209], [118.706016, 32.2039071], [118.7057824, 32.2039191], [118.7057753, 32.2038292], [118.705471, 32.2037993], [118.7054851, 32.2036376], [118.7059169, 32.2036735], [118.7061434, 32.2037933], [118.7061505, 32.2039011], [118.7064902, 32.2039131], [118.7064973, 32.2040209], [118.7064407, 32.2040568], [118.7064265, 32.2042605], [118.7064761, 32.2042725], [118.7064832, 32.2044342], [118.7059664, 32.2044042]]]}}, {"type": "Feature", "properties": {"osm_id": "way/1114843831", "building": "college"}, "geometry": {"type": "Polygon", "coordinates": [[[118.7064548, 32.2055607], [118.7065438, 32.2055696], [118.7065403, 32.205595], [118.7070092, 32.2056422], [118.7070112, 32.2056281], [118.707135, 32.2056406], [118.7071948, 32.2052144], [118.7071087, 32.2052057], [118.7071159, 32.2051544], [118.7070029, 32.205143], [118.7070087, 32.2051013], [118.7065398, 32.2050542], [118.7065181, 32.2052083], [118.707057, 32.2052625], [118.7070277, 32.205471], [118.7064752, 32.2054154], [118.7064548, 32.2055607]]]}}, {"type": "Feature", "properties": {"osm_id": "way/1114843832", "building": "college"}, "geometry": {"type": "Polygon", "coordinates": [[[118.7066029, 32.2048222], [118.7073407, 32.2049171], [118.7073524, 32.204838], [118.7074341, 32.2044014], [118.7073291, 32.2043559], [118.706708, 32.2042888], [118.7066799, 32.2044844], [118.7072006, 32.2045496], [118.707175, 32.2047274], [118.7066589, 32.204674], [118.7066309, 32.2046661], [118.7066029, 32.2048222]]]}}, {"type": "Feature", "properties": {"osm_id": "way/1308936469", "amenity": "restaurant", "building": "yes", "name": "中苑老食堂"}, "geometry": {"type": "Polygon", "coordinates": [[[118.7113224, 32.2045898], [118.7113043, 32.203942], [118.7109679, 32.2039128], [118.7109379, 32.2042058], [118.7109526, 32.2044231], [118.7110497, 32.2046277], [118.7113224, 32.2045898]]]}}, {"type": "Feature", "properties": {"osm_id": "way/1316148865", "building": "dormitory", "name": "沁园33栋"}, "geometry": {"type": "Polygon", "coordinates": [[[118.7090373, 32.2035234], [118.7097057, 32.2035906], [118.7097387, 32.203355], [118.7090703, 32.2032879], [118.7090373, 32.2035234]]]}}, {"type": "Feature", "properties": {"osm_id": "way/1316148866", "building": "dormitory", "name": "沁园32栋"}, "geometry": {"type": "Polygon", "coordinates": [[[118.7089696, 32.203882], [118.7096483, 32.2039501], [118.7096776, 32.2037408], [118.7089989, 32.2036727], [118.7089696, 32.203882]]]}}, {"type": "Feature", "properties": {"osm_id": "way/1316148867", "building": "dormitory", "name": "沁园31栋"}, "geometry": {"type": "Polygon", "coordinates": [[[118.7089261, 32.2042668], [118.7096179, 32.2043378], [118.7096506, 32.2041096], [118.7089588, 32.2040385], [118.7089261, 32.2042668]]]}}, {"type": "Feature", "properties": {"osm_id": "way/1316148868", "building": "dormitory", "name": "沁园40栋"}, "geometry": {"type": "Polygon", "coordinates": [[[118.7088077, 32.2039442], [118.7087644, 32.2041954], [118.7078556, 32.2040832], [118.7078989, 32.2038321], [118.7088077, 32.2039442]]]}}, {"type": "Feature", "properties": {"osm_id": "way/1316148869", "building": "dormitory", "name": "沁园41栋"}, "geometry": {"type": "Polygon", "coordinates": [[[118.709512, 32.2026096], [118.7095907, 32.2024533], [118.7103718, 32.2027347], [118.7102931, 32.202891], [118.709512, 32.2026096]]]}}, {"type": "Feature", "properties": {"osm_id": "way/1316302535", "amenity": "clinic", "building": "yes", "healthcare": "clinic", "name": "医务室"}, "geometry": {"type": "Polygon", "coordinates": [[[118.70922, 32.2024349], [118.7088992, 32.2022887], [118.7090386, 32.2020696], [118.7093595, 32.2022158], [118.70922, 32.2024349]]]}}, {"type": "Feature", "properties": {"osm_id": "way/1316305739", "amenity": "food_court", "building": "yes", "name": "1960街区"}, "geometry": {"type": "Polygon", "coordinates": [[[118.7114518, 32.2043555], [118.7115936, 32.2043663], [118.7115486, 32.2031155], [118.7113965, 32.2031104], [118.7114518, 32.2043555]]]}}, {"type": "Feature", "properties": {"osm_id": "way/1316305741", "amenity": "restaurant", "building": "yes", "name": "中苑美食城"}, "geometry": {"type": "Polygon", "coordinates": [[[118.7103467, 32.2045483], [118.7109038, 32.2046088], [118.7109374, 32.2038671], [118.7103785, 32.203826], [118.7103467, 32.2045483]]]}}, {"type": "Feature", "properties": {"osm_id": "way/1316307762", "building": "dormitory"}, "geometry": {"type": "Polygon", "coordinates": [[[118.7099844, 32.2032619], [118.7103451, 32.2032687], [118.7103482, 32.2031517], [118.7099875, 32.203145], [118.7099844, 32.2032619]]]}}, {"type": "Feature", "properties": {"osm_id": "way/1316307763", "building": "dormitory"}, "geometry": {"type": "Polygon", "coordinates": [[[118.7113079, 32.2031977], [118.7104583, 32.2031865], [118.7104541, 32.203417], [118.7113037, 32.2034283], [118.7113079, 32.2031977]]]}}, {"type": "Feature", "properties": {"osm_id": "way/1424986306", "building": "yes"}, "geometry": {"type": "Polygon", "coordinates": [[[118.7060225, 32.2055429], [118.706058, 32.2053209], [118.7062564, 32.2053437], [118.7062209, 32.2055656], [118.7060225, 32.2055429]]]}}, {"type": "Feature", "properties": {"osm_id": "way/1424986307", "building": "yes"}, "geometry": {"type": "Polygon", "coordinates": [[[118.7062732, 32.2068228], [118.7062899, 32.2067128], [118.7065496, 32.2067412], [118.7065328, 32.2068511], [118.7062732, 32.2068228]]]}}, {"type": "Feature", "properties": {"osm_id": "way/1424986308", "building": "yes"}, "geometry": {"type": "Polygon", "coordinates": [[[118.7063248, 32.2071038], [118.7063418, 32.206992], [118.7066019, 32.2070202], [118.7065849, 32.207132], [118.7063248, 32.2071038]]]}}, {"type": "Feature", "properties": {"osm_id": "way/1424986309", "building": "yes"}, "geometry": {"type": "Polygon", "coordinates": [[[118.7063439, 32.2074144], [118.7063602, 32.20731], [118.7070032, 32.2073819], [118.7069869, 32.2074863], [118.7063439, 32.2074144]]]}}, {"type": "Feature", "properties": {"osm_id": "way/1503263382", "building": "yes"}, "geometry": {"type": "Polygon", "coordinates": [[[118.7243865, 32.1997973], [118.724364, 32.1996859], [118.7245979, 32.1996522], [118.7246203, 32.1997635], [118.7243865, 32.1997973]]]}}, {"type": "Feature", "properties": {"osm_id": "way/1503263383", "building": "yes"}, "geometry": {"type": "Polygon", "coordinates": [[[118.7239552, 32.2001102], [118.7239328, 32.1999989], [118.7246435, 32.1998964], [118.7246659, 32.2000077], [118.7239552, 32.2001102]]]}}, {"type": "Feature", "properties": {"osm_id": "way/1503263384", "building": "yes"}, "geometry": {"type": "Polygon", "coordinates": [[[118.7240229, 32.2004387], [118.7240005, 32.2003275], [118.7247113, 32.200225], [118.7247337, 32.2003363], [118.7240229, 32.2004387]]]}}, {"type": "Feature", "properties": {"osm_id": "way/1503263385", "building": "yes"}, "geometry": {"type": "Polygon", "coordinates": [[[118.7232684, 32.2005715], [118.7232526, 32.2004639], [118.7236066, 32.2004266], [118.7235986, 32.200372], [118.7237658, 32.2003544], [118.723783, 32.2004714], [118.723611, 32.2004895], [118.7236176, 32.2005347], [118.7232684, 32.2005715]]]}}, {"type": "Feature", "properties": {"osm_id": "way/1503263386", "building": "yes"}, "geometry": {"type": "Polygon", "coordinates": [[[118.7240941, 32.2007555], [118.7240731, 32.2006468], [118.7246119, 32.2005721], [118.7246329, 32.2006808], [118.7240941, 32.2007555]]]}}, {"type": "Feature", "properties": {"osm_id": "way/1503263389", "building": "yes"}, "geometry": {"type": "Polygon", "coordinates": [[[118.724137, 32.2010684], [118.724116, 32.2009597], [118.7246548, 32.2008851], [118.7246759, 32.2009937], [118.724137, 32.2010684]]]}}, {"type": "Feature", "properties": {"osm_id": "way/1503263395", "building": "yes"}, "geometry": {"type": "Polygon", "coordinates": [[[118.7233181, 32.2008683], [118.7232962, 32.2007551], [118.7238215, 32.2006823], [118.7238434, 32.2007955], [118.7233181, 32.2008683]]]}}, {"type": "Feature", "properties": {"osm_id": "way/1503263397", "building": "yes"}, "geometry": {"type": "Polygon", "coordinates": [[[118.7228095, 32.2010125], [118.7227746, 32.2009046], [118.7231291, 32.2008223], [118.7231641, 32.2009303], [118.7228095, 32.2010125]]]}}, {"type": "Feature", "properties": {"osm_id": "way/1503264513", "building": "yes"}, "geometry": {"type": "Polygon", "coordinates": [[[118.7246814, 32.1979012], [118.7246572, 32.197826], [118.7249554, 32.1977573], [118.72498, 32.1978336], [118.7249411, 32.1978426], [118.724965, 32.1979169], [118.7247364, 32.1979696], [118.7247121, 32.1978941], [118.7246814, 32.1979012]]]}}, {"type": "Feature", "properties": {"osm_id": "way/1503264514", "building": "yes"}, "geometry": {"type": "Polygon", "coordinates": [[[118.7241981, 32.1984804], [118.7241773, 32.1984029], [118.7245817, 32.1983249], [118.7246017, 32.1983989], [118.7245345, 32.1984118], [118.7245544, 32.1984857], [118.72428, 32.1985386], [118.7242611, 32.1984682], [118.7241981, 32.1984804]]]}}, {"type": "Feature", "properties": {"osm_id": "way/1503264515", "building": "yes"}, "geometry": {"type": "Polygon", "coordinates": [[[118.7243265, 32.1962484], [118.724304, 32.1961765], [118.7247162, 32.1960838], [118.72474, 32.1961595], [118.7246714, 32.196175], [118.7246914, 32.1962389], [118.7244144, 32.1963012], [118.7243931, 32.1962334], [118.7243265, 32.1962484]]]}}, {"type": "Feature", "properties": {"osm_id": "way/1503264516", "building": "yes"}, "geometry": {"type": "Polygon", "coordinates": [[[118.7237981, 32.1965502], [118.7237756, 32.1964784], [118.7241878, 32.1963857], [118.7242116, 32.1964614], [118.724143, 32.1964768], [118.7241631, 32.1965407], [118.723886, 32.196603], [118.7238647, 32.1965353], [118.7237981, 32.1965502]]]}}, {"type": "Feature", "properties": {"osm_id": "way/1503264517", "building": "yes"}, "geometry": {"type": "Polygon", "coordinates": [[[118.7238458, 32.1971535], [118.7238233, 32.1970816], [118.7242355, 32.1969889], [118.7242593, 32.1970646], [118.7241907, 32.1970801], [118.7242107, 32.197144], [118.7239337, 32.1972063], [118.7239124, 32.1971385], [118.7238458, 32.1971535]]]}}, {"type": "Feature", "properties": {"osm_id": "way/1503264518", "building": "yes"}, "geometry": {"type": "Polygon", "coordinates": [[[118.723167, 32.1969778], [118.723145, 32.1969063], [118.7234835, 32.1968316], [118.7235065, 32.1969061], [118.7234625, 32.1969158], [118.7234838, 32.1969849], [118.7232239, 32.1970423], [118.7232016, 32.1969702], [118.723167, 32.1969778]]]}}, {"type": "Feature", "properties": {"osm_id": "way/1503264519", "building": "yes"}, "geometry": {"type": "Polygon", "coordinates": [[[118.7233322, 32.197564], [118.7233102, 32.1974925], [118.7236487, 32.1974178], [118.7236716, 32.1974923], [118.7236277, 32.197502], [118.723649, 32.1975711], [118.723389, 32.1976285], [118.7233668, 32.1975564], [118.7233322, 32.197564]]]}}, {"type": "Feature", "properties": {"osm_id": "way/1503264520", "building": "yes"}, "geometry": {"type": "Polygon", "coordinates": [[[118.723633, 32.1987273], [118.7236126, 32.1986553], [118.7240347, 32.1985696], [118.7240527, 32.1986332], [118.7240129, 32.1986412], [118.7240365, 32.1987244], [118.7236884, 32.1987951], [118.7236672, 32.1987203], [118.723633, 32.1987273]]]}}, {"type": "Feature", "properties": {"osm_id": "way/1503264521", "building": "yes"}, "geometry": {"type": "Polygon", "coordinates": [[[118.724022, 32.1977944], [118.7240016, 32.1977225], [118.7244236, 32.1976368], [118.7244416, 32.1977003], [118.7244018, 32.1977084], [118.7244254, 32.1977916], [118.7240773, 32.1978622], [118.7240562, 32.1977875], [118.724022, 32.1977944]]]}}, {"type": "Feature", "properties": {"osm_id": "way/1503264522", "building": "yes"}, "geometry": {"type": "Polygon", "coordinates": [[[118.7234989, 32.1980986], [118.7234785, 32.1980266], [118.7239006, 32.1979409], [118.7239186, 32.1980044], [118.7238788, 32.1980125], [118.7239024, 32.1980957], [118.7235543, 32.1981664], [118.7235331, 32.1980916], [118.7234989, 32.1980986]]]}}, {"type": "Feature", "properties": {"osm_id": "way/1503264523", "building": "yes"}, "geometry": {"type": "Polygon", "coordinates": [[[118.7226406, 32.1973064], [118.7226202, 32.1972345], [118.7230423, 32.1971488], [118.7230603, 32.1972123], [118.7230205, 32.1972204], [118.723044, 32.1973036], [118.722696, 32.1973742], [118.7226748, 32.1972995], [118.7226406, 32.1973064]]]}}, {"type": "Feature", "properties": {"osm_id": "way/1503264524", "building": "yes"}, "geometry": {"type": "Polygon", "coordinates": [[[118.7227935, 32.1978217], [118.7227731, 32.1977497], [118.7231952, 32.197664], [118.7232132, 32.1977275], [118.7231733, 32.1977356], [118.7231969, 32.1978188], [118.7228489, 32.1978895], [118.7228277, 32.1978147], [118.7227935, 32.1978217]]]}}, {"type": "Feature", "properties": {"osm_id": "way/1503264525", "building": "yes"}, "geometry": {"type": "Polygon", "coordinates": [[[118.7229442, 32.1983252], [118.7229238, 32.1982532], [118.7233458, 32.1981675], [118.7233638, 32.198231], [118.723324, 32.1982391], [118.7233476, 32.1983223], [118.7229996, 32.198393], [118.7229784, 32.1983182], [118.7229442, 32.1983252]]]}}, {"type": "Feature", "properties": {"osm_id": "way/1503264526", "building": "yes"}, "geometry": {"type": "Polygon", "coordinates": [[[118.7233048, 32.199186], [118.7231759, 32.198756], [118.7235274, 32.1986806], [118.7236562, 32.1991106], [118.7233048, 32.199186]]]}}, {"type": "Feature", "properties": {"osm_id": "way/1503264527", "building": "yes"}, "geometry": {"type": "Polygon", "coordinates": [[[118.721986, 32.1995925], [118.7219578, 32.1995142], [118.7220316, 32.1994995], [118.7220222, 32.1994756], [118.7226109, 32.1993474], [118.7225345, 32.1991113], [118.7226659, 32.1990762], [118.7226927, 32.1991613], [118.7227517, 32.1991454], [118.7228067, 32.1993133], [118.7226874, 32.1994472], [118.721986, 32.1995925]]]}}, {"type": "Feature", "properties": {"osm_id": "way/1503264528", "building": "yes"}, "geometry": {"type": "Polygon", "coordinates": [[[118.7217947, 32.1978074], [118.7217709, 32.197729], [118.7222664, 32.1976215], [118.7222895, 32.1976979], [118.7222227, 32.1977124], [118.7222425, 32.1977777], [118.7218873, 32.1978548], [118.7218681, 32.1977914], [118.7217947, 32.1978074]]]}}, {"type": "Feature", "properties": {"osm_id": "way/1503264529", "building": "yes"}, "geometry": {"type": "Polygon", "coordinates": [[[118.7219475, 32.1983249], [118.7219238, 32.1982465], [118.7224193, 32.198139], [118.7224424, 32.1982154], [118.7223756, 32.1982299], [118.7223954, 32.1982952], [118.7220402, 32.1983723], [118.722021, 32.1983089], [118.7219475, 32.1983249]]]}}, {"type": "Feature", "properties": {"osm_id": "way/1503264530", "building": "yes"}, "geometry": {"type": "Polygon", "coordinates": [[[118.7221395, 32.1989498], [118.7221158, 32.1988715], [118.7226112, 32.1987639], [118.7226344, 32.1988403], [118.7225676, 32.1988548], [118.7225874, 32.1989202], [118.7222322, 32.1989973], [118.7222129, 32.1989339], [118.7221395, 32.1989498]]]}}, {"type": "Feature", "properties": {"osm_id": "way/1503264531", "building": "yes"}, "geometry": {"type": "Polygon", "coordinates": [[[118.721345, 32.1981405], [118.7213244, 32.1980729], [118.7216584, 32.1979998], [118.7216821, 32.1980771], [118.7216524, 32.1980836], [118.7216727, 32.1981501], [118.7214029, 32.1982092], [118.7213796, 32.198133], [118.721345, 32.1981405]]]}}, {"type": "Feature", "properties": {"osm_id": "way/1503264532", "building": "yes"}, "geometry": {"type": "Polygon", "coordinates": [[[118.7214569, 32.1987316], [118.721435, 32.1986604], [118.7218505, 32.1985689], [118.7218744, 32.1986467], [118.7218009, 32.1986629], [118.7218206, 32.1987269], [118.7215485, 32.1987868], [118.7215268, 32.1987163], [118.7214569, 32.1987316]]]}}, {"type": "Feature", "properties": {"osm_id": "way/1503264533", "building": "yes"}, "geometry": {"type": "Polygon", "coordinates": [[[118.7208755, 32.1984424], [118.7208544, 32.1983723], [118.7211517, 32.198308], [118.721173, 32.1983785], [118.7211399, 32.1983856], [118.7211631, 32.1984624], [118.7209337, 32.198512], [118.7209104, 32.1984349], [118.7208755, 32.1984424]]]}}, {"type": "Feature", "properties": {"osm_id": "way/1503264534", "building": "yes"}, "geometry": {"type": "Polygon", "coordinates": [[[118.7210284, 32.1989485], [118.7210072, 32.1988784], [118.7213046, 32.1988142], [118.7213259, 32.1988846], [118.7212928, 32.1988918], [118.721316, 32.1989685], [118.7210865, 32.1990181], [118.7210633, 32.198941], [118.7210284, 32.1989485]]]}}, {"type": "Feature", "properties": {"osm_id": "way/1503264535", "building": "yes"}, "geometry": {"type": "Polygon", "coordinates": [[[118.7216092, 32.1992662], [118.7215873, 32.1991949], [118.7220028, 32.1991034], [118.7220267, 32.1991813], [118.7219532, 32.1991975], [118.7219729, 32.1992615], [118.7217008, 32.1993214], [118.7216791, 32.1992508], [118.7216092, 32.1992662]]]}}, {"type": "Feature", "properties": {"osm_id": "way/1503264536", "building": "yes"}, "geometry": {"type": "Polygon", "coordinates": [[[118.7211801, 32.1994574], [118.721159, 32.1993872], [118.7214563, 32.199323], [118.7214776, 32.1993934], [118.7214445, 32.1994006], [118.7214677, 32.1994774], [118.7212383, 32.1995269], [118.721215, 32.1994498], [118.7211801, 32.1994574]]]}}, {"type": "Feature", "properties": {"osm_id": "way/860503919", "building": "dormitory", "building:levels": "7", "name": "硕园1栋"}, "geometry": {"type": "Polygon", "coordinates": [[[118.7167195, 32.2075931], [118.7173578, 32.2076846], [118.7173244, 32.2078513], [118.7166861, 32.2077598], [118.7167195, 32.2075931]]]}}, {"type": "Feature", "properties": {"osm_id": "way/1114839562", "building": "university", "name": "藕舫楼"}, "geometry": {"type": "Polygon", "coordinates": [[[118.7128415, 32.2076244], [118.7128763, 32.2074536], [118.7132515, 32.2075083], [118.7132826, 32.207356], [118.712979, 32.2073116], [118.7129997, 32.2072098], [118.7135142, 32.207285], [118.7134275, 32.2077099], [118.7128415, 32.2076244]]]}}, {"type": "Feature", "properties": {"osm_id": "way/1321673135", "building": "yes"}, "geometry": {"type": "Polygon", "coordinates": [[[118.7242034, 32.207685], [118.7243321, 32.2075062], [118.7237839, 32.2072238], [118.7236552, 32.2074026], [118.7242034, 32.207685]]]}}, {"type": "Feature", "properties": {"osm_id": "way/1416976462", "building": "yes"}, "geometry": {"type": "Polygon", "coordinates": [[[118.7247021, 32.2042502], [118.7246503, 32.2039949], [118.7253055, 32.2038998], [118.7253572, 32.2041551], [118.7247021, 32.2042502]]]}}, {"type": "Feature", "properties": {"osm_id": "way/1416976566", "building": "yes"}, "geometry": {"type": "Polygon", "coordinates": [[[118.7248993, 32.2073093], [118.7251799, 32.2068459], [118.7266738, 32.2074938], [118.726473, 32.2078253], [118.7267901, 32.2079628], [118.7267102, 32.2080946], [118.7248993, 32.2073093]]]}}, {"type": "Feature", "properties": {"osm_id": "way/1423831541", "building": "yes"}, "geometry": {"type": "Polygon", "coordinates": [[[118.7241009, 32.2051689], [118.7249511, 32.2051735], [118.7264988, 32.2052393], [118.7264988, 32.205178], [118.7250397, 32.2051133], [118.7240995, 32.2050986], [118.7241009, 32.2051689]]]}}, {"type": "Feature", "properties": {"osm_id": "way/1424986301", "building": "yes"}, "geometry": {"type": "Polygon", "coordinates": [[[118.7246012, 32.2034024], [118.7245794, 32.2032828], [118.7251455, 32.2032088], [118.7251673, 32.2033284], [118.7246012, 32.2034024]]]}}, {"type": "Feature", "properties": {"osm_id": "way/1503263378", "building": "yes"}, "geometry": {"type": "Polygon", "coordinates": [[[118.7247729, 32.2000089], [118.7247485, 32.1998926], [118.7255109, 32.1997782], [118.7255353, 32.1998945], [118.7247729, 32.2000089]]]}}, {"type": "Feature", "properties": {"osm_id": "way/1503263379", "building": "yes"}, "geometry": {"type": "Polygon", "coordinates": [[[118.7248385, 32.2003213], [118.7248153, 32.200211], [118.7254923, 32.2001092], [118.7255155, 32.2002195], [118.7248385, 32.2003213]]]}}, {"type": "Feature", "properties": {"osm_id": "way/1503263381", "building": "yes"}, "geometry": {"type": "Polygon", "coordinates": [[[118.7247051, 32.1996881], [118.7246832, 32.1995743], [118.7254487, 32.1994691], [118.7254705, 32.1995829], [118.7247051, 32.1996881]]]}}, {"type": "Feature", "properties": {"osm_id": "way/1503263387", "building": "yes"}, "geometry": {"type": "Polygon", "coordinates": [[[118.7247929, 32.2006439], [118.7249954, 32.2006723], [118.7251295, 32.2007166], [118.7252958, 32.2007971], [118.7253723, 32.2007063], [118.7252422, 32.2006349], [118.7250598, 32.2005713], [118.7248237, 32.200535], [118.7247929, 32.2006439]]]}}, {"type": "Feature", "properties": {"osm_id": "way/1503263388", "building": "yes"}, "geometry": {"type": "Polygon", "coordinates": [[[118.7247916, 32.2009793], [118.7249941, 32.2010076], [118.7251282, 32.2010519], [118.7252945, 32.2011325], [118.7253709, 32.2010417], [118.7252408, 32.2009702], [118.7250584, 32.2009066], [118.7248224, 32.2008703], [118.7247916, 32.2009793]]]}}, {"type": "Feature", "properties": {"osm_id": "way/1503263396", "building": "yes"}, "geometry": {"type": "Polygon", "coordinates": [[[118.7233714, 32.2011802], [118.7233503, 32.2010725], [118.7238714, 32.2009991], [118.7238926, 32.2011067], [118.7233714, 32.2011802]]]}}, {"type": "Feature", "properties": {"osm_id": "way/1503263398", "building": "yes"}, "geometry": {"type": "Polygon", "coordinates": [[[118.7227578, 32.2013407], [118.722724, 32.2012377], [118.7232224, 32.2011205], [118.7232563, 32.2012236], [118.7227578, 32.2013407]]]}}, {"type": "Feature", "properties": {"osm_id": "way/1503263399", "building": "yes"}, "geometry": {"type": "Polygon", "coordinates": [[[118.7247986, 32.2013432], [118.7248347, 32.2012343], [118.7253069, 32.2013467], [118.7252707, 32.2014556], [118.7247986, 32.2013432]]]}}, {"type": "Feature", "properties": {"osm_id": "way/1503263404", "building": "yes"}, "geometry": {"type": "Polygon", "coordinates": [[[118.7249126, 32.202292], [118.724872, 32.202189], [118.7252271, 32.2020888], [118.7252676, 32.2021918], [118.7249126, 32.202292]]]}}, {"type": "Feature", "properties": {"osm_id": "way/1503263405", "building": "yes"}, "geometry": {"type": "Polygon", "coordinates": [[[118.7249172, 32.2019618], [118.7248537, 32.2018568], [118.7252848, 32.20167], [118.7253484, 32.201775], [118.7249172, 32.2019618]]]}}, {"type": "Feature", "properties": {"osm_id": "way/1503263412", "building": "yes"}, "geometry": {"type": "Polygon", "coordinates": [[[118.7244633, 32.2027414], [118.7244373, 32.20262], [118.7251225, 32.2025149], [118.7251485, 32.2026363], [118.7244633, 32.2027414]]]}}, {"type": "Feature", "properties": {"osm_id": "way/1503263414", "building": "yes"}, "geometry": {"type": "Polygon", "coordinates": [[[118.7250254, 32.2029802], [118.7250021, 32.2028697], [118.7256648, 32.2027697], [118.7256881, 32.2028802], [118.7250254, 32.2029802]]]}}, {"type": "Feature", "properties": {"osm_id": "way/1503264510", "building": "yes"}, "geometry": {"type": "Polygon", "coordinates": [[[118.724941, 32.1962552], [118.7249156, 32.1961737], [118.7254012, 32.1960651], [118.7254262, 32.1961453], [118.7253609, 32.1961599], [118.7253816, 32.1962264], [118.7250329, 32.1963044], [118.7250125, 32.1962392], [118.724941, 32.1962552]]]}}, {"type": "Feature", "properties": {"osm_id": "way/1503264511", "building": "yes"}, "geometry": {"type": "Polygon", "coordinates": [[[118.7247887, 32.1968152], [118.7247671, 32.1967453], [118.7252664, 32.196635], [118.7252873, 32.1967029], [118.725216, 32.1967187], [118.7252361, 32.1967838], [118.7248836, 32.1968617], [118.7248641, 32.1967985], [118.7247887, 32.1968152]]]}}, {"type": "Feature", "properties": {"osm_id": "way/1503264512", "building": "yes"}, "geometry": {"type": "Polygon", "coordinates": [[[118.7246342, 32.1973842], [118.7246122, 32.1973088], [118.7251025, 32.1972065], [118.7251236, 32.1972788], [118.725055, 32.1972931], [118.7250755, 32.1973635], [118.7247239, 32.1974369], [118.7247043, 32.1973696], [118.7246342, 32.1973842]]]}}, {"type": "Feature", "properties": {"osm_id": "way/478390591", "building": "college", "building:levels": "12", "name": "气象楼"}, "geometry": {"type": "Polygon", "coordinates": [[[118.7167364, 32.2067841], [118.7167819, 32.2065105], [118.7171704, 32.2065567], [118.7171816, 32.2064892], [118.7174644, 32.2065229], [118.7174539, 32.2065862], [118.7178393, 32.2066321], [118.7177931, 32.2069098], [118.7167364, 32.2067841]]]}}, {"type": "Feature", "properties": {"osm_id": "way/478391045", "building": "school", "building:levels": "7", "name": "文德楼"}, "geometry": {"type": "Polygon", "coordinates": [[[118.7153902, 32.2065706], [118.716077, 32.2066688], [118.7161107, 32.2065001], [118.7160173, 32.2064867], [118.716032, 32.2064128], [118.7160495, 32.2063251], [118.7162327, 32.2063513], [118.7162683, 32.2061732], [118.7161197, 32.2061519], [118.71613, 32.2061004], [118.7159752, 32.2060783], [118.71602, 32.2058095], [118.7160854, 32.2055265], [118.7162555, 32.2055508], [118.7162652, 32.2055021], [118.7163954, 32.2055207], [118.7164288, 32.2053531], [118.7162449, 32.2053268], [118.7162604, 32.2052492], [118.7162822, 32.2051401], [118.716374, 32.2051532], [118.7164055, 32.2049954], [118.7157326, 32.2048992], [118.7157023, 32.2050509], [118.7155306, 32.2050263], [118.7155069, 32.2051453], [118.7155478, 32.2051512], [118.7155319, 32.2052305], [118.7157026, 32.2052549], [118.7156926, 32.2053049], [118.7156464, 32.2052983], [118.715627, 32.2053958], [118.7159689, 32.2054447], [118.7159182, 32.205699], [118.7153708, 32.2056208], [118.71535, 32.205725], [118.7153919, 32.205731], [118.7153795, 32.2057931], [118.7158853, 32.2058654], [118.7158346, 32.2061193], [118.7154995, 32.2060714], [118.7154709, 32.2062147], [118.7152992, 32.2061901], [118.7152749, 32.2063117], [118.7153175, 32.2063178], [118.7153017, 32.206397], [118.7154214, 32.2064142], [118.7153902, 32.2065706]]]}}, {"type": "Feature", "properties": {"osm_id": "way/862952676", "building": "dormitory", "name": "晖园12栋"}, "geometry": {"type": "Polygon", "coordinates": [[[118.714541, 32.2075005], [118.7145756, 32.2073305], [118.7153538, 32.2074443], [118.7153192, 32.2076141], [118.714541, 32.2075005]]]}}, {"type": "Feature", "properties": {"osm_id": "way/862952677", "building": "dormitory", "name": "晖园11栋"}, "geometry": {"type": "Polygon", "coordinates": [[[118.7147307, 32.2071609], [118.7147619, 32.2069929], [118.7154161, 32.2070799], [118.7153849, 32.207248], [118.7147307, 32.2071609]]]}}, {"type": "Feature", "properties": {"osm_id": "way/862952687", "building": "university", "name": "尚贤楼"}, "geometry": {"type": "Polygon", "coordinates": [[[118.7129013, 32.206269], [118.7129337, 32.2061118], [118.7136806, 32.2062222], [118.7136481, 32.2063795], [118.7129013, 32.206269]]]}}, {"type": "Feature", "properties": {"osm_id": "way/862952688", "building": "university", "name": "南阶教室"}, "geometry": {"type": "Polygon", "coordinates": [[[118.7125496, 32.2062317], [118.7125771, 32.2061057], [118.7128284, 32.206145], [118.7128009, 32.206271], [118.7125496, 32.2062317]]]}}, {"type": "Feature", "properties": {"osm_id": "way/862952689", "building": "yes", "name": "大学生活动中心"}, "geometry": {"type": "Polygon", "coordinates": [[[118.7140631, 32.2057185], [118.7141272, 32.2053535], [118.7140103, 32.2053389], [118.7140397, 32.2051714], [118.7147112, 32.2052557], [118.714667, 32.2055077], [118.7146227, 32.2055021], [118.7145898, 32.2056899], [118.7145714, 32.2056876], [118.7145551, 32.2057803], [118.7140631, 32.2057185]]]}}, {"type": "Feature", "properties": {"osm_id": "way/862952690", "building": "yes", "name": "教职工活动中心"}, "geometry": {"type": "Polygon", "coordinates": [[[118.7139057, 32.2061541], [118.7139445, 32.2059373], [118.7140502, 32.2059508], [118.7140712, 32.2058332], [118.7142807, 32.20586], [118.7142593, 32.2059797], [118.7144973, 32.2060102], [118.7144589, 32.206225], [118.7139057, 32.2061541]]]}}, {"type": "Feature", "properties": {"osm_id": "way/862952692", "building": "university", "name": "明德楼"}, "geometry": {"type": "Polygon", "coordinates": [[[118.712935, 32.2070539], [118.7129723, 32.2068676], [118.7130366, 32.2068775], [118.7130649, 32.2067481], [118.7129992, 32.2067407], [118.713022, 32.2066221], [118.7135694, 32.2066842], [118.7135418, 32.2068096], [118.7132636, 32.2067807], [118.713252, 32.2068477], [118.7131988, 32.2068443], [118.7131876, 32.206901], [118.7136435, 32.2069585], [118.7136175, 32.2070538], [118.7135845, 32.2071068], [118.7135202, 32.2071389], [118.7134049, 32.2071377], [118.7134065, 32.2071199], [118.712935, 32.2070539]]]}}, {"type": "Feature", "properties": {"osm_id": "way/862952700", "building": "university", "name": "基嘉楼"}, "geometry": {"type": "Polygon", "coordinates": [[[118.7122998, 32.2068458], [118.7123476, 32.2065797], [118.7128782, 32.206648], [118.7128574, 32.2067634], [118.7126478, 32.2067364], [118.7126348, 32.2068086], [118.7126855, 32.2068152], [118.712665, 32.206929], [118.7124209, 32.2068975], [118.7124272, 32.2068623], [118.7122998, 32.2068458]]]}}, {"type": "Feature", "properties": {"osm_id": "way/1057168414", "building": "university", "name": "理政楼"}, "geometry": {"type": "Polygon", "coordinates": [[[118.7125209, 32.2055383], [118.713032, 32.2056053], [118.7130582, 32.2054621], [118.7125471, 32.2053951], [118.7125209, 32.2055383]]]}}, {"type": "Feature", "properties": {"osm_id": "way/1114843834", "building": "dormitory", "name": "硕园6栋"}, "geometry": {"type": "Polygon", "coordinates": [[[118.7168179, 32.2074059], [118.7168543, 32.2072473], [118.7177584, 32.2073958], [118.717722, 32.2075545], [118.7168179, 32.2074059]]]}}, {"type": "Feature", "properties": {"osm_id": "way/1114843836", "building": "dormitory", "name": "沁园26栋"}, "geometry": {"type": "Polygon", "coordinates": [[[118.7121153, 32.2047168], [118.7121471, 32.204514], [118.7126375, 32.2045691], [118.7126053, 32.2047741], [118.7125069, 32.204763], [118.7125181, 32.2046913], [118.7122223, 32.2046581], [118.7122114, 32.2047276], [118.7121153, 32.2047168]]]}}, {"type": "Feature", "properties": {"osm_id": "way/1114843837", "building": "university", "name": "涉外楼"}, "geometry": {"type": "Polygon", "coordinates": [[[118.7127328, 32.2047839], [118.7127558, 32.2046506], [118.7129277, 32.2046718], [118.712933, 32.204641], [118.7132373, 32.2046785], [118.7132164, 32.2047999], [118.7129538, 32.2047675], [118.7129464, 32.2048103], [118.7127328, 32.2047839]]]}}, {"type": "Feature", "properties": {"osm_id": "way/1316305740", "amenity": "restaurant", "building": "yes", "name": "气象谷美食城"}, "geometry": {"type": "Polygon", "coordinates": [[[118.7128233, 32.204469], [118.7135218, 32.2045503], [118.7135623, 32.204354], [118.7134498, 32.2042691], [118.7133425, 32.20421], [118.7130851, 32.2041942], [118.7129067, 32.2042282], [118.7128652, 32.2042562], [118.7128233, 32.204469]]]}}, {"type": "Feature", "properties": {"osm_id": "way/1424945036", "building": "yes"}, "geometry": {"type": "Polygon", "coordinates": [[[118.7134793, 32.2041363], [118.7137194, 32.2042861], [118.7140399, 32.204395], [118.7142129, 32.2043757], [118.7143028, 32.2041885], [118.7142947, 32.2041601], [118.7136014, 32.2039195], [118.7135786, 32.2039332], [118.7134793, 32.2041363]]]}}, {"type": "Feature", "properties": {"osm_id": "way/1424945037", "building": "yes"}, "geometry": {"type": "Polygon", "coordinates": [[[118.712723, 32.2035973], [118.7134163, 32.2038435], [118.713309, 32.2040807], [118.7128852, 32.2040432], [118.7126237, 32.2039536], [118.7125191, 32.2038707], [118.7126747, 32.2035995], [118.712723, 32.2035973]]]}}, {"type": "Feature", "properties": {"osm_id": "way/1424945038", "building": "yes"}, "geometry": {"type": "Polygon", "coordinates": [[[118.7142572, 32.204833], [118.714571, 32.204883], [118.7146796, 32.2047525], [118.7145911, 32.2045584], [118.7143135, 32.2045096], [118.714174, 32.2046674], [118.7142572, 32.204833]]]}}, {"type": "Feature", "properties": {"osm_id": "way/1424977472", "building": "yes"}, "geometry": {"type": "Polygon", "coordinates": [[[118.7155934, 32.2045763], [118.715657, 32.2045908], [118.7156692, 32.2045525], [118.7158538, 32.2045948], [118.7158622, 32.2045686], [118.7159268, 32.2045834], [118.7159409, 32.2045392], [118.7156282, 32.2044676], [118.7155934, 32.2045763]]]}}, {"type": "Feature", "properties": {"osm_id": "way/1424986311", "building": "yes"}, "geometry": {"type": "Polygon", "coordinates": [[[118.7138862, 32.2034], [118.7140784, 32.2030152], [118.7149661, 32.2033327], [118.714774, 32.2037174], [118.7138862, 32.2034]]]}}, {"type": "Feature", "properties": {"osm_id": "way/478391048", "building": "university", "name": "行政楼"}, "geometry": {"type": "Polygon", "coordinates": [[[118.7185632, 32.2063372], [118.7186379, 32.2059697], [118.7192824, 32.2060211], [118.7193664, 32.2061357], [118.7193197, 32.2063807], [118.7192497, 32.206436], [118.7185632, 32.2063372]]]}}, {"type": "Feature", "properties": {"osm_id": "way/478391050", "building": "college", "name": "雷丁学院"}, "geometry": {"type": "Polygon", "coordinates": [[[118.719352, 32.2071493], [118.7193894, 32.2069083], [118.7200385, 32.2069755], [118.7200058, 32.2072165], [118.719352, 32.2071493]]]}}, {"type": "Feature", "properties": {"osm_id": "way/1056872859", "building": "transportation", "layer": "1", "name": "信息工程大学", "network": "南京地铁"}, "geometry": {"type": "Polygon", "coordinates": [[[118.7218009, 32.2050443], [118.7218941, 32.2050615], [118.7219548, 32.2050568], [118.7220064, 32.2050305], [118.7220251, 32.2050088], [118.7217892, 32.204179], [118.7217285, 32.2041671], [118.7216094, 32.2041888], [118.7215604, 32.2042244], [118.7218009, 32.2050443]]]}}, {"type": "Feature", "properties": {"osm_id": "way/1316175146", "building": "college", "name": "国际教育学院"}, "geometry": {"type": "Polygon", "coordinates": [[[118.7194292, 32.2066622], [118.7202191, 32.2067499], [118.7202665, 32.2064602], [118.7194772, 32.2063835], [118.7194292, 32.2066622]]]}}, {"type": "Feature", "properties": {"osm_id": "way/1321673133", "building": "yes"}, "geometry": {"type": "Polygon", "coordinates": [[[118.7245756, 32.2071775], [118.7248841, 32.2072251], [118.7249351, 32.2069888], [118.7246266, 32.2069412], [118.7245756, 32.2071775]]]}}, {"type": "Feature", "properties": {"osm_id": "way/1416956753", "building": "apartments", "building:levels": "18"}, "geometry": {"type": "Polygon", "coordinates": [[[118.7229349, 32.2046102], [118.7230243, 32.2045901], [118.7230644, 32.2047178], [118.7229724, 32.2047385], [118.7229796, 32.2047614], [118.7229878, 32.2047876], [118.7229959, 32.2048132], [118.7230831, 32.2047936], [118.7231456, 32.2049926], [118.7229239, 32.2050425], [118.7227132, 32.2043717], [118.7229387, 32.2043209], [118.7229977, 32.2045088], [118.7229093, 32.2045287], [118.722918, 32.2045564], [118.7229264, 32.2045831], [118.7229349, 32.2046102]]]}}, {"type": "Feature", "properties": {"osm_id": "way/1416956757", "building": "yes"}, "geometry": {"type": "Polygon", "coordinates": [[[118.7244505, 32.204685], [118.7244486, 32.2045834], [118.7249583, 32.2045766], [118.7249602, 32.2046781], [118.7244505, 32.204685]]]}}, {"type": "Feature", "properties": {"osm_id": "way/1416956758", "building": "yes"}, "geometry": {"type": "Polygon", "coordinates": [[[118.7239794, 32.2046706], [118.7239796, 32.2045718], [118.7243504, 32.2045723], [118.7243503, 32.204671], [118.7239794, 32.2046706]]]}}, {"type": "Feature", "properties": {"osm_id": "way/1416956759", "building": "yes"}, "geometry": {"type": "Polygon", "coordinates": [[[118.7231947, 32.2044149], [118.7231705, 32.2043042], [118.723782, 32.2042084], [118.7238062, 32.204319], [118.7231947, 32.2044149]]]}}, {"type": "Feature", "properties": {"osm_id": "way/1416956760", "building": "yes"}, "geometry": {"type": "Polygon", "coordinates": [[[118.7233355, 32.2050369], [118.7233347, 32.204928], [118.7238068, 32.2049253], [118.7238076, 32.2050343], [118.7233355, 32.2050369]]]}}, {"type": "Feature", "properties": {"osm_id": "way/1416956761", "building": "yes"}, "geometry": {"type": "Polygon", "coordinates": [[[118.7232895, 32.2047133], [118.7232895, 32.2046118], [118.7238239, 32.2046118], [118.7238239, 32.2047133], [118.7232895, 32.2047133]]]}}, {"type": "Feature", "properties": {"osm_id": "way/1416956764", "building": "yes"}, "geometry": {"type": "Polygon", "coordinates": [[[118.7244486, 32.2050055], [118.7244465, 32.2049119], [118.7249494, 32.204904], [118.7249515, 32.2049976], [118.7244486, 32.2050055]]]}}, {"type": "Feature", "properties": {"osm_id": "way/1416956765", "building": "yes"}, "geometry": {"type": "Polygon", "coordinates": [[[118.7239846, 32.2049049], [118.724336, 32.2048974], [118.7243392, 32.2050029], [118.7239878, 32.2050104], [118.7239846, 32.2049049]]]}}, {"type": "Feature", "properties": {"osm_id": "way/1416976463", "building": "yes"}, "geometry": {"type": "Polygon", "coordinates": [[[118.7239743, 32.2043575], [118.7239188, 32.2041104], [118.7245755, 32.2040047], [118.724631, 32.2042518], [118.7239743, 32.2043575]]]}}, {"type": "Feature", "properties": {"osm_id": "way/1421104665", "amenity": "security_booth", "building": "guardhouse"}, "geometry": {"type": "Polygon", "coordinates": [[[118.7230693, 32.2042302], [118.7230632, 32.2041972], [118.7231007, 32.2041922], [118.7231068, 32.2042252], [118.7230693, 32.2042302]]]}}, {"type": "Feature", "properties": {"osm_id": "way/1421104671", "building": "yes"}, "geometry": {"type": "Polygon", "coordinates": [[[118.7223412, 32.2047272], [118.7223247, 32.2046715], [118.722271, 32.2044911], [118.7222327, 32.204362], [118.7224441, 32.204317], [118.7225526, 32.2046823], [118.7223412, 32.2047272]]]}}, {"type": "Feature", "properties": {"osm_id": "way/1424986302", "building": "yes"}, "geometry": {"type": "Polygon", "coordinates": [[[118.7238685, 32.2035259], [118.7238104, 32.2032563], [118.7242528, 32.203188], [118.7243109, 32.2034577], [118.7238685, 32.2035259]]]}}, {"type": "Feature", "properties": {"osm_id": "way/1424986303", "building": "yes"}, "geometry": {"type": "Polygon", "coordinates": [[[118.7231394, 32.2036138], [118.7231176, 32.2034942], [118.7236837, 32.2034202], [118.7237055, 32.2035398], [118.7231394, 32.2036138]]]}}, {"type": "Feature", "properties": {"osm_id": "way/1424986304", "building": "yes"}, "geometry": {"type": "Polygon", "coordinates": [[[118.7224661, 32.2037498], [118.7224324, 32.2035961], [118.7229455, 32.2035157], [118.7229792, 32.2036693], [118.7224661, 32.2037498]]]}}, {"type": "Feature", "properties": {"osm_id": "way/1503263400", "building": "yes"}, "geometry": {"type": "Polygon", "coordinates": [[[118.7242455, 32.2013461], [118.7242488, 32.2012365], [118.7246423, 32.2012451], [118.724639, 32.2013547], [118.7242455, 32.2013461]]]}}, {"type": "Feature", "properties": {"osm_id": "way/1503263401", "building": "yes"}, "geometry": {"type": "Polygon", "coordinates": [[[118.72354, 32.2014925], [118.7235088, 32.2013889], [118.7238954, 32.2013058], [118.7239265, 32.2014094], [118.72354, 32.2014925]]]}}, {"type": "Feature", "properties": {"osm_id": "way/1503263402", "building": "yes"}, "geometry": {"type": "Polygon", "coordinates": [[[118.7229748, 32.2017601], [118.722897, 32.201651], [118.7232891, 32.2014507], [118.7233669, 32.2015598], [118.7229748, 32.2017601]]]}}, {"type": "Feature", "properties": {"osm_id": "way/1503263403", "building": "yes"}, "geometry": {"type": "Polygon", "coordinates": [[[118.7231117, 32.2024334], [118.7231311, 32.2023332], [118.7235773, 32.2023951], [118.7235579, 32.2024953], [118.7231117, 32.2024334]]]}}, {"type": "Feature", "properties": {"osm_id": "way/1503263406", "building": "yes"}, "geometry": {"type": "Polygon", "coordinates": [[[118.7242986, 32.2021029], [118.7242728, 32.2020029], [118.7247809, 32.201909], [118.7248067, 32.202009], [118.7242986, 32.2021029]]]}}, {"type": "Feature", "properties": {"osm_id": "way/1503263407", "building": "yes"}, "geometry": {"type": "Polygon", "coordinates": [[[118.7235696, 32.2021716], [118.7235714, 32.2020604], [118.7241266, 32.2020668], [118.7241248, 32.202178], [118.7235696, 32.2021716]]]}}, {"type": "Feature", "properties": {"osm_id": "way/1503263408", "building": "yes"}, "geometry": {"type": "Polygon", "coordinates": [[[118.7229967, 32.2020937], [118.723019, 32.2019888], [118.7234724, 32.2020578], [118.72345, 32.2021628], [118.7229967, 32.2020937]]]}}, {"type": "Feature", "properties": {"osm_id": "way/1503263409", "building": "yes"}, "geometry": {"type": "Polygon", "coordinates": [[[118.7237689, 32.2027441], [118.7237471, 32.2026347], [118.7238686, 32.2026173], [118.7238762, 32.2026555], [118.7239125, 32.2026503], [118.7239051, 32.2026134], [118.7240303, 32.2025955], [118.7240376, 32.2026322], [118.7240905, 32.2026246], [118.7240828, 32.2025857], [118.7242049, 32.2025683], [118.7242225, 32.2026567], [118.7241799, 32.2026628], [118.7241882, 32.2027046], [118.7242123, 32.2027011], [118.7242283, 32.2027813], [118.7240989, 32.2027998], [118.7240875, 32.2027429], [118.7238516, 32.2027767], [118.723843, 32.2027335], [118.7237689, 32.2027441]]]}}, {"type": "Feature", "properties": {"osm_id": "way/1503263410", "building": "yes"}, "geometry": {"type": "Polygon", "coordinates": [[[118.7231617, 32.2027597], [118.7231882, 32.2026518], [118.7236225, 32.2027281], [118.7235961, 32.202836], [118.7231617, 32.2027597]]]}}, {"type": "Feature", "properties": {"osm_id": "way/1503263415", "building": "yes"}, "geometry": {"type": "Polygon", "coordinates": [[[118.7245201, 32.2030645], [118.7244982, 32.2029512], [118.7249094, 32.2028942], [118.7249313, 32.2030076], [118.7245201, 32.2030645]]]}}, {"type": "Feature", "properties": {"osm_id": "way/1503263416", "building": "yes"}, "geometry": {"type": "Polygon", "coordinates": [[[118.7233065, 32.2032279], [118.7232882, 32.2031209], [118.7237423, 32.203065], [118.7237332, 32.2030118], [118.7242489, 32.2029484], [118.724268, 32.2030596], [118.7237507, 32.2031233], [118.7237591, 32.2031723], [118.7233065, 32.2032279]]]}}, {"type": "Feature", "properties": {"osm_id": "way/1503263428", "building": "yes"}, "geometry": {"type": "Polygon", "coordinates": [[[118.7218627, 32.2015823], [118.7218204, 32.201449], [118.7219493, 32.2014197], [118.7219374, 32.2013821], [118.7225483, 32.2012433], [118.7225887, 32.2013708], [118.7219847, 32.2015081], [118.7219985, 32.2015514], [118.7218627, 32.2015823]]]}}, {"type": "Feature", "properties": {"osm_id": "way/1503263429", "building": "yes"}, "geometry": {"type": "Polygon", "coordinates": [[[118.7219593, 32.2018773], [118.721917, 32.2017441], [118.7220459, 32.2017148], [118.7220339, 32.2016772], [118.7226448, 32.2015383], [118.7226853, 32.2016658], [118.7220813, 32.2018031], [118.722095, 32.2018465], [118.7219593, 32.2018773]]]}}, {"type": "Feature", "properties": {"osm_id": "way/1503263430", "building": "yes"}, "geometry": {"type": "Polygon", "coordinates": [[[118.7220585, 32.2021928], [118.7220162, 32.2020595], [118.7221451, 32.2020302], [118.7221332, 32.2019926], [118.7227441, 32.2018538], [118.7227845, 32.2019813], [118.7221805, 32.2021186], [118.7221943, 32.2021619], [118.7220585, 32.2021928]]]}}, {"type": "Feature", "properties": {"osm_id": "way/1503263431", "building": "yes"}, "geometry": {"type": "Polygon", "coordinates": [[[118.7221448, 32.2025002], [118.7221025, 32.2023669], [118.7222314, 32.2023376], [118.7222195, 32.2023], [118.7228304, 32.2021612], [118.7228708, 32.2022887], [118.7222668, 32.2024259], [118.7222806, 32.2024693], [118.7221448, 32.2025002]]]}}, {"type": "Feature", "properties": {"osm_id": "way/1503263432", "building": "yes"}, "geometry": {"type": "Polygon", "coordinates": [[[118.722257, 32.2027971], [118.722218, 32.2026825], [118.7224985, 32.202614], [118.722488, 32.202583], [118.7229306, 32.202475], [118.7229637, 32.202572], [118.7225238, 32.2026792], [118.7225404, 32.202728], [118.722257, 32.2027971]]]}}, {"type": "Feature", "properties": {"osm_id": "way/1503263433", "building": "yes"}, "geometry": {"type": "Polygon", "coordinates": [[[118.7223509, 32.203099], [118.7223118, 32.2029843], [118.7225924, 32.2029159], [118.7225818, 32.2028848], [118.7230245, 32.2027769], [118.7230575, 32.2028739], [118.7226177, 32.2029811], [118.7226343, 32.2030299], [118.7223509, 32.203099]]]}}, {"type": "Feature", "properties": {"osm_id": "way/1503263434", "building": "yes"}, "geometry": {"type": "Polygon", "coordinates": [[[118.7224381, 32.2033973], [118.7223991, 32.2032826], [118.7226797, 32.2032142], [118.7226691, 32.2031831], [118.7231118, 32.2030752], [118.7231448, 32.2031721], [118.7227049, 32.2032794], [118.7227216, 32.2033282], [118.7224381, 32.2033973]]]}}, {"type": "Feature", "properties": {"osm_id": "way/1425270044", "building": "yes"}, "geometry": {"type": "Polygon", "coordinates": [[[118.6994758, 32.2107054], [118.6995697, 32.210657], [118.6992721, 32.2102434], [118.6991782, 32.2102917], [118.6994758, 32.2107054]]]}}, {"type": "Feature", "properties": {"osm_id": "way/1425270046", "building": "yes"}, "geometry": {"type": "Polygon", "coordinates": [[[118.699323, 32.2117799], [118.699262, 32.211697], [118.6994517, 32.2115971], [118.6995127, 32.21168], [118.699323, 32.2117799]]]}}, {"type": "Feature", "properties": {"osm_id": "way/1425270088", "building": "yes"}, "geometry": {"type": "Polygon", "coordinates": [[[118.7030046, 32.2102191], [118.7029342, 32.21013], [118.7029704, 32.2096398], [118.7032199, 32.2096409], [118.7034076, 32.2098599], [118.7033916, 32.2100211], [118.7030046, 32.2102191]]]}}, {"type": "Feature", "properties": {"osm_id": "way/1114839563", "building": "university", "name": "启明楼"}, "geometry": {"type": "Polygon", "coordinates": [[[118.7108393, 32.2079164], [118.7108657, 32.2077837], [118.7114685, 32.2078693], [118.7114423, 32.2080011], [118.7112725, 32.207977], [118.7112675, 32.2080021], [118.7111496, 32.2079853], [118.7111544, 32.2079611], [118.7108393, 32.2079164]]]}}, {"type": "Feature", "properties": {"osm_id": "way/1321673118", "building": "yes"}, "geometry": {"type": "Polygon", "coordinates": [[[118.7091771, 32.2112288], [118.7092984, 32.2107795], [118.7090026, 32.2107223], [118.7088812, 32.2111716], [118.7091771, 32.2112288]]]}}, {"type": "Feature", "properties": {"osm_id": "way/1424986310", "building": "yes"}, "geometry": {"type": "Polygon", "coordinates": [[[118.7061525, 32.2078392], [118.7061655, 32.2077587], [118.7062495, 32.2077684], [118.7062591, 32.2077089], [118.7063219, 32.2077162], [118.7063109, 32.2077845], [118.706351, 32.2077891], [118.7063545, 32.2077671], [118.7064444, 32.2077775], [118.7064405, 32.2078021], [118.7065045, 32.2078095], [118.7065136, 32.2077527], [118.7065802, 32.2077604], [118.7065703, 32.2078216], [118.7067321, 32.2078403], [118.7067432, 32.2077717], [118.7068241, 32.207781], [118.7068137, 32.2078453], [118.7069064, 32.2078561], [118.7068911, 32.2079511], [118.7067926, 32.2079397], [118.7067894, 32.2079596], [118.7067122, 32.2079506], [118.7067188, 32.2079097], [118.7066499, 32.2079017], [118.7066535, 32.2078794], [118.7065952, 32.2078727], [118.706592, 32.2078925], [118.7065196, 32.2078842], [118.7065143, 32.2079168], [118.7064369, 32.2079078], [118.7064412, 32.2078814], [118.7064101, 32.2078778], [118.706417, 32.2078352], [118.7063568, 32.2078282], [118.7063499, 32.2078712], [118.7063078, 32.2078663], [118.7063035, 32.2078924], [118.7062242, 32.2078833], [118.7062299, 32.2078482], [118.7061525, 32.2078392]]]}}, {"type": "Feature", "properties": {"osm_id": "way/1425270079", "building": "school"}, "geometry": {"type": "Polygon", "coordinates": [[[118.7071735, 32.2112715], [118.7075624, 32.2113328], [118.7076187, 32.2111297], [118.708013, 32.2112023], [118.7080398, 32.2111002], [118.7075812, 32.2110173], [118.7076187, 32.2108437], [118.708131, 32.210947], [118.7081471, 32.2108721], [118.7079741, 32.2108375], [118.7079714, 32.2108154], [118.7079446, 32.2108052], [118.7079312, 32.2108176], [118.7075899, 32.2107547], [118.7075852, 32.2107399], [118.707559, 32.2107388], [118.707547, 32.2107632], [118.7073813, 32.2107308], [118.7074792, 32.2103592], [118.7082557, 32.2105079], [118.7082987, 32.2103535], [118.7081927, 32.2103343], [118.7081739, 32.2103921], [118.7075624, 32.210273], [118.707547, 32.2103405], [118.7074839, 32.210328], [118.7075007, 32.2102628], [118.7073445, 32.2102316], [118.7073431, 32.2102894], [118.7072922, 32.2102821], [118.7071701, 32.2107235], [118.707213, 32.210732], [118.7071969, 32.2107836], [118.7075181, 32.2108398], [118.7075141, 32.2108562], [118.7075745, 32.2108676], [118.707545, 32.2109799], [118.7075148, 32.2109754], [118.7074846, 32.2111007], [118.7072352, 32.211052], [118.7071735, 32.2112715]]]}}, {"type": "Feature", "properties": {"osm_id": "way/862959350", "building": "university", "name": "北辰楼"}, "geometry": {"type": "Polygon", "coordinates": [[[118.7116485, 32.208073], [118.7116822, 32.2078971], [118.7117951, 32.2079126], [118.7118259, 32.2077521], [118.7120045, 32.2077767], [118.7119956, 32.2078229], [118.7125384, 32.2078975], [118.7125468, 32.2078538], [118.7127347, 32.2078796], [118.7126968, 32.2080774], [118.7118891, 32.2079665], [118.711863, 32.2081024], [118.7116485, 32.208073]]]}}, {"type": "Feature", "properties": {"osm_id": "way/860503920", "building": "dormitory", "building:levels": "7", "name": "硕园2栋"}, "geometry": {"type": "Polygon", "coordinates": [[[118.7166504, 32.2081584], [118.7166769, 32.207995], [118.717315, 32.2080691], [118.7172886, 32.2082324], [118.7166504, 32.2081584]]]}}, {"type": "Feature", "properties": {"osm_id": "way/860503921", "building": "dormitory", "building:levels": "7", "name": "硕园3栋"}, "geometry": {"type": "Polygon", "coordinates": [[[118.7165152, 32.2084966], [118.716542, 32.2083407], [118.7171891, 32.2084201], [118.7171623, 32.2085761], [118.7165152, 32.2084966]]]}}, {"type": "Feature", "properties": {"osm_id": "way/862952674", "building": "dormitory", "name": "晖园14栋"}, "geometry": {"type": "Polygon", "coordinates": [[[118.7141773, 32.2081988], [118.7142082, 32.2080355], [118.7150693, 32.2081523], [118.7150384, 32.2083155], [118.7141773, 32.2081988]]]}}, {"type": "Feature", "properties": {"osm_id": "way/862952675", "building": "dormitory", "building:levels": "6", "name": "晖园13栋"}, "geometry": {"type": "Polygon", "coordinates": [[[118.7143598, 32.207857], [118.7143952, 32.2076851], [118.7152701, 32.2078139], [118.7152347, 32.2079859], [118.7143598, 32.207857]]]}}, {"type": "Feature", "properties": {"osm_id": "way/862952684", "building": "university", "name": "科创1号楼"}, "geometry": {"type": "Polygon", "coordinates": [[[118.7163478, 32.2091522], [118.7163779, 32.2090489], [118.7170981, 32.2091971], [118.7171052, 32.2091402], [118.7171849, 32.2091552], [118.7171565, 32.2092675], [118.7170911, 32.2092555], [118.7170734, 32.2093004], [118.7163478, 32.2091522]]]}}, {"type": "Feature", "properties": {"osm_id": "way/862952685", "building": "dormitory", "name": "硕园4栋"}, "geometry": {"type": "Polygon", "coordinates": [[[118.7164575, 32.2089605], [118.7164823, 32.2088737], [118.7165195, 32.2088782], [118.7165319, 32.2088153], [118.7171477, 32.2089007], [118.7171371, 32.208974], [118.7171849, 32.208977], [118.7171583, 32.2090654], [118.7171176, 32.2090534], [118.7171123, 32.2090699], [118.7164982, 32.208983], [118.7164947, 32.208968], [118.7164575, 32.2089605]]]}}, {"type": "Feature", "properties": {"osm_id": "way/862952686", "building": "dormitory", "name": "硕园5栋"}, "geometry": {"type": "Polygon", "coordinates": [[[118.7153914, 32.2088222], [118.7154148, 32.2087116], [118.7154521, 32.2087155], [118.7154778, 32.2086385], [118.7163184, 32.208759], [118.7162974, 32.208842], [118.7163486, 32.208842], [118.7163184, 32.2089526], [118.7153914, 32.2088222]]]}}, {"type": "Feature", "properties": {"osm_id": "way/862952691", "amenity": "restaurant", "building": "yes", "name": "东苑食堂"}, "geometry": {"type": "Polygon", "coordinates": [[[118.7140528, 32.2086042], [118.7141214, 32.2082643], [118.7147293, 32.2083565], [118.7148609, 32.2084617], [118.7148852, 32.2085899], [118.7149648, 32.2086205], [118.7148939, 32.2087716], [118.7148115, 32.2087586], [118.7140528, 32.2086042]]]}}, {"type": "Feature", "properties": {"osm_id": "way/862959351", "building": "university", "name": "明远楼"}, "geometry": {"type": "Polygon", "coordinates": [[[118.7131281, 32.2081275], [118.7131423, 32.2080526], [118.7133228, 32.2080676], [118.7133405, 32.2080017], [118.7134254, 32.2080137], [118.71339, 32.2081514], [118.7132945, 32.2081305], [118.7132803, 32.2081514], [118.7131281, 32.2081275]]]}}, {"type": "Feature", "properties": {"osm_id": "way/1316175152", "amenity": "food_court", "building": "yes", "name": "东苑集装箱美食街"}, "geometry": {"type": "Polygon", "coordinates": [[[118.7153159, 32.2089256], [118.7161975, 32.2091148], [118.7162442, 32.2089657], [118.7153438, 32.2088321], [118.7153159, 32.2089256]]]}}, {"type": "Feature", "properties": {"osm_id": "way/1321673164", "building": "yes"}, "geometry": {"type": "Polygon", "coordinates": [[[118.7184396, 32.2101435], [118.7183928, 32.2100443], [118.7181216, 32.2101358], [118.7181683, 32.210235], [118.7184396, 32.2101435]]]}}, {"type": "Feature", "properties": {"osm_id": "way/1425305057", "building": "residential"}, "geometry": {"type": "Polygon", "coordinates": [[[118.7122553, 32.2110557], [118.7122874, 32.2109515], [118.7124322, 32.2109835], [118.7124235, 32.211012], [118.713096, 32.2111602], [118.7130588, 32.2112813], [118.7123988, 32.2111358], [118.7124128, 32.2110904], [118.7122553, 32.2110557]]]}}, {"type": "Feature", "properties": {"osm_id": "way/1425305058", "building": "residential"}, "geometry": {"type": "Polygon", "coordinates": [[[118.7125021, 32.2108087], [118.7125371, 32.2106893], [118.7132858, 32.2108464], [118.7132508, 32.2109658], [118.7125021, 32.2108087]]]}}, {"type": "Feature", "properties": {"osm_id": "way/1425305059", "building": "residential"}, "geometry": {"type": "Polygon", "coordinates": [[[118.7127235, 32.2104288], [118.712775, 32.2103262], [118.7133441, 32.2105305], [118.7133565, 32.2105059], [118.7134939, 32.2105552], [118.7134301, 32.2106825], [118.7127235, 32.2104288]]]}}, {"type": "Feature", "properties": {"osm_id": "way/1425305060", "building": "residential"}, "geometry": {"type": "Polygon", "coordinates": [[[118.7130102, 32.2100769], [118.7130762, 32.2099798], [118.7135589, 32.2102149], [118.7134929, 32.210312], [118.7130102, 32.2100769]]]}}, {"type": "Feature", "properties": {"osm_id": "way/1425305061", "building": "residential"}, "geometry": {"type": "Polygon", "coordinates": [[[118.7132172, 32.2098053], [118.7132807, 32.2097129], [118.7136771, 32.2099078], [118.7136136, 32.2100002], [118.7132172, 32.2098053]]]}}, {"type": "Feature", "properties": {"osm_id": "way/1425305062", "building": "residential"}, "geometry": {"type": "Polygon", "coordinates": [[[118.7134706, 32.2095621], [118.7135002, 32.2094554], [118.7140956, 32.2095734], [118.714066, 32.2096801], [118.7134706, 32.2095621]]]}}, {"type": "Feature", "properties": {"osm_id": "way/1425305063", "building": "residential"}, "geometry": {"type": "Polygon", "coordinates": [[[118.7141563, 32.2096973], [118.7141907, 32.2095836], [118.7144982, 32.2096504], [118.7144638, 32.2097641], [118.7141563, 32.2096973]]]}}, {"type": "Feature", "properties": {"osm_id": "way/1425305064", "building": "residential"}, "geometry": {"type": "Polygon", "coordinates": [[[118.7137977, 32.2099331], [118.7138307, 32.2098238], [118.7144109, 32.2099491], [118.7143779, 32.2100584], [118.7137977, 32.2099331]]]}}, {"type": "Feature", "properties": {"osm_id": "way/1425305065", "building": "residential"}, "geometry": {"type": "Polygon", "coordinates": [[[118.7132442, 32.2113176], [118.7132813, 32.2112027], [118.7139273, 32.2113518], [118.7139363, 32.2113241], [118.7141129, 32.2113648], [118.7140751, 32.2114819], [118.7138955, 32.2114405], [118.7138873, 32.211466], [118.7132442, 32.2113176]]]}}, {"type": "Feature", "properties": {"osm_id": "way/1425305066", "building": "residential"}, "geometry": {"type": "Polygon", "coordinates": [[[118.7135744, 32.2106931], [118.713606, 32.2105899], [118.7139925, 32.2106746], [118.7140005, 32.2106487], [118.7141588, 32.2106834], [118.7141266, 32.2107886], [118.7139773, 32.2107559], [118.71397, 32.2107798], [118.7135744, 32.2106931]]]}}, {"type": "Feature", "properties": {"osm_id": "way/1425305067", "building": "residential"}, "geometry": {"type": "Polygon", "coordinates": [[[118.7134292, 32.2109845], [118.7134677, 32.2108603], [118.714204, 32.2110235], [118.7141656, 32.2111477], [118.7134292, 32.2109845]]]}}, {"type": "Feature", "properties": {"osm_id": "way/1425305068", "building": "residential"}, "geometry": {"type": "Polygon", "coordinates": [[[118.714366, 32.2111825], [118.7144042, 32.2110602], [118.7145805, 32.2110996], [118.7145707, 32.2111311], [118.7151288, 32.2112559], [118.7150933, 32.2113697], [118.714533, 32.2112445], [118.7145402, 32.2112214], [118.714366, 32.2111825]]]}}, {"type": "Feature", "properties": {"osm_id": "way/1425305069", "building": "residential"}, "geometry": {"type": "Polygon", "coordinates": [[[118.7141432, 32.2114842], [118.7141791, 32.2113614], [118.714357, 32.2113986], [118.7143483, 32.2114284], [118.7149995, 32.2115646], [118.7149645, 32.2116846], [118.7143088, 32.2115475], [118.7143167, 32.2115205], [118.7141432, 32.2114842]]]}}, {"type": "Feature", "properties": {"osm_id": "way/1425305070", "building": "residential"}, "geometry": {"type": "Polygon", "coordinates": [[[118.7142911, 32.2108182], [118.7143245, 32.2107081], [118.7147141, 32.2107927], [118.7146807, 32.2109028], [118.7142911, 32.2108182]]]}}, {"type": "Feature", "properties": {"osm_id": "way/1425305071", "building": "residential"}, "geometry": {"type": "Polygon", "coordinates": [[[118.7146624, 32.209872], [118.7146912, 32.2097747], [118.7150053, 32.2098411], [118.7149765, 32.2099384], [118.7146624, 32.209872]]]}}, {"type": "Feature", "properties": {"osm_id": "way/1425305072", "building": "residential"}, "geometry": {"type": "Polygon", "coordinates": [[[118.7145551, 32.2102135], [118.7145839, 32.2101162], [118.714898, 32.2101827], [118.7148693, 32.21028], [118.7145551, 32.2102135]]]}}, {"type": "Feature", "properties": {"osm_id": "way/1425305073", "building": "residential"}, "geometry": {"type": "Polygon", "coordinates": [[[118.7144656, 32.2105122], [118.7144944, 32.2104149], [118.7148085, 32.2104814], [118.7147797, 32.2105787], [118.7144656, 32.2105122]]]}}, {"type": "Feature", "properties": {"osm_id": "way/1425305074", "building": "residential"}, "geometry": {"type": "Polygon", "coordinates": [[[118.7151583, 32.2095556], [118.7151883, 32.2094583], [118.715652, 32.2095606], [118.715622, 32.2096579], [118.7151583, 32.2095556]]]}}, {"type": "Feature", "properties": {"osm_id": "way/1425305075", "building": "residential"}, "geometry": {"type": "Polygon", "coordinates": [[[118.7150537, 32.2099551], [118.7150837, 32.2098577], [118.7155474, 32.20996], [118.7155174, 32.2100573], [118.7150537, 32.2099551]]]}}, {"type": "Feature", "properties": {"osm_id": "way/1425305076", "building": "residential"}, "geometry": {"type": "Polygon", "coordinates": [[[118.7149478, 32.2103011], [118.7149778, 32.2102038], [118.7154414, 32.2103061], [118.7154114, 32.2104034], [118.7149478, 32.2103011]]]}}, {"type": "Feature", "properties": {"osm_id": "way/1425305077", "building": "residential"}, "geometry": {"type": "Polygon", "coordinates": [[[118.7148365, 32.2106347], [118.7148665, 32.2105374], [118.7153301, 32.2106397], [118.7153001, 32.210737], [118.7148365, 32.2106347]]]}}, {"type": "Feature", "properties": {"osm_id": "way/1425305078", "building": "residential"}, "geometry": {"type": "Polygon", "coordinates": [[[118.7147376, 32.2109354], [118.7147676, 32.2108381], [118.7152312, 32.2109404], [118.7152012, 32.2110377], [118.7147376, 32.2109354]]]}}, {"type": "Feature", "properties": {"osm_id": "way/1425305079", "building": "yes"}, "geometry": {"type": "Polygon", "coordinates": [[[118.7156291, 32.2101205], [118.7156692, 32.2099947], [118.7160656, 32.210085], [118.7160256, 32.2102109], [118.7156291, 32.2101205]]]}}, {"type": "Feature", "properties": {"osm_id": "way/1425305080", "building": "residential"}, "geometry": {"type": "Polygon", "coordinates": [[[118.7163772, 32.2098683], [118.7164262, 32.2097002], [118.7168934, 32.2097977], [118.7168443, 32.2099658], [118.7163772, 32.2098683]]]}}, {"type": "Feature", "properties": {"osm_id": "way/1425305081", "building": "residential"}, "geometry": {"type": "Polygon", "coordinates": [[[118.7161991, 32.21043], [118.7162251, 32.2103394], [118.7166953, 32.210436], [118.7166693, 32.2105266], [118.7161991, 32.21043]]]}}, {"type": "Feature", "properties": {"osm_id": "way/1425305082", "building": "residential"}, "geometry": {"type": "Polygon", "coordinates": [[[118.7160113, 32.2109553], [118.7160373, 32.2108647], [118.7165076, 32.2109613], [118.7164816, 32.2110519], [118.7160113, 32.2109553]]]}}, {"type": "Feature", "properties": {"osm_id": "way/1425305083", "building": "residential"}, "geometry": {"type": "Polygon", "coordinates": [[[118.715846, 32.2114904], [118.715872, 32.2113998], [118.7163423, 32.2114963], [118.7163163, 32.2115869], [118.715846, 32.2114904]]]}}, {"type": "Feature", "properties": {"osm_id": "way/1425305085", "building": "residential"}, "geometry": {"type": "Polygon", "coordinates": [[[118.7156671, 32.2103373], [118.7156918, 32.2102556], [118.7159989, 32.2103221], [118.7159742, 32.2104038], [118.7156671, 32.2103373]]]}}, {"type": "Feature", "properties": {"osm_id": "way/1425305086", "building": "residential"}, "geometry": {"type": "Polygon", "coordinates": [[[118.7155705, 32.2106437], [118.7155952, 32.210562], [118.7159023, 32.2106285], [118.7158776, 32.2107102], [118.7155705, 32.2106437]]]}}, {"type": "Feature", "properties": {"osm_id": "way/1425305087", "building": "residential"}, "geometry": {"type": "Polygon", "coordinates": [[[118.7154766, 32.2109535], [118.7155013, 32.2108718], [118.7158084, 32.2109382], [118.7157837, 32.2110199], [118.7154766, 32.2109535]]]}}, {"type": "Feature", "properties": {"osm_id": "way/1425305088", "building": "residential"}, "geometry": {"type": "Polygon", "coordinates": [[[118.7153828, 32.2112587], [118.7154075, 32.211177], [118.7157146, 32.2112435], [118.7156899, 32.2113252], [118.7153828, 32.2112587]]]}}, {"type": "Feature", "properties": {"osm_id": "way/1425305089", "building": "residential"}, "geometry": {"type": "Polygon", "coordinates": [[[118.7152701, 32.2115764], [118.7152948, 32.2114947], [118.7156019, 32.2115612], [118.7155772, 32.2116429], [118.7152701, 32.2115764]]]}}, {"type": "Feature", "properties": {"osm_id": "way/1425504862", "building": "yes"}, "geometry": {"type": "Polygon", "coordinates": [[[118.7126331, 32.2100812], [118.7127618, 32.2101561], [118.7134793, 32.2092744], [118.7137113, 32.2092029], [118.7138119, 32.2092222], [118.7138468, 32.2090986], [118.713647, 32.2090464], [118.7135947, 32.2091178], [118.7134927, 32.2091417], [118.7134016, 32.2091235], [118.7126331, 32.2100812]]]}}, {"type": "Feature", "properties": {"osm_id": "way/1425504863", "building": "residential"}, "geometry": {"type": "Polygon", "coordinates": [[[118.7147937, 32.2094925], [118.7148268, 32.2093916], [118.7149718, 32.2094256], [118.7149808, 32.2093981], [118.7151339, 32.209434], [118.7150986, 32.2095419], [118.7149496, 32.209507], [118.7149428, 32.2095275], [118.7147937, 32.2094925]]]}}, {"type": "Feature", "properties": {"osm_id": "way/1425504864", "building": "residential"}, "geometry": {"type": "Polygon", "coordinates": [[[118.7142365, 32.2093082], [118.7142583, 32.2092251], [118.7144119, 32.2092539], [118.7144034, 32.2092862], [118.7145646, 32.2093164], [118.7145368, 32.2094227], [118.7143763, 32.2093926], [118.7143851, 32.209359], [118.7142308, 32.20933], [118.7142365, 32.2093082]]]}}, {"type": "Feature", "properties": {"osm_id": "way/1425504865", "building": "residential"}, "geometry": {"type": "Polygon", "coordinates": [[[118.7138243, 32.2092684], [118.7138518, 32.2091841], [118.714002, 32.2092192], [118.714013, 32.2091854], [118.7141722, 32.2092226], [118.714135, 32.2093367], [118.713977, 32.2092998], [118.7139677, 32.2093284], [118.7138163, 32.2092931], [118.7138243, 32.2092684]]]}}, {"type": "Feature", "properties": {"osm_id": "way/478388467", "building": "yes", "leisure": "sports_hall", "name": "东苑体育馆"}, "geometry": {"type": "Polygon", "coordinates": [[[118.718985, 32.2091655], [118.7197623, 32.2092645], [118.7199641, 32.2081305], [118.7191865, 32.2080315], [118.718985, 32.2091655]]]}}, {"type": "Feature", "properties": {"osm_id": "way/862952679", "building": "university", "name": "科创4号楼"}, "geometry": {"type": "Polygon", "coordinates": [[[118.7201292, 32.2097384], [118.7201395, 32.2096329], [118.7208241, 32.2096808], [118.7208138, 32.2097863], [118.7201292, 32.2097384]]]}}, {"type": "Feature", "properties": {"osm_id": "way/862952681", "building": "university", "name": "科创3号楼"}, "geometry": {"type": "Polygon", "coordinates": [[[118.7191237, 32.2096151], [118.7191184, 32.2096046], [118.7190441, 32.2095941], [118.7190335, 32.2095851], [118.7189892, 32.2095746], [118.7190052, 32.2095237], [118.719129, 32.2095357], [118.7191379, 32.2095207], [118.7195537, 32.2095672], [118.7195554, 32.2095436], [118.7196561, 32.2095546], [118.7196545, 32.2095803], [118.7197547, 32.2095947], [118.719748, 32.2096978], [118.7194499, 32.2096647], [118.7194529, 32.2096465], [118.7191237, 32.2096151]]]}}, {"type": "Feature", "properties": {"osm_id": "way/1321673134", "building": "yes"}, "geometry": {"type": "Polygon", "coordinates": [[[118.7235577, 32.208218], [118.7234317, 32.2079139], [118.7233169, 32.207948], [118.723443, 32.2082521], [118.7235577, 32.208218]]]}}, {"type": "Feature", "properties": {"osm_id": "way/1417005196", "building": "yes"}, "geometry": {"type": "Polygon", "coordinates": [[[118.7244883, 32.2107802], [118.724855, 32.2107746], [118.7248533, 32.2106942], [118.7248191, 32.2106948], [118.7248176, 32.2106251], [118.7247929, 32.2106255], [118.724791, 32.2105397], [118.7244337, 32.2105451], [118.7244356, 32.2106323], [118.724461, 32.2106319], [118.7244623, 32.2106907], [118.7244864, 32.2106904], [118.7244883, 32.2107802]]]}}, {"type": "Feature", "properties": {"osm_id": "way/862952682", "building": "yes", "name": "南气宾馆"}, "geometry": {"type": "Polygon", "coordinates": [[[118.7178677, 32.2091786], [118.7179102, 32.2090079], [118.7179951, 32.2090349], [118.7180836, 32.208993], [118.7181013, 32.208966], [118.7186888, 32.2090379], [118.7186746, 32.2092206], [118.7185012, 32.2091936], [118.7180659, 32.2091457], [118.7180482, 32.2092056], [118.7178677, 32.2091786]]]}}, {"type": "Feature", "properties": {"osm_id": "way/862952683", "building": "university", "name": "科创2号楼"}, "geometry": {"type": "Polygon", "coordinates": [[[118.7186306, 32.209537], [118.7186589, 32.2094517], [118.7177228, 32.2093124], [118.717737, 32.2092555], [118.7176343, 32.2092435], [118.7176219, 32.2093648], [118.7177104, 32.2093783], [118.7177084, 32.2094197], [118.7184979, 32.209531], [118.718574, 32.209537], [118.7186306, 32.209537]]]}}, {"type": "Feature", "properties": {"osm_id": "way/1417005187", "building": "yes"}, "geometry": {"type": "Polygon", "coordinates": [[[118.7246857, 32.2114363], [118.7246467, 32.2113171], [118.725012, 32.2112315], [118.725051, 32.2113508], [118.7246857, 32.2114363]]]}}, {"type": "Feature", "properties": {"osm_id": "way/1417005195", "building": "yes"}, "geometry": {"type": "Polygon", "coordinates": [[[118.7249706, 32.2106355], [118.7249652, 32.2104398], [118.7254259, 32.2104307], [118.7254313, 32.2106265], [118.7249706, 32.2106355]]]}}]}