{
 "type": "FeatureCollection",
 "features": [
  {
   "type": "Feature",
   "properties": {
    "osm_type": "relation",
    "osm_id": 13070911,
    "name": "南京信息工程大学",
    "amenity": "university"
   },
   "geometry": {
    "type": "MultiPolygon",
    "coordinates": [
     [
      [
       [
        118.6919042,
        32.1980054
       ],
       [
        118.6910087,
        32.1964153
       ],
       [
        118.6924026,
        32.1956166
       ],
       [
        118.6937112,
        32.1970945
       ],
       [
        118.6919042,
        32.1980054
       ]
      ]
     ],
     [
      [
       [
        118.717213,
        32.2048716
       ],
       [
        118.7212685,
        32.2043519
       ],
       [
        118.7229046,
        32.2096466
       ],
       [
        118.7226525,
        32.2098645
       ],
       [
        118.7199488,
        32.209734
       ],
       [
        118.7178688,
        32.2094764
       ],
       [
        118.7137985,
        32.2086027
       ],
       [
        118.715027,
        32.2061062
       ],
       [
        118.7154696,
        32.204311
       ],
       [
        118.717213,
        32.2048716
       ]
      ]
     ],
     [
      [
       [
        118.7007737,
        32.2078946
       ],
       [
        118.7003536,
        32.2072537
       ],
       [
        118.7000365,
        32.2059474
       ],
       [
        118.7000169,
        32.2045106
       ],
       [
        118.7004545,
        32.2035258
       ],
       [
        118.7032655,
        32.1991976
       ],
       [
        118.7094319,
        32.2022299
       ],
       [
        118.715101,
        32.2042048
       ],
       [
        118.7151705,
        32.2043269
       ],
       [
        118.7148523,
        32.2058332
       ],
       [
        118.7135679,
        32.2085664
       ],
       [
        118.7111217,
        32.208176
       ],
       [
        118.7084877,
        32.2081942
       ],
       [
        118.7041211,
        32.2077562
       ],
       [
        118.7007737,
        32.2078946
       ]
      ]
     ]
    ]
   }
  }
 ]
}