{"type": "FeatureCollection", "features": [{"type": "Feature", "properties": {"osm_id": "node/2848574246", "power": "tower", "source": "Bing"}, "geometry": {"type": "Point", "coordinates": [118.691565, 32.2076608]}}, {"type": "Feature", "properties": {"osm_id": "node/2848572233", "power": "tower", "source": "Bing"}, "geometry": {"type": "Point", "coordinates": [118.6935388, 32.2098526]}}, {"type": "Feature", "properties": {"osm_id": "node/2848577604", "power": "tower", "source": "Bing"}, "geometry": {"type": "Point", "coordinates": [118.6949936, 32.2114159]}}, {"type": "Feature", "properties": {"osm_id": "node/9653224998", "highway": "crossing"}, "geometry": {"type": "Point", "coordinates": [118.6984605, 32.2086113]}}, {"type": "Feature", "properties": {"osm_id": "node/9653225009", "highway": "crossing"}, "geometry": {"type": "Point", "coordinates": [118.6984189, 32.2085182]}}, {"type": "Feature", "properties": {"osm_id": "node/13100358745", "highway": "crossing"}, "geometry": {"type": "Point", "coordinates": [118.6987603, 32.208798]}}, {"type": "Feature", "properties": {"osm_id": "node/13100358753", "highway": "crossing"}, "geometry": {"type": "Point", "coordinates": [118.6985822, 32.2081772]}}, {"type": "Feature", "properties": {"osm_id": "node/13100358754", "highway": "crossing"}, "geometry": {"type": "Point", "coordinates": [118.6984925, 32.2082135]}}, {"type": "Feature", "properties": {"osm_id": "node/13100358756", "highway": "crossing"}, "geometry": {"type": "Point", "coordinates": [118.6983745, 32.2084166]}}, {"type": "Feature", "properties": {"osm_id": "node/13100358757", "highway": "crossing"}, "geometry": {"type": "Point", "coordinates": [118.6984977, 32.2086988]}}, {"type": "Feature", "properties": {"osm_id": "node/6420324050", "amenity": "bicycle_rental"}, "geometry": {"type": "Point", "coordinates": [118.7047189, 32.2002148]}}, {"type": "Feature", "properties": {"osm_id": "node/13723117972", "barrier": "lift_gate"}, "geometry": {"type": "Point", "coordinates": [118.7043965, 32.2001963]}}, {"type": "Feature", "properties": {"osm_id": "node/13732459899", "leisure": "pitch", "name": "西苑田径场"}, "geometry": {"type": "Point", "coordinates": [118.7032251, 32.2035578]}}, {"type": "Feature", "properties": {"osm_id": "node/3591968367", "entrance": "yes"}, "geometry": {"type": "Point", "coordinates": [118.7081986, 32.2012428]}}, {"type": "Feature", "properties": {"osm_id": "node/5599807862", "barrier": "lift_gate"}, "geometry": {"type": "Point", "coordinates": [118.7105196, 32.2026366]}}, {"type": "Feature", "properties": {"osm_id": "node/13734165543", "leisure": "pitch", "name": "中苑田径场"}, "geometry": {"type": "Point", "coordinates": [118.7070605, 32.2026564]}}, {"type": "Feature", "properties": {"osm_id": "node/3781657796", "bus": "yes", "description": "D10", "highway": "bus_stop", "name": "龙王山东", "public_transport": "platform"}, "geometry": {"type": "Point", "coordinates": [118.7199522, 32.1975167]}}, {"type": "Feature", "properties": {"osm_id": "node/4107421299", "barrier": "lift_gate"}, "geometry": {"type": "Point", "coordinates": [118.7237937, 32.2003208]}}, {"type": "Feature", "properties": {"osm_id": "node/9613396386", "power": "tower", "source": "Bing"}, "geometry": {"type": "Point", "coordinates": [118.7221616, 32.2010542]}}, {"type": "Feature", "properties": {"osm_id": "node/9613396387", "power": "tower", "source": "Bing"}, "geometry": {"type": "Point", "coordinates": [118.7240902, 32.199731]}}, {"type": "Feature", "properties": {"osm_id": "node/9613396388", "power": "tower", "source": "Bing"}, "geometry": {"type": "Point", "coordinates": [118.7235805, 32.1997877]}}, {"type": "Feature", "properties": {"osm_id": "node/9613396397", "power": "tower", "source": "Bing"}, "geometry": {"type": "Point", "coordinates": [118.7218693, 32.2004323]}}, {"type": "Feature", "properties": {"osm_id": "node/11811662063", "bus": "yes", "description": "D10", "highway": "bus_stop", "name": "龙王山东", "public_transport": "platform"}, "geometry": {"type": "Point", "coordinates": [118.7193108, 32.1975546]}}, {"type": "Feature", "properties": {"osm_id": "node/4716175550", "entrance": "yes"}, "geometry": {"type": "Point", "coordinates": [118.71602, 32.2058095]}}, {"type": "Feature", "properties": {"osm_id": "node/9613396404", "power": "tower"}, "geometry": {"type": "Point", "coordinates": [118.7178862, 32.2020346]}}, {"type": "Feature", "properties": {"osm_id": "node/9613396405", "power": "tower"}, "geometry": {"type": "Point", "coordinates": [118.7162662, 32.2020324]}}, {"type": "Feature", "properties": {"osm_id": "node/9613396406", "power": "tower"}, "geometry": {"type": "Point", "coordinates": [118.7158102, 32.2022366]}}, {"type": "Feature", "properties": {"osm_id": "node/9613396407", "power": "tower"}, "geometry": {"type": "Point", "coordinates": [118.7155098, 32.203612]}}, {"type": "Feature", "properties": {"osm_id": "node/9613396408", "power": "tower"}, "geometry": {"type": "Point", "coordinates": [118.7148687, 32.2056433]}}, {"type": "Feature", "properties": {"osm_id": "node/10196551771", "artwork_type": "statue", "material": "stone", "name": "涂长望先生像", "tourism": "artwork"}, "geometry": {"type": "Point", "coordinates": [118.717379, 32.2059812]}}, {"type": "Feature", "properties": {"osm_id": "node/10196551772", "artwork_type": "statue", "material": "stone", "name": "竺可桢先生像", "tourism": "artwork"}, "geometry": {"type": "Point", "coordinates": [118.7135088, 32.2058241]}}, {"type": "Feature", "properties": {"osm_id": "node/13098090163", "highway": "crossing"}, "geometry": {"type": "Point", "coordinates": [118.7176497, 32.2050343]}}, {"type": "Feature", "properties": {"osm_id": "node/13723117957", "entrance": "yes"}, "geometry": {"type": "Point", "coordinates": [118.7162604, 32.2052492]}}, {"type": "Feature", "properties": {"osm_id": "node/13723117960", "entrance": "yes"}, "geometry": {"type": "Point", "coordinates": [118.716032, 32.2064128]}}, {"type": "Feature", "properties": {"osm_id": "node/3781657792", "name": "信息工程大学", "name:en": "NUIST", "public_transport": "stop_position", "railway": "stop", "subway": "yes", "wheelchair": "no"}, "geometry": {"type": "Point", "coordinates": [118.7217067, 32.204665]}}, {"type": "Feature", "properties": {"osm_id": "node/3781657797", "bus": "yes", "description": "D10", "highway": "bus_stop", "name": "南京信息工程大学", "public_transport": "platform"}, "geometry": {"type": "Point", "coordinates": [118.7222721, 32.2053161]}}, {"type": "Feature", "properties": {"osm_id": "node/4071260596", "amenity": "bicycle_rental"}, "geometry": {"type": "Point", "coordinates": [118.7211444, 32.2042215]}}, {"type": "Feature", "properties": {"osm_id": "node/4107421298", "barrier": "lift_gate"}, "geometry": {"type": "Point", "coordinates": [118.72444, 32.2035504]}}, {"type": "Feature", "properties": {"osm_id": "node/4107421326", "highway": "traffic_signals"}, "geometry": {"type": "Point", "coordinates": [118.7244769, 32.2037461]}}, {"type": "Feature", "properties": {"osm_id": "node/5596389761", "access": "yes", "highway": "elevator", "indoor": "yes", "level": "0;1"}, "geometry": {"type": "Point", "coordinates": [118.7223346, 32.204479]}}, {"type": "Feature", "properties": {"osm_id": "node/6388490834", "barrier": "lift_gate"}, "geometry": {"type": "Point", "coordinates": [118.721762, 32.2075957]}}, {"type": "Feature", "properties": {"osm_id": "node/6388490998", "barrier": "lift_gate"}, "geometry": {"type": "Point", "coordinates": [118.7216923, 32.2073386]}}, {"type": "Feature", "properties": {"osm_id": "node/7079582545", "highway": "traffic_signals"}, "geometry": {"type": "Point", "coordinates": [118.7245003, 32.2038521]}}, {"type": "Feature", "properties": {"osm_id": "node/7998496375", "name": "信息工程大学", "name:en": "NUIST", "public_transport": "stop_position", "railway": "stop", "subway": "yes"}, "geometry": {"type": "Point", "coordinates": [118.7217633, 32.2046515]}}, {"type": "Feature", "properties": {"osm_id": "node/7998554090", "name": "信息工程大学", "name:en": "NUIST", "public_transport": "station", "railway": "station", "station": "subway", "subway": "yes", "wikidata": "Q19851855", "wikipedia": "zh:信息工程大学站"}, "geometry": {"type": "Point", "coordinates": [118.7217385, 32.2046696]}}, {"type": "Feature", "properties": {"osm_id": "node/9613396376", "power": "tower", "source": "Bing"}, "geometry": {"type": "Point", "coordinates": [118.7229583, 32.2072183]}}, {"type": "Feature", "properties": {"osm_id": "node/9613396377", "power": "tower", "source": "Bing"}, "geometry": {"type": "Point", "coordinates": [118.7225533, 32.2060019]}}, {"type": "Feature", "properties": {"osm_id": "node/9613396384", "power": "tower", "source": "Bing"}, "geometry": {"type": "Point", "coordinates": [118.7218934, 32.2037482]}}, {"type": "Feature", "properties": {"osm_id": "node/9613396385", "power": "tower", "source": "Bing"}, "geometry": {"type": "Point", "coordinates": [118.7216064, 32.2026769]}}, {"type": "Feature", "properties": {"osm_id": "node/9613396389", "power": "tower", "source": "Bing"}, "geometry": {"type": "Point", "coordinates": [118.721298, 32.2016511]}}, {"type": "Feature", "properties": {"osm_id": "node/9613396395", "power": "tower"}, "geometry": {"type": "Point", "coordinates": [118.7214965, 32.2058816]}}, {"type": "Feature", "properties": {"osm_id": "node/9613396396", "power": "tower"}, "geometry": {"type": "Point", "coordinates": [118.7208393, 32.2037141]}}, {"type": "Feature", "properties": {"osm_id": "node/9613396400", "power": "tower"}, "geometry": {"type": "Point", "coordinates": [118.7203726, 32.2013878]}}, {"type": "Feature", "properties": {"osm_id": "node/9613396401", "power": "tower"}, "geometry": {"type": "Point", "coordinates": [118.7203565, 32.2021141]}}, {"type": "Feature", "properties": {"osm_id": "node/9613396402", "power": "tower", "source": "Bing"}, "geometry": {"type": "Point", "coordinates": [118.7213007, 32.2013016]}}, {"type": "Feature", "properties": {"osm_id": "node/9613396403", "power": "tower"}, "geometry": {"type": "Point", "coordinates": [118.7193695, 32.2020301]}}, {"type": "Feature", "properties": {"osm_id": "node/11811662062", "bus": "yes", "description": "D10", "highway": "bus_stop", "name": "南京信息工程大学", "public_transport": "platform"}, "geometry": {"type": "Point", "coordinates": [118.7215701, 32.2051831]}}, {"type": "Feature", "properties": {"osm_id": "node/13059317506", "barrier": "personnel=yes"}, "geometry": {"type": "Point", "coordinates": [118.7231109, 32.2041838]}}, {"type": "Feature", "properties": {"osm_id": "node/13059317532", "entrance": "yes"}, "geometry": {"type": "Point", "coordinates": [118.7229796, 32.2047614]}}, {"type": "Feature", "properties": {"osm_id": "node/13059317533", "entrance": "yes"}, "geometry": {"type": "Point", "coordinates": [118.722918, 32.2045564]}}, {"type": "Feature", "properties": {"osm_id": "node/13059317534", "barrier": "lift_gate"}, "geometry": {"type": "Point", "coordinates": [118.7231564, 32.2041743]}}, {"type": "Feature", "properties": {"osm_id": "node/13059414776", "highway": "crossing"}, "geometry": {"type": "Point", "coordinates": [118.7212325, 32.2041429]}}, {"type": "Feature", "properties": {"osm_id": "node/13059414777", "highway": "crossing"}, "geometry": {"type": "Point", "coordinates": [118.7212582, 32.204234]}}, {"type": "Feature", "properties": {"osm_id": "node/13061319790", "crossing": "uncontrolled", "highway": "crossing"}, "geometry": {"type": "Point", "coordinates": [118.7220351, 32.2041094]}}, {"type": "Feature", "properties": {"osm_id": "node/13061319791", "crossing": "uncontrolled", "highway": "crossing"}, "geometry": {"type": "Point", "coordinates": [118.7220862, 32.2042492]}}, {"type": "Feature", "properties": {"osm_id": "node/13063112689", "entrance": "yes"}, "geometry": {"type": "Point", "coordinates": [118.7229878, 32.2047876]}}, {"type": "Feature", "properties": {"osm_id": "node/13063112691", "entrance": "yes"}, "geometry": {"type": "Point", "coordinates": [118.7229264, 32.2045831]}}, {"type": "Feature", "properties": {"osm_id": "node/13097861915", "barrier": "lift_gate"}, "geometry": {"type": "Point", "coordinates": [118.7189758, 32.2049047]}}, {"type": "Feature", "properties": {"osm_id": "node/13097861916", "barrier": "lift_gate"}, "geometry": {"type": "Point", "coordinates": [118.7192704, 32.2049389]}}, {"type": "Feature", "properties": {"osm_id": "node/13098090169", "highway": "crossing"}, "geometry": {"type": "Point", "coordinates": [118.7192014, 32.2052503]}}, {"type": "Feature", "properties": {"osm_id": "node/13098090183", "highway": "crossing"}, "geometry": {"type": "Point", "coordinates": [118.7188743, 32.2051652]}}, {"type": "Feature", "properties": {"osm_id": "node/13098090184", "barrier": "gate"}, "geometry": {"type": "Point", "coordinates": [118.7189109, 32.2048955]}}, {"type": "Feature", "properties": {"osm_id": "node/13098090187", "barrier": "gate"}, "geometry": {"type": "Point", "coordinates": [118.7193292, 32.2049477]}}, {"type": "Feature", "properties": {"osm_id": "node/13098090191", "highway": "crossing"}, "geometry": {"type": "Point", "coordinates": [118.7195154, 32.2043883]}}, {"type": "Feature", "properties": {"osm_id": "node/13098090192", "highway": "crossing"}, "geometry": {"type": "Point", "coordinates": [118.7195304, 32.2044858]}}, {"type": "Feature", "properties": {"osm_id": "node/13098090195", "highway": "crossing"}, "geometry": {"type": "Point", "coordinates": [118.7186331, 32.2045143]}}, {"type": "Feature", "properties": {"osm_id": "node/13098090196", "highway": "crossing"}, "geometry": {"type": "Point", "coordinates": [118.7186513, 32.2046006]}}, {"type": "Feature", "properties": {"osm_id": "node/9570074270", "bus": "yes", "bus_routes": "644,648,649,696,660", "departures_board": "yes", "highway": "bus_stop", "name": "南信大西苑北门", "operator": "南京公交集团", "public_transport": "platform", "shelter": "yes"}, "geometry": {"type": "Point", "coordinates": [118.7029389, 32.20781]}}, {"type": "Feature", "properties": {"osm_id": "node/11583469792", "bus": "yes", "bus_routes": "648,696,664,649,660", "departures_board": "no", "highway": "bus_stop", "name": "南信大西苑北门", "operator": "南京公交集团", "public_transport": "platform", "shelter": "yes"}, "geometry": {"type": "Point", "coordinates": [118.7029642, 32.2081871]}}, {"type": "Feature", "properties": {"osm_id": "node/13100358746", "highway": "crossing"}, "geometry": {"type": "Point", "coordinates": [118.6988563, 32.2087855]}}, {"type": "Feature", "properties": {"osm_id": "node/13100358749", "highway": "crossing"}, "geometry": {"type": "Point", "coordinates": [118.6988737, 32.2085234]}}, {"type": "Feature", "properties": {"osm_id": "node/13100358750", "highway": "crossing"}, "geometry": {"type": "Point", "coordinates": [118.6988289, 32.2084073]}}, {"type": "Feature", "properties": {"osm_id": "node/3261142765", "highway": "crossing"}, "geometry": {"type": "Point", "coordinates": [118.7086482, 32.2083711]}}, {"type": "Feature", "properties": {"osm_id": "node/6388490862", "barrier": "lift_gate"}, "geometry": {"type": "Point", "coordinates": [118.7088341, 32.2080535]}}, {"type": "Feature", "properties": {"osm_id": "node/8992578414", "highway": "crossing"}, "geometry": {"type": "Point", "coordinates": [118.709013, 32.2083767]}}, {"type": "Feature", "properties": {"osm_id": "node/9613396412", "power": "tower"}, "geometry": {"type": "Point", "coordinates": [118.7118673, 32.2109833]}}, {"type": "Feature", "properties": {"osm_id": "node/13100358729", "highway": "crossing"}, "geometry": {"type": "Point", "coordinates": [118.7090174, 32.208523]}}, {"type": "Feature", "properties": {"osm_id": "node/13100358732", "highway": "crossing"}, "geometry": {"type": "Point", "coordinates": [118.7086646, 32.2085263]}}, {"type": "Feature", "properties": {"osm_id": "node/13100358736", "highway": "crossing"}, "geometry": {"type": "Point", "coordinates": [118.7069904, 32.2084214]}}, {"type": "Feature", "properties": {"osm_id": "node/13100358737", "highway": "crossing"}, "geometry": {"type": "Point", "coordinates": [118.7070098, 32.2082807]}}, {"type": "Feature", "properties": {"osm_id": "node/13100358740", "highway": "crossing"}, "geometry": {"type": "Point", "coordinates": [118.7072894, 32.2083155]}}, {"type": "Feature", "properties": {"osm_id": "node/13100358741", "highway": "crossing"}, "geometry": {"type": "Point", "coordinates": [118.7072676, 32.2084592]}}, {"type": "Feature", "properties": {"osm_id": "node/13100358743", "highway": "crossing"}, "geometry": {"type": "Point", "coordinates": [118.7071108, 32.208598]}}, {"type": "Feature", "properties": {"osm_id": "node/13100358824", "barrier": "lift_gate"}, "geometry": {"type": "Point", "coordinates": [118.7059517, 32.210551]}}, {"type": "Feature", "properties": {"osm_id": "node/9546705323", "addr:city": "南京市", "addr:district": "浦口区", "addr:province": "江苏省", "amenity": "post_office", "branch": "盘城邮政所", "brand": "中国邮政", "brand:en": "China Post", "brand:wikidata": "Q1066476", "brand:wikipedia": "zh:中国邮政", "brand:zh": "中国邮政", "name": "中国邮政", "name:en": "China Post", "name:zh": "中国邮政"}, "geometry": {"type": "Point", "coordinates": [118.7166185, 32.2097611]}}, {"type": "Feature", "properties": {"osm_id": "node/9613396371", "power": "tower"}, "geometry": {"type": "Point", "coordinates": [118.7174719, 32.2098293]}}, {"type": "Feature", "properties": {"osm_id": "node/9613396409", "power": "tower"}, "geometry": {"type": "Point", "coordinates": [118.7137127, 32.2080625]}}, {"type": "Feature", "properties": {"osm_id": "node/9613396411", "power": "tower"}, "geometry": {"type": "Point", "coordinates": [118.7122884, 32.2114735]}}, {"type": "Feature", "properties": {"osm_id": "node/9613396413", "power": "tower"}, "geometry": {"type": "Point", "coordinates": [118.7129188, 32.2096489]}}, {"type": "Feature", "properties": {"osm_id": "node/9613396493", "power": "tower"}, "geometry": {"type": "Point", "coordinates": [118.7120041, 32.2116346]}}, {"type": "Feature", "properties": {"osm_id": "node/13100358718", "highway": "crossing"}, "geometry": {"type": "Point", "coordinates": [118.713211, 32.2087756]}}, {"type": "Feature", "properties": {"osm_id": "node/13100358719", "highway": "crossing"}, "geometry": {"type": "Point", "coordinates": [118.713309, 32.2086497]}}, {"type": "Feature", "properties": {"osm_id": "node/13100358721", "highway": "crossing"}, "geometry": {"type": "Point", "coordinates": [118.7136361, 32.2085515]}}, {"type": "Feature", "properties": {"osm_id": "node/13100358723", "highway": "crossing"}, "geometry": {"type": "Point", "coordinates": [118.7136271, 32.2087129]}}, {"type": "Feature", "properties": {"osm_id": "node/13100358724", "highway": "crossing"}, "geometry": {"type": "Point", "coordinates": [118.7135291, 32.2088427]}}, {"type": "Feature", "properties": {"osm_id": "node/13100358726", "highway": "crossing"}, "geometry": {"type": "Point", "coordinates": [118.7133078, 32.2089652]}}, {"type": "Feature", "properties": {"osm_id": "node/13100358935", "barrier": "lift_gate"}, "geometry": {"type": "Point", "coordinates": [118.7146836, 32.2093357]}}, {"type": "Feature", "properties": {"osm_id": "node/3781713894", "bus": "yes", "description": "D10", "highway": "bus_stop", "name": "大厂·杨庄北", "public_transport": "platform"}, "geometry": {"type": "Point", "coordinates": [118.7239169, 32.2107902]}}, {"type": "Feature", "properties": {"osm_id": "node/3781713903", "highway": "bus_stop"}, "geometry": {"type": "Point", "coordinates": [118.7232911, 32.2086705]}}, {"type": "Feature", "properties": {"osm_id": "node/4224188694", "highway": "traffic_signals", "traffic_signals": "signal"}, "geometry": {"type": "Point", "coordinates": [118.723168, 32.2101433]}}, {"type": "Feature", "properties": {"osm_id": "node/6388490627", "amenity": "parking"}, "geometry": {"type": "Point", "coordinates": [118.7210114, 32.2096921]}}, {"type": "Feature", "properties": {"osm_id": "node/9613396372", "power": "tower"}, "geometry": {"type": "Point", "coordinates": [118.7186131, 32.2100222]}}, {"type": "Feature", "properties": {"osm_id": "node/9613396373", "line_management": "transition", "location:transition": "yes", "power": "tower"}, "geometry": {"type": "Point", "coordinates": [118.7219203, 32.2103184]}}, {"type": "Feature", "properties": {"osm_id": "node/9613396374", "power": "tower", "source": "Bing"}, "geometry": {"type": "Point", "coordinates": [118.7236932, 32.2096648]}}, {"type": "Feature", "properties": {"osm_id": "node/9613396375", "power": "tower", "source": "Bing"}, "geometry": {"type": "Point", "coordinates": [118.7233123, 32.2084325]}}, {"type": "Feature", "properties": {"osm_id": "node/9613396391", "power": "tower"}, "geometry": {"type": "Point", "coordinates": [118.7206314, 32.2107382]}}, {"type": "Feature", "properties": {"osm_id": "node/9613396392", "power": "tower"}, "geometry": {"type": "Point", "coordinates": [118.7207106, 32.2101505]}}, {"type": "Feature", "properties": {"osm_id": "node/9613396393", "power": "tower"}, "geometry": {"type": "Point", "coordinates": [118.7226069, 32.2096716]}}, {"type": "Feature", "properties": {"osm_id": "node/9613396394", "power": "tower"}, "geometry": {"type": "Point", "coordinates": [118.7221053, 32.2079513]}}, {"type": "Feature", "properties": {"osm_id": "node/11811662061", "bus": "yes", "description": "D10", "highway": "bus_stop", "name": "大厂·杨庄北", "public_transport": "platform"}, "geometry": {"type": "Point", "coordinates": [118.723361, 32.2110607]}}, {"type": "Feature", "properties": {"osm_id": "node/12735844943", "power": "tower"}, "geometry": {"type": "Point", "coordinates": [118.7238997, 32.2103184]}}, {"type": "Feature", "properties": {"osm_id": "node/13063502562", "highway": "crossing"}, "geometry": {"type": "Point", "coordinates": [118.7237222, 32.2100439]}}, {"type": "Feature", "properties": {"osm_id": "node/13063502563", "highway": "crossing"}, "geometry": {"type": "Point", "coordinates": [118.7237509, 32.2101426]}}, {"type": "Feature", "properties": {"osm_id": "node/13063502572", "barrier": "lift_gate"}, "geometry": {"type": "Point", "coordinates": [118.7244126, 32.2112066]}}, {"type": "Feature", "properties": {"osm_id": "node/13063502587", "highway": "crossing"}, "geometry": {"type": "Point", "coordinates": [118.7237415, 32.2100444]}}, {"type": "Feature", "properties": {"osm_id": "node/13063502588", "highway": "crossing"}, "geometry": {"type": "Point", "coordinates": [118.7237682, 32.2101427]}}, {"type": "Feature", "properties": {"osm_id": "node/13732530565", "leisure": "pitch", "name": "东苑田径场", "sport": "running", "surface": "grass"}, "geometry": {"type": "Point", "coordinates": [118.7206177, 32.2086528]}}]}