{
  "type": "FeatureCollection",
  "features": [
    {
      "type": "Feature",
      "geometry": {
        "type": "Polygon",
        "coordinates": [
          [
            [
              118.71358893020154,
              32.207062702669
            ],
            [
              118.71359235836394,
              32.20704490391344
            ],
            [
              118.7131317984834,
              32.206980781437416
            ],
            [
              118.713128370321,
              32.20699858019298
            ],
            [
              118.71358893020154,
              32.207062702669
            ]
          ]
        ]
      },
      "properties": {
        "key": "north-corridor",
        "name": "北侧走廊",
        "kind": "corridor",
        "category": "corridor",
        "room_code": null,
        "level_index": 3,
        "building_id": "OSM-Way862952692",
        "estimated": true
      }
    },
    {
      "type": "Feature",
      "geometry": {
        "type": "Polygon",
        "coordinates": [
          [
            [
              118.7131129435902,
              32.207078674593006
            ],
            [
              118.71317207939161,
              32.206771646059565
            ],
            [
              118.71315114485158,
              32.20676873140157
            ],
            [
              118.71309200905019,
              32.20707575993501
            ],
            [
              118.7131129435902,
              32.207078674593006
            ]
          ]
        ]
      },
      "properties": {
        "key": "spine",
        "name": "南北连接走廊",
        "kind": "corridor",
        "category": "corridor",
        "room_code": null,
        "level_index": 3,
        "building_id": "OSM-Way862952692",
        "estimated": true
      }
    },
    {
      "type": "Feature",
      "geometry": {
        "type": "Polygon",
        "coordinates": [
          [
            [
              118.71348790296457,
              32.206833893349646
            ],
            [
              118.71349133112697,
              32.20681609459408
            ],
            [
              118.7129941358014,
              32.20674687146656
            ],
            [
              118.712990707639,
              32.20676467022212
            ],
            [
              118.71348790296457,
              32.206833893349646
            ]
          ]
        ]
      },
      "properties": {
        "key": "south-corridor",
        "name": "南侧走廊",
        "kind": "corridor",
        "category": "corridor",
        "room_code": null,
        "level_index": 3,
        "building_id": "OSM-Way862952692",
        "estimated": true
      }
    },
    {
      "type": "Feature",
      "geometry": {
        "type": "Polygon",
        "coordinates": [
          [
            [
              118.71309200905019,
              32.20707575993501
            ],
            [
              118.71312457659299,
              32.20690667175717
            ],
            [
              118.7129675675428,
              32.206884811822164
            ],
            [
              118.712935,
              32.2070539
            ],
            [
              118.71309200905019,
              32.20707575993501
            ]
          ]
        ]
      },
      "properties": {
        "key": "N415",
        "name": "N415",
        "kind": "room",
        "category": "classroom",
        "room_code": "N415",
        "level_index": 3,
        "building_id": "OSM-Way862952692",
        "estimated": true
      }
    },
    {
      "type": "Feature",
      "geometry": {
        "type": "Polygon",
        "coordinates": [
          [
            [
              118.71324378446536,
              32.207096891205516
            ],
            [
              118.71325921119616,
              32.20701679680548
            ],
            [
              118.713128370321,
              32.20699858019298
            ],
            [
              118.7131129435902,
              32.207078674593006
            ],
            [
              118.71324378446536,
              32.207096891205516
            ]
          ]
        ]
      },
      "properties": {
        "key": "N408-410",
        "name": "N408-410",
        "kind": "room",
        "category": "classroom",
        "room_code": "N408-410",
        "level_index": 3,
        "building_id": "OSM-Way862952692",
        "estimated": true
      }
    },
    {
      "type": "Feature",
      "geometry": {
        "type": "Polygon",
        "coordinates": [
          [
            [
              118.71339555988054,
              32.20711802247602
            ],
            [
              118.71341098661134,
              32.20703792807599
            ],
            [
              118.71325921119616,
              32.20701679680548
            ],
            [
              118.71324378446536,
              32.207096891205516
            ],
            [
              118.71339555988054,
              32.20711802247602
            ]
          ]
        ]
      },
      "properties": {
        "key": "N404-406",
        "name": "N404-406",
        "kind": "room",
        "category": "classroom",
        "room_code": "N404-406",
        "level_index": 3,
        "building_id": "OSM-Way862952692",
        "estimated": true
      }
    },
    {
      "type": "Feature",
      "geometry": {
        "type": "Polygon",
        "coordinates": [
          [
            [
              118.71326263935856,
              32.206998998049926
            ],
            [
              118.71327635200817,
              32.206927803027675
            ],
            [
              118.713145511133,
              32.20690958641517
            ],
            [
              118.7131317984834,
              32.206980781437416
            ],
            [
              118.71326263935856,
              32.206998998049926
            ]
          ]
        ]
      },
      "properties": {
        "key": "N409-411",
        "name": "N409-411",
        "kind": "room",
        "category": "classroom",
        "room_code": "N409-411",
        "level_index": 3,
        "building_id": "OSM-Way862952692",
        "estimated": true
      }
    },
    {
      "type": "Feature",
      "geometry": {
        "type": "Polygon",
        "coordinates": [
          [
            [
              118.71341441477374,
              32.20702012932043
            ],
            [
              118.71342812742334,
              32.20694893429818
            ],
            [
              118.71327635200817,
              32.206927803027675
            ],
            [
              118.71326263935856,
              32.206998998049926
            ],
            [
              118.71341441477374,
              32.20702012932043
            ]
          ]
        ]
      },
      "properties": {
        "key": "N405-407",
        "name": "N405-407",
        "kind": "room",
        "category": "classroom",
        "room_code": "N405-407",
        "level_index": 3,
        "building_id": "OSM-Way862952692",
        "estimated": true
      }
    },
    {
      "type": "Feature",
      "geometry": {
        "type": "Polygon",
        "coordinates": [
          [
            [
              118.71312457659299,
              32.20690667175717
            ],
            [
              118.71313743220198,
              32.20683992642381
            ],
            [
              118.71305892767688,
              32.20682899645631
            ],
            [
              118.7130460720679,
              32.206895741789666
            ],
            [
              118.71312457659299,
              32.20690667175717
            ]
          ]
        ]
      },
      "properties": {
        "key": "toilet-1",
        "name": "4F 卫生间1（性别未标注）",
        "kind": "facility",
        "category": "toilet",
        "room_code": null,
        "level_index": 3,
        "building_id": "OSM-Way862952692",
        "estimated": true
      }
    },
    {
      "type": "Feature",
      "geometry": {
        "type": "Polygon",
        "coordinates": [
          [
            [
              118.71313743220198,
              32.20683992642381
            ],
            [
              118.71314771668918,
              32.206786530157125
            ],
            [
              118.71306921216409,
              32.20677560018962
            ],
            [
              118.71305892767688,
              32.20682899645631
            ],
            [
              118.71313743220198,
              32.20683992642381
            ]
          ]
        ]
      },
      "properties": {
        "key": "toilet-2",
        "name": "4F 卫生间2（性别未标注）",
        "kind": "facility",
        "category": "toilet",
        "room_code": null,
        "level_index": 3,
        "building_id": "OSM-Way862952692",
        "estimated": true
      }
    },
    {
      "type": "Feature",
      "geometry": {
        "type": "Polygon",
        "coordinates": [
          [
            [
              118.71315114485158,
              32.20676873140157
            ],
            [
              118.71316914270417,
              32.206675287934864
            ],
            [
              118.71301213365399,
              32.20665342799986
            ],
            [
              118.7129941358014,
              32.20674687146656
            ],
            [
              118.71315114485158,
              32.20676873140157
            ]
          ]
        ]
      },
      "properties": {
        "key": "S405-406",
        "name": "S405-406",
        "kind": "room",
        "category": "classroom",
        "room_code": "S405-406",
        "level_index": 3,
        "building_id": "OSM-Way862952692",
        "estimated": true
      }
    },
    {
      "type": "Feature",
      "geometry": {
        "type": "Polygon",
        "coordinates": [
          [
            [
              118.71330292026676,
              32.206789862672075
            ],
            [
              118.71332091811935,
              32.20669641920537
            ],
            [
              118.71316914270417,
              32.206675287934864
            ],
            [
              118.71315114485158,
              32.20676873140157
            ],
            [
              118.71330292026676,
              32.206789862672075
            ]
          ]
        ]
      },
      "properties": {
        "key": "S403-404",
        "name": "S403-404",
        "kind": "room",
        "category": "classroom",
        "room_code": "S403-404",
        "level_index": 3,
        "building_id": "OSM-Way862952692",
        "estimated": true
      }
    },
    {
      "type": "Feature",
      "geometry": {
        "type": "Polygon",
        "coordinates": [
          [
            [
              118.71345469568193,
              32.20681099394258
            ],
            [
              118.71347269353453,
              32.20671755047588
            ],
            [
              118.71332091811935,
              32.20669641920537
            ],
            [
              118.71330292026676,
              32.206789862672075
            ],
            [
              118.71345469568193,
              32.20681099394258
            ]
          ]
        ]
      },
      "properties": {
        "key": "S401-402",
        "name": "S401-402",
        "kind": "room",
        "category": "classroom",
        "room_code": "S401-402",
        "level_index": 3,
        "building_id": "OSM-Way862952692",
        "estimated": true
      }
    },
    {
      "type": "Feature",
      "geometry": {
        "type": "Polygon",
        "coordinates": [
          [
            [
              118.7129487126496,
              32.206982704977754
            ],
            [
              118.71291207720456,
              32.20697760432625
            ],
            [
              118.71292150465116,
              32.206928657748456
            ],
            [
              118.71292188687234,
              32.20692714351874
            ],
            [
              118.7129224418222,
              32.206925668432916
            ],
            [
              118.71292316415628,
              32.206924246696865
            ],
            [
              118.71292404691809,
              32.20692289200268
            ],
            [
              118.71292508160617,
              32.206921617396816
            ],
            [
              118.71292625825589,
              32.206920435154416
            ],
            [
              118.7129275655355,
              32.20691935666112
            ],
            [
              118.71292899085513,
              32.206918392303415
            ],
            [
              118.71293052048823,
              32.20691755136858
            ],
            [
              118.71293213970357,
              32.2069168419553
            ],
            [
              118.71293383290721,
              32.20691627089558
            ],
            [
              118.71293558379269,
              32.206915843689075
            ],
            [
              118.71293737549803,
              32.206915564449986
            ],
            [
              118.71293919076811,
              32.20691543586755
            ],
            [
              118.71294101212091,
              32.20691545918009
            ],
            [
              118.71294282201578,
              32.20691563416309
            ],
            [
              118.71294460302246,
              32.206915959131365
            ],
            [
              118.71294633798888,
              32.206916430955296
            ],
            [
              118.71294801020636,
              32.20691704509096
            ],
            [
              118.71294960357055,
              32.206917795623895
            ],
            [
              118.71295110273645,
              32.20691867532606
            ],
            [
              118.7129524932663,
              32.20691967572544
            ],
            [
              118.71295376176853,
              32.20692078718764
            ],
            [
              118.71295489602676,
              32.20692199900868
            ],
            [
              118.71295588511747,
              32.20692329951805
            ],
            [
              118.71295671951518,
              32.20692467619114
            ],
            [
              118.71295739118418,
              32.20692611576984
            ],
            [
              118.71295789365594,
              32.20692760439021
            ],
            [
              118.71295822209136,
              32.20692912771602
            ],
            [
              118.71295837332744,
              32.206930671076826
            ],
            [
              118.7129583459077,
              32.20693221960921
            ],
            [
              118.7129581400962,
              32.206933758399956
            ],
            [
              118.7129487126496,
              32.206982704977754
            ]
          ]
        ]
      },
      "properties": {
        "key": "stairs-west",
        "name": "西侧楼梯",
        "kind": "facility",
        "category": "stair",
        "room_code": null,
        "level_index": 3,
        "building_id": "OSM-Way862952692",
        "estimated": true
      }
    },
    {
      "type": "Feature",
      "geometry": {
        "type": "Polygon",
        "coordinates": [
          [
            [
              118.7132368712671,
              32.20685377104932
            ],
            [
              118.7132471557543,
              32.20680037478263
            ],
            [
              118.71316865122921,
              32.20678944481513
            ],
            [
              118.71315836674201,
              32.206842841081816
            ],
            [
              118.7132368712671,
              32.20685377104932
            ]
          ]
        ]
      },
      "properties": {
        "key": "stairs-central",
        "name": "中部楼梯",
        "kind": "facility",
        "category": "stair",
        "room_code": null,
        "level_index": 3,
        "building_id": "OSM-Way862952692",
        "estimated": true
      }
    },
    {
      "type": "Feature",
      "geometry": {
        "type": "Polygon",
        "coordinates": [
          [
            [
              118.71349133112697,
              32.20681609459408
            ],
            [
              118.71345469568193,
              32.20681099394258
            ],
            [
              118.71346155200673,
              32.20677539643145
            ],
            [
              118.71346193422792,
              32.20677388220174
            ],
            [
              118.71346248917779,
              32.20677240711591
            ],
            [
              118.71346321151185,
              32.20677098537986
            ],
            [
              118.71346409427368,
              32.206769630685685
            ],
            [
              118.71346512896174,
              32.20676835607981
            ],
            [
              118.71346630561148,
              32.20676717383741
            ],
            [
              118.71346761289107,
              32.20676609534412
            ],
            [
              118.71346903821072,
              32.20676513098641
            ],
            [
              118.7134705678438,
              32.20676429005159
            ],
            [
              118.71347218705914,
              32.206763580638295
            ],
            [
              118.71347388026278,
              32.20676300957859
            ],
            [
              118.71347563114827,
              32.20676258237207
            ],
            [
              118.7134774228536,
              32.20676230313299
            ],
            [
              118.71347923812368,
              32.206762174550555
            ],
            [
              118.71348105947648,
              32.20676219786309
            ],
            [
              118.71348286937136,
              32.20676237284609
            ],
            [
              118.71348465037804,
              32.20676269781437
            ],
            [
              118.71348638534445,
              32.2067631696383
            ],
            [
              118.71348805756195,
              32.206763783773965
            ],
            [
              118.71348965092612,
              32.2067645343069
            ],
            [
              118.71349115009203,
              32.20676541400906
            ],
            [
              118.71349254062189,
              32.20676641440844
            ],
            [
              118.7134938091241,
              32.206767525870646
            ],
            [
              118.71349494338233,
              32.20676873769168
            ],
            [
              118.71349593247305,
              32.20677003820105
            ],
            [
              118.71349676687076,
              32.20677141487414
            ],
            [
              118.71349743853976,
              32.206772854452836
            ],
            [
              118.71349794101151,
              32.20677434307321
            ],
            [
              118.71349826944693,
              32.20677586639903
            ],
            [
              118.71349842068302,
              32.20677740975983
            ],
            [
              118.71349839326328,
              32.20677895829221
            ],
            [
              118.71349818745178,
              32.20678049708296
            ],
            [
              118.71349133112697,
              32.20681609459408
            ]
          ]
        ]
      },
      "properties": {
        "key": "stairs-southeast",
        "name": "东南楼梯",
        "kind": "facility",
        "category": "stair",
        "room_code": null,
        "level_index": 3,
        "building_id": "OSM-Way862952692",
        "estimated": true
      }
    },
    {
      "type": "Feature",
      "geometry": {
        "type": "Polygon",
        "coordinates": [
          [
            [
              118.71347902386641,
              32.207047400714494
            ],
            [
              118.71346359713561,
              32.20712749511453
            ],
            [
              118.71347185358259,
              32.20712841467083
            ],
            [
              118.7134801501287,
              32.20712888116423
            ],
            [
              118.71348844037631,
              32.2071288919859
            ],
            [
              118.71349667796297,
              32.20712844707533
            ],
            [
              118.71350481682074,
              32.20712754892063
            ],
            [
              118.71351281143387,
              32.20712620254465
            ],
            [
              118.71352061709321,
              32.207124415476876
            ],
            [
              118.71352819014635,
              32.20712219771131
            ],
            [
              118.71353548824172,
              32.207119561650586
            ],
            [
              118.71354247056539,
              32.20711652203665
            ],
            [
              118.71354909806938,
              32.20711309586824
            ],
            [
              118.71355533369001,
              32.207109302305874
            ],
            [
              118.71356114255515,
              32.20710516256471
            ],
            [
              118.71356649217927,
              32.20710069979584
            ],
            [
              118.7135713526451,
              32.20709593895689
            ],
            [
              118.71357569677096,
              32.2070909066724
            ],
            [
              118.71357950026272,
              32.207085631084944
            ],
            [
              118.71358274184972,
              32.20708014169775
            ],
            [
              118.71358540340367,
              32.2070744692097
            ],
            [
              118.71358747004011,
              32.20706864534364
            ],
            [
              118.71358893020154,
              32.207062702669
            ],
            [
              118.71347902386641,
              32.207047400714494
            ]
          ]
        ]
      },
      "properties": {
        "key": "N402",
        "name": "N402",
        "kind": "room",
        "category": "classroom",
        "room_code": "N402",
        "level_index": 3,
        "building_id": "OSM-Way862952692",
        "estimated": true
      }
    },
    {
      "type": "Feature",
      "geometry": {
        "type": "Polygon",
        "coordinates": [
          [
            [
              118.71360812967089,
              32.207034943248985
            ],
            [
              118.71360749654619,
              32.207036379147
            ],
            [
              118.71360664839561,
              32.2070377324999
            ],
            [
              118.71360559973122,
              32.207038980151445
            ],
            [
              118.71360436849598,
              32.207040100753964
            ],
            [
              118.71360297575666,
              32.207041075133645
            ],
            [
              118.71360144534341,
              32.207041886618576
            ],
            [
              118.71359980344204,
              32.20704252132403
            ],
            [
              118.7135980781459,
              32.20704296839001
            ],
            [
              118.71359629897533,
              32.20704322016711
            ],
            [
              118.71359449637241,
              32.207043272347335
            ],
            [
              118.71359270118019,
              32.20704312403788
            ],
            [
              118.71359235836394,
              32.20704490391344
            ],
            [
              118.71341441477374,
              32.20702012932043
            ],
            [
              118.71343155558574,
              32.206931135542625
            ],
            [
              118.71360949917594,
              32.20695591013563
            ],
            [
              118.7135971577913,
              32.207019985655656
            ],
            [
              118.7135989148566,
              32.20702033191717
            ],
            [
              118.71360060373111,
              32.20702087020613
            ],
            [
              118.71360219551771,
              32.207021591312255
            ],
            [
              118.71360366298047,
              32.20702248289721
            ],
            [
              118.71360498101073,
              32.207023529705744
            ],
            [
              118.71360612705661,
              32.20702471382666
            ],
            [
              118.71360708150894,
              32.20702601499933
            ],
            [
              118.71360782803679,
              32.20702741096033
            ],
            [
              118.71360835386685,
              32.20702887782437
            ],
            [
              118.71360865000203,
              32.207030390493
            ],
            [
              118.71360871137537,
              32.20703192308406
            ],
            [
              118.71360853693676,
              32.20703344937447
            ],
            [
              118.71360812967089,
              32.207034943248985
            ]
          ]
        ]
      },
      "properties": {
        "key": "N401-403",
        "name": "N401-403",
        "kind": "room",
        "category": "classroom",
        "room_code": "N401-403",
        "level_index": 3,
        "building_id": "OSM-Way862952692",
        "estimated": true
      }
    },
    {
      "type": "Feature",
      "geometry": {
        "type": "Polygon",
        "coordinates": [
          [
            [
              118.71346015117767,
              32.207128269299595
            ],
            [
              118.71345970721778,
              32.20712944936825
            ],
            [
              118.71345912935051,
              32.207130586757096
            ],
            [
              118.71345842314106,
              32.20713167051244
            ],
            [
              118.71345759539061,
              32.207132690197135
            ],
            [
              118.71345665407082,
              32.207133635991056
            ],
            [
              118.71345560824714,
              32.20713449878569
            ],
            [
              118.71345446799143,
              32.207135270271856
            ],
            [
              118.71345324428496,
              32.20713594301972
            ],
            [
              118.71345194891269,
              32.20713651055035
            ],
            [
              118.71345059434977,
              32.20713696739812
            ],
            [
              118.71344919364138,
              32.20713730916333
            ],
            [
              118.71344776027712,
              32.2071375325546
            ],
            [
              118.71344630806105,
              32.207137635420544
            ],
            [
              118.71344485097882,
              32.20713761677052
            ],
            [
              118.71344340306291,
              32.20713747678412
            ],
            [
              118.71344197825758,
              32.20713721680949
            ],
            [
              118.71344059028443,
              32.20713683935035
            ],
            [
              118.71343925251044,
              32.20713634804182
            ],
            [
              118.7134379778191,
              32.20713574761547
            ],
            [
              118.71343677848638,
              32.20713504385374
            ],
            [
              118.7134356660625,
              32.207134243534234
            ],
            [
              118.71343465126071,
              32.20713335436447
            ],
            [
              118.71343374385414,
              32.207132384907645
            ],
            [
              118.71343295258156,
              32.20713134450015
            ],
            [
              118.71343228506339,
              32.20713024316167
            ],
            [
              118.7134317477282,
              32.20712909149872
            ],
            [
              118.71343134575079,
              32.20712790060242
            ],
            [
              118.71343108300245,
              32.207126681941766
            ],
            [
              118.71343096201359,
              32.20712544725313
            ],
            [
              118.71343098394938,
              32.20712420842722
            ],
            [
              118.71343114859857,
              32.207122977394626
            ],
            [
              118.71339555988054,
              32.20711802247602
            ],
            [
              118.71341098661134,
              32.20703792807599
            ],
            [
              118.71347902386641,
              32.207047400714494
            ],
            [
              118.71346359713561,
              32.20712749511453
            ],
            [
              118.7134604569546,
              32.20712705791583
            ],
            [
              118.71346015117767,
              32.207128269299595
            ]
          ]
        ]
      },
      "properties": {
        "key": "stairs-northeast",
        "name": "东北楼梯（通至七层）",
        "kind": "facility",
        "category": "stair",
        "room_code": null,
        "level_index": 3,
        "building_id": "OSM-Way862952692",
        "estimated": true
      }
    },
    {
      "type": "Feature",
      "geometry": {
        "type": "Polygon",
        "coordinates": [
          [
            [
              118.71292046213199,
              32.206928490168806
            ],
            [
              118.71292086075054,
              32.20692691097832
            ],
            [
              118.71292144745007,
              32.206925351500225
            ],
            [
              118.71292221111015,
              32.20692384842413
            ],
            [
              118.71292314437633,
              32.2069224162255
            ],
            [
              118.71292423826075,
              32.20692106869718
            ],
            [
              118.7129254822287,
              32.206919818816594
            ],
            [
              118.71292686430007,
              32.20691867862079
            ],
            [
              118.71292837116478,
              32.206917659090465
            ],
            [
              118.71292998831089,
              32.206916770044266
            ],
            [
              118.7129317001644,
              32.20691602004419
            ],
            [
              118.71293349023922,
              32.20691541631314
            ],
            [
              118.71293534129596,
              32.20691496466539
            ],
            [
              118.71293723550794,
              32.20691466945053
            ],
            [
              118.71293915463283,
              32.20691453351167
            ],
            [
              118.71294108018844,
              32.20691455815796
            ],
            [
              118.71294299363062,
              32.20691474315205
            ],
            [
              118.71294487653185,
              32.206915086712335
            ],
            [
              118.71294671075877,
              32.20691558553015
            ],
            [
              118.71294847864678,
              32.206916234801604
            ],
            [
              118.71295016317015,
              32.20691702827386
            ],
            [
              118.712951748106,
              32.20691795830534
            ],
            [
              118.7129532181905,
              32.20691901593934
            ],
            [
              118.712954559266,
              32.20692019099026
            ],
            [
              118.71295575841715,
              32.20692147214173
            ],
            [
              118.7129568040955,
              32.206922847055544
            ],
            [
              118.71295768623058,
              32.20692430249054
            ],
            [
              118.71295839632695,
              32.20692582443009
            ],
            [
              118.71295852182554,
              32.20692619623159
            ],
            [
              118.71296669222392,
              32.206883776151486
            ],
            [
              118.71304519674901,
              32.20689470611899
            ],
            [
              118.71305788094989,
              32.20682885072341
            ],
            [
              118.71306799402898,
              32.2067763443945
            ],
            [
              118.71298948950388,
              32.206765414427
            ],
            [
              118.7129930890744,
              32.20674672573366
            ],
            [
              118.71301125833511,
              32.20665239232918
            ],
            [
              118.71316931411229,
              32.20667439799709
            ],
            [
              118.71332108952748,
              32.2066955292676
            ],
            [
              118.71347391166965,
              32.206716806271004
            ],
            [
              118.71346402719007,
              32.20676812572889
            ],
            [
              118.71346428561633,
              32.206767807380174
            ],
            [
              118.71346552958427,
              32.20676655749959
            ],
            [
              118.71346691165564,
              32.206765417303785
            ],
            [
              118.71346841852035,
              32.20676439777347
            ],
            [
              118.71347003566646,
              32.20676350872727
            ],
            [
              118.71347174751997,
              32.20676275872719
            ],
            [
              118.7134735375948,
              32.20676215499614
            ],
            [
              118.71347538865155,
              32.206761703348384
            ],
            [
              118.71347728286351,
              32.20676140813354
            ],
            [
              118.71347920198842,
              32.206761272194676
            ],
            [
              118.71348112754403,
              32.206761296840966
            ],
            [
              118.71348304098619,
              32.20676148183505
            ],
            [
              118.71348492388742,
              32.20676182539534
            ],
            [
              118.71348675811434,
              32.20676232421315
            ],
            [
              118.71348852600235,
              32.20676297348461
            ],
            [
              118.71349021052572,
              32.20676376695686
            ],
            [
              118.71349179546156,
              32.206764696988344
            ],
            [
              118.71349326554609,
              32.20676575462234
            ],
            [
              118.71349460662157,
              32.206766929673265
            ],
            [
              118.71349580577272,
              32.20676821082473
            ],
            [
              118.71349685145107,
              32.20676958573855
            ],
            [
              118.71349773358615,
              32.206771041173546
            ],
            [
              118.71349844368252,
              32.206772563113084
            ],
            [
              118.71349897490157,
              32.206774136900066
            ],
            [
              118.71349932212738,
              32.206775747378046
            ],
            [
              118.71349948201595,
              32.206777379037256
            ],
            [
              118.71349945302747,
              32.20677901616392
            ],
            [
              118.71349923838662,
              32.20678062096911
            ],
            [
              118.71349237785398,
              32.20681624032698
            ],
            [
              118.71348877828346,
              32.206834929020324
            ],
            [
              118.71324803107318,
              32.20680141045331
            ],
            [
              118.71323791799409,
              32.206853916782215
            ],
            [
              118.71323789615289,
              32.20685400330963
            ],
            [
              118.71323786444147,
              32.20685408760025
            ],
            [
              118.71323782316523,
              32.206854168842305
            ],
            [
              118.7132377727217,
              32.20685424625341
            ],
            [
              118.71323771359667,
              32.20685431908802
            ],
            [
              118.71323764635954,
              32.206854386644736
            ],
            [
              118.71323757165786,
              32.20685444827292
            ],
            [
              118.71323749021101,
              32.20685450337908
            ],
            [
              118.71323740280341,
              32.20685455143249
            ],
            [
              118.71323731027682,
              32.2068545919704
            ],
            [
              118.71323721352232,
              32.20685462460238
            ],
            [
              118.71323711347172,
              32.20685464901418
            ],
            [
              118.71323701108857,
              32.2068546649707
            ],
            [
              118.71323690735885,
              32.20685467231827
            ],
            [
              118.71323680328155,
              32.206854670986125
            ],
            [
              118.71323669985898,
              32.2068546609871
            ],
            [
              118.71315924206088,
              32.206843876752494
            ],
            [
              118.71314672926813,
              32.20690884221029
            ],
            [
              118.71327652341628,
              32.2069269130899
            ],
            [
              118.71342725210445,
              32.206947898627504
            ],
            [
              118.71343068026685,
              32.20693009987195
            ],
            [
              118.71361071731107,
              32.20695516593075
            ],
            [
              118.71359836505953,
              32.207019297870865
            ],
            [
              118.71359922208138,
              32.20701946676253
            ],
            [
              118.71360104114807,
              32.20702004654718
            ],
            [
              118.71360275564251,
              32.207020823242026
            ],
            [
              118.71360433622924,
              32.2070217835576
            ],
            [
              118.71360575586398,
              32.20702291106264
            ],
            [
              118.71360699025638,
              32.207024186465226
            ],
            [
              118.71360801828567,
              32.20702558794286
            ],
            [
              118.71360882236195,
              32.207027091515876
            ],
            [
              118.71360938872726,
              32.20702867145772
            ],
            [
              118.71360970769095,
              32.207030300735155
            ],
            [
              118.71360977379545,
              32.20703195147078
            ],
            [
              118.7136095859097,
              32.207033595420064
            ],
            [
              118.71360916294614,
              32.207035146874574
            ],
            [
              118.71360915820013,
              32.20703516107518
            ],
            [
              118.71360915455668,
              32.2070351755093
            ],
            [
              118.71360914398244,
              32.2070352036162
            ],
            [
              118.7136091344955,
              32.20703523200221
            ],
            [
              118.71360912813522,
              32.207035245738936
            ],
            [
              118.71360912284526,
              32.207035259799916
            ],
            [
              118.71360846531736,
              32.207036751043276
            ],
            [
              118.71360755178443,
              32.20703820872362
            ],
            [
              118.71360642228048,
              32.207039552554285
            ],
            [
              118.71360509613162,
              32.207040759541954
            ],
            [
              118.71360359602863,
              32.20704180903474
            ],
            [
              118.71360194763868,
              32.20704268307553
            ],
            [
              118.71360017916619,
              32.207043366709236
            ],
            [
              118.71359832087022,
              32.2070438482387
            ],
            [
              118.71359640454672,
              32.20704411942482
            ],
            [
              118.71359446298452,
              32.20704417562752
            ],
            [
              118.71359358736596,
              32.207044103288474
            ],
            [
              118.71359340509095,
              32.20704504964634
            ],
            [
              118.71358997692855,
              32.207062848401904
            ],
            [
              118.71358997207238,
              32.20706286764033
            ],
            [
              118.71358996845717,
              32.20706288707525
            ],
            [
              118.71358849884653,
              32.207068868206946
            ],
            [
              118.71358640559538,
              32.20707476707439
            ],
            [
              118.7135837101668,
              32.20708051175836
            ],
            [
              118.71358042802585,
              32.207086069820676
            ],
            [
              118.71357657798701,
              32.2070914099707
            ],
            [
              118.71357218207133,
              32.20709650224911
            ],
            [
              118.71356726534665,
              32.20710131819375
            ],
            [
              118.71356185575567,
              32.207105830988226
            ],
            [
              118.71355598393514,
              32.20711001559514
            ],
            [
              118.71354968302796,
              32.20711384887585
            ],
            [
              118.71354298848932,
              32.20711730969863
            ],
            [
              118.71353593788636,
              32.20712037903659
            ],
            [
              118.71352857069145,
              32.207123040055954
            ],
            [
              118.71352092806852,
              32.20712527819501
            ],
            [
              118.71351305265216,
              32.20712708123331
            ],
            [
              118.71350498831984,
              32.20712843935073
            ],
            [
              118.71349677995732,
              32.207129345175545
            ],
            [
              118.71348847321859,
              32.20712979382101
            ],
            [
              118.71348011428074,
              32.207129782909675
            ],
            [
              118.71347174959566,
              32.207129312584996
            ],
            [
              118.71346345936898,
              32.2071283892665
            ],
            [
              118.7134634426302,
              32.20712838668648
            ],
            [
              118.7134634257275,
              32.2071283850523
            ],
            [
              118.71346128211344,
              32.20712808660286
            ],
            [
              118.71346118823324,
              32.20712845852413
            ],
            [
              118.71346118823324,
              32.20712845852413
            ],
            [
              118.71346116142463,
              32.20712854403615
            ],
            [
              118.71346070158991,
              32.207129766300945
            ],
            [
              118.71346008239664,
              32.20713098502983
            ],
            [
              118.71345932568282,
              32.207132146289624
            ],
            [
              118.71345843873603,
              32.20713323889677
            ],
            [
              118.71345743009803,
              32.20713425232888
            ],
            [
              118.71345630948257,
              32.20713517682603
            ],
            [
              118.7134550876818,
              32.207136003484806
            ],
            [
              118.7134537764623,
              32.20713672434404
            ],
            [
              118.71345238845186,
              32.20713733246146
            ],
            [
              118.71345093701775,
              32.20713782198057
            ],
            [
              118.7134494361381,
              32.20713818818702
            ],
            [
              118.71344790026721,
              32.20713842755405
            ],
            [
              118.71344634419633,
              32.20713853777642
            ],
            [
              118.71344478291127,
              32.20713851779264
            ],
            [
              118.71344323144808,
              32.20713836779515
            ],
            [
              118.71344170474819,
              32.20713808922852
            ],
            [
              118.71344021751455,
              32.207137684775496
            ],
            [
              118.71343878407004,
              32.20713715833118
            ],
            [
              118.7134374182195,
              32.20713651496551
            ],
            [
              118.71343613311684,
              32.20713576087446
            ],
            [
              118.71343494113829,
              32.20713490332034
            ],
            [
              118.71343385376325,
              32.207133950561854
            ],
            [
              118.71343288146375,
              32.20713291177459
            ],
            [
              118.71343203360354,
              32.207131796962656
            ],
            [
              118.713431318348,
              32.20713061686227
            ],
            [
              118.71343074258543,
              32.207129382838474
            ],
            [
              118.71343031186073,
              32.20712810677556
            ],
            [
              118.71343003032202,
              32.20712680096275
            ],
            [
              118.71342990068067,
              32.207125477975694
            ],
            [
              118.71342992418519,
              32.20712415055551
            ],
            [
              118.71342998062352,
              32.20712372858315
            ],
            [
              118.71339538847242,
              32.2071189124138
            ],
            [
              118.71324361305724,
              32.20709778114329
            ],
            [
              118.71311277218209,
              32.20707956453079
            ],
            [
              118.71309183764207,
              32.20707664987278
            ],
            [
              118.71293378186488,
              32.207054644204874
            ],
            [
              118.71294749451448,
              32.20698344918263
            ],
            [
              118.71291085906944,
              32.20697834853113
            ],
            [
              118.71292046213199,
              32.206928490168806
            ]
          ],
          [
            [
              118.71295455880396,
              32.206957932452866
            ],
            [
              118.71295246534996,
              32.20695764098706
            ],
            [
              118.71295708916136,
              32.2069336345138
            ],
            [
              118.7129572861435,
              32.2069321617375
            ],
            [
              118.71295731199451,
              32.2069307017994
            ],
            [
              118.71295716941091,
              32.206929246737
            ],
            [
              118.71295685976587,
              32.20692781056335
            ],
            [
              118.71295638604141,
              32.20692640710959
            ],
            [
              118.71295575279979,
              32.20692504989174
            ],
            [
              118.71295496613945,
              32.206923751980554
            ],
            [
              118.71295403363636,
              32.206922525875626
            ],
            [
              118.71295296427105,
              32.20692138338502
            ],
            [
              118.7129517683421,
              32.20692033551154
            ],
            [
              118.71295045736692,
              32.20691939234678
            ],
            [
              118.71294904397095,
              32.20691856297393
            ],
            [
              118.71294754176596,
              32.20691785538032
            ],
            [
              118.71294596521899,
              32.206917276380445
            ],
            [
              118.71294432951308,
              32.206916831550394
            ],
            [
              118.71294265040095,
              32.20691652517413
            ],
            [
              118.71294094405336,
              32.206916360202214
            ],
            [
              118.71293922690339,
              32.20691633822343
            ],
            [
              118.71293751548812,
              32.20691645944944
            ],
            [
              118.71293582628942,
              32.20691672271276
            ],
            [
              118.7129341755752,
              32.20691712547803
            ],
            [
              118.71293257924273,
              32.206917663866406
            ],
            [
              118.71293105266557,
              32.2069183326929
            ],
            [
              118.7129296105455,
              32.20691912551636
            ],
            [
              118.71292826677092,
              32.206920034701454
            ],
            [
              118.7129270342831,
              32.20692105149224
            ],
            [
              118.71292592495159,
              32.206922166096454
            ],
            [
              118.71292494945985,
              32.206923367779865
            ],
            [
              118.7129241172024,
              32.20692464496959
            ],
            [
              118.71292343619433,
              32.2069259853656
            ],
            [
              118.71292291299415,
              32.206927376059156
            ],
            [
              118.71292254717032,
              32.2069288253281
            ],
            [
              118.71291329533967,
              32.20697686012137
            ],
            [
              118.71294783733072,
              32.206981669307076
            ],
            [
              118.71294972282004,
              32.206971879991514
            ],
            [
              118.71295181627404,
              32.206972171457316
            ],
            [
              118.7129497593766,
              32.20698285071065
            ],
            [
              118.71293621813513,
              32.20705315579512
            ],
            [
              118.7130911337313,
              32.20707472426433
            ],
            [
              118.71309224788408,
              32.20706893966877
            ],
            [
              118.71309434133809,
              32.20706923113457
            ],
            [
              118.71309322718531,
              32.207075015730126
            ],
            [
              118.71311206827133,
              32.20707763892233
            ],
            [
              118.71312732359401,
              32.206998434460075
            ],
            [
              118.71312734543521,
              32.20699834793267
            ],
            [
              118.71312737714663,
              32.20699826364205
            ],
            [
              118.71312741842287,
              32.206998182399985
            ],
            [
              118.7131274688664,
              32.20699810498889
            ],
            [
              118.71312752799143,
              32.20699803215427
            ],
            [
              118.71312759522856,
              32.20699796459756
            ],
            [
              118.71312766993026,
              32.20699790296938
            ],
            [
              118.71312775137709,
              32.20699784786322
            ],
            [
              118.7131278387847,
              32.2069977998098
            ],
            [
              118.71312793131129,
              32.2069977592719
            ],
            [
              118.71312802806578,
              32.20699772663991
            ],
            [
              118.71312812811638,
              32.206997702228115
            ],
            [
              118.71312823049954,
              32.20699768627159
            ],
            [
              118.71312833422927,
              32.206997678924026
            ],
            [
              118.71312843830657,
              32.20699768025617
            ],
            [
              118.71312854172913,
              32.2069976902552
            ],
            [
              118.71313429872764,
              32.20699849178615
            ],
            [
              118.71313395591139,
              32.207000271661705
            ],
            [
              118.71312924563989,
              32.20699961586366
            ],
            [
              118.71311416172533,
              32.20707793038813
            ],
            [
              118.71324290914649,
              32.20709585553484
            ],
            [
              118.71325799306103,
              32.207017541010366
            ],
            [
              118.71325328278954,
              32.20701688521231
            ],
            [
              118.71325362560577,
              32.20701510533676
            ],
            [
              118.71325938260428,
              32.20701590686771
            ],
            [
              118.71326513960278,
              32.207016708398655
            ],
            [
              118.71326479678655,
              32.207018488274215
            ],
            [
              118.71326008651504,
              32.20701783247616
            ],
            [
              118.71324500260049,
              32.207096147000634
            ],
            [
              118.71339468456166,
              32.20711698680534
            ],
            [
              118.71340976847621,
              32.20703867228087
            ],
            [
              118.7134040114777,
              32.20703787074992
            ],
            [
              118.71340435429394,
              32.20703609087436
            ],
            [
              118.71341115801945,
              32.20703703813822
            ],
            [
              118.71343209255949,
              32.207039952796215
            ],
            [
              118.71343174974324,
              32.20704173267177
            ],
            [
              118.71341186193023,
              32.20703896374667
            ],
            [
              118.71339677801566,
              32.20711727827114
            ],
            [
              118.71343231657364,
              32.207122226206096
            ],
            [
              118.71343204371357,
              32.207124266298926
            ],
            [
              118.71343202334651,
              32.20712541653055
            ],
            [
              118.7134321356829,
              32.20712656292079
            ],
            [
              118.71343237964086,
              32.207127694429275
            ],
            [
              118.71343275287096,
              32.20712880015896
            ],
            [
              118.7134332517788,
              32.20712986946108
            ],
            [
              118.71343387155959,
              32.20713089203764
            ],
            [
              118.71343460624452,
              32.2071318580407
            ],
            [
              118.71343544875819,
              32.2071327581671
            ],
            [
              118.71343639098671,
              32.20713358374814
            ],
            [
              118.71343742385591,
              32.20713432683302
            ],
            [
              118.7134385374187,
              32.20713498026543
            ],
            [
              118.71343972095086,
              32.207135537752464
            ],
            [
              118.71344096305432,
              32.207135993925206
            ],
            [
              118.71344225176695,
              32.20713634439046
            ],
            [
              118.71344357467775,
              32.20713658577308
            ],
            [
              118.71344491904637,
              32.20713671574839
            ],
            [
              118.71344627192578,
              32.207136733064665
            ],
            [
              118.71344762028703,
              32.20713663755515
            ],
            [
              118.71344895114466,
              32.20713643013964
            ],
            [
              118.71345025168179,
              32.207136112815675
            ],
            [
              118.71345150937353,
              32.20713568863924
            ],
            [
              118.71345271210761,
              32.207135161695405
            ],
            [
              118.71345384830107,
              32.20713453705891
            ],
            [
              118.71345490701172,
              32.207133820745355
            ],
            [
              118.71345587804362,
              32.207133019653234
            ],
            [
              118.71345675204519,
              32.207132141497496
            ],
            [
              118.7134575205993,
              32.20713119473526
            ],
            [
              118.7134581763044,
              32.20713018848437
            ],
            [
              118.71345871284564,
              32.20712913243557
            ],
            [
              118.71345912505586,
              32.20712803675918
            ],
            [
              118.71345963179579,
              32.20712602922879
            ],
            [
              118.71346272181674,
              32.20712645944385
            ],
            [
              118.7134778057313,
              32.207048144919376
            ],
            [
              118.71345791791828,
              32.20704537599427
            ],
            [
              118.71345826073451,
              32.207043596118716
            ],
            [
              118.71347919527453,
              32.20704651077672
            ],
            [
              118.71348390554604,
              32.20704716657477
            ],
            [
              118.7134835627298,
              32.20704894645032
            ],
            [
              118.7134798991853,
              32.20704843638517
            ],
            [
              118.71346482085627,
              32.20712672190996
            ],
            [
              118.71347195756954,
              32.207127516756664
            ],
            [
              118.71348018597668,
              32.20712797941878
            ],
            [
              118.71348840753403,
              32.20712799015079
            ],
            [
              118.7134965759686,
              32.20712754897511
            ],
            [
              118.71350464532166,
              32.20712665849053
            ],
            [
              118.71351257021557,
              32.20712532385599
            ],
            [
              118.71352030611791,
              32.20712355275874
            ],
            [
              118.71352780960126,
              32.20712135536665
            ],
            [
              118.71353503859707,
              32.20711874426459
            ],
            [
              118.71354195264145,
              32.20711573437467
            ],
            [
              118.71354851311081,
              32.207112342860626
            ],
            [
              118.7135546834449,
              32.20710858901661
            ],
            [
              118.71356042935463,
              32.207104494141184
            ],
            [
              118.7135657190119,
              32.20710008139793
            ],
            [
              118.71357052321889,
              32.207095375664665
            ],
            [
              118.71357481555492,
              32.2070904033741
            ],
            [
              118.71357857249959,
              32.20708519234921
            ],
            [
              118.71358177353262,
              32.20707977163715
            ],
            [
              118.71358440121197,
              32.20707417134501
            ],
            [
              118.71358644123367,
              32.20706842248034
            ],
            [
              118.71358766537617,
              32.207063440373325
            ],
            [
              118.71349926363482,
              32.20705113244382
            ],
            [
              118.71349960645107,
              32.20704935256827
            ],
            [
              118.71358805488266,
              32.20706166699832
            ],
            [
              118.71359114022883,
              32.20704564811832
            ],
            [
              118.71358642995732,
              32.20704499232027
            ],
            [
              118.71358677277355,
              32.20704321244471
            ],
            [
              118.71359148304506,
              32.20704386824276
            ],
            [
              118.7135918149944,
              32.207042144787295
            ],
            [
              118.71359452976031,
              32.207042369067146
            ],
            [
              118.71359619340394,
              32.207042320909395
            ],
            [
              118.71359783542158,
              32.20704208854132
            ],
            [
              118.71359942771787,
              32.20704167593882
            ],
            [
              118.71360094304814,
              32.207041090161624
            ],
            [
              118.7136023554847,
              32.20704034123254
            ],
            [
              118.71360364086036,
              32.20703944196597
            ],
            [
              118.71360477718197,
              32.2070384077486
            ],
            [
              118.71360574500677,
              32.20703725627618
            ],
            [
              118.71360652777503,
              32.20703600725072
            ],
            [
              118.71360711209333,
              32.2070346820434
            ],
            [
              118.71360748796383,
              32.20703330332887
            ],
            [
              118.71360764895529,
              32.20703189469734
            ],
            [
              118.71360759231311,
              32.20703048025086
            ],
            [
              118.71360731900643,
              32.207029084191014
            ],
            [
              118.71360683371162,
              32.207027730404775
            ],
            [
              118.71360614473221,
              32.207026442055806
            ],
            [
              118.71360526385682,
              32.2070252411881
            ],
            [
              118.71360420615748,
              32.20702414834884
            ],
            [
              118.71360298973171,
              32.207023182236824
            ],
            [
              118.7136016353929,
              32.207022359382485
            ],
            [
              118.71360016631415,
              32.20702169386508
            ],
            [
              118.71359860763182,
              32.20702119707181
            ],
            [
              118.71359595052309,
              32.20702067344044
            ],
            [
              118.71360828104082,
              32.20695665434051
            ],
            [
              118.71343243090462,
              32.2069321712133
            ],
            [
              118.71342917415033,
              32.20694908003108
            ],
            [
              118.71341563290886,
              32.20701938511555
            ],
            [
              118.71344075435688,
              32.207022882705154
            ],
            [
              118.71344041154065,
              32.20702466258071
            ],
            [
              118.71341424336562,
              32.20702101925821
            ],
            [
              118.71340743964011,
              32.20702007199436
            ],
            [
              118.71340778245634,
              32.2070182921188
            ],
            [
              118.71341353945486,
              32.207019093649755
            ],
            [
              118.71342690928822,
              32.206949678503065
            ],
            [
              118.71327722732704,
              32.20692883869835
            ],
            [
              118.71326385749369,
              32.20699825384504
            ],
            [
              118.71326856776518,
              32.2069989096431
            ],
            [
              118.71326822494895,
              32.20700068951865
            ],
            [
              118.71326246795044,
              32.2069998879877
            ],
            [
              118.71325671095194,
              32.206999086456754
            ],
            [
              118.71325705376817,
              32.206997306581194
            ],
            [
              118.71326176403969,
              32.20699796237925
            ],
            [
              118.71327513387304,
              32.20692854723256
            ],
            [
              118.71314638645188,
              32.20691062208585
            ],
            [
              118.71313301661853,
              32.20698003723254
            ],
            [
              118.71313772689004,
              32.20698069303059
            ],
            [
              118.71313738407379,
              32.20698247290615
            ],
            [
              118.71313162707528,
              32.206981671375196
            ],
            [
              118.71313152530348,
              32.20698165280558
            ],
            [
              118.71313142616253,
              32.206981625844215
            ],
            [
              118.71313133060725,
              32.20698159075074
            ],
            [
              118.71313123955787,
              32.20698154786315
            ],
            [
              118.71313115389125,
              32.206981497594455
            ],
            [
              118.7131310744324,
              32.20698144042878
            ],
            [
              118.71313100194656,
              32.20698137691665
            ],
            [
              118.71313093713181,
              32.206981307669736
            ],
            [
              118.71313088061234,
              32.20698123335491
            ],
            [
              118.71313083293246,
              32.20698115468788
            ],
            [
              118.71313079455138,
              32.20698107242624
            ],
            [
              118.71313076583871,
              32.206980987362215
            ],
            [
              118.71313074707096,
              32.206980900315024
            ],
            [
              118.7131307384289,
              32.20698081212298
            ],
            [
              118.71313073999575,
              32.20698072363542
            ],
            [
              118.71313075175641,
              32.20698063570452
            ],
            [
              118.713144464406,
              32.20690944068227
            ],
            [
              118.713157320015,
              32.20684269534891
            ],
            [
              118.7131676045022,
              32.206789299082224
            ],
            [
              118.71316762634342,
              32.20678921255482
            ],
            [
              118.71316765805483,
              32.2067891282642
            ],
            [
              118.71316769933107,
              32.206789047022134
            ],
            [
              118.7131677497746,
              32.20678896961104
            ],
            [
              118.71316780889963,
              32.20678889677642
            ],
            [
              118.71316787613677,
              32.20678882921971
            ],
            [
              118.71316795083845,
              32.206788767591526
            ],
            [
              118.71316803228528,
              32.20678871248537
            ],
            [
              118.7131681196929,
              32.20678866443195
            ],
            [
              118.71316821221949,
              32.20678862389405
            ],
            [
              118.71316830897398,
              32.20678859126206
            ],
            [
              118.71316840902458,
              32.206788566850264
            ],
            [
              118.71316851140774,
              32.20678855089374
            ],
            [
              118.71316861513746,
              32.206788543546175
            ],
            [
              118.71316871921476,
              32.20678854487832
            ],
            [
              118.71316882263733,
              32.20678855487735
            ],
            [
              118.71319970108387,
              32.206792853997904
            ],
            [
              118.71319935826762,
              32.20679463387346
            ],
            [
              118.71316952654809,
              32.20679048048581
            ],
            [
              118.71315958487713,
              32.20684209687693
            ],
            [
              118.71323599594821,
              32.20685273537864
            ],
            [
              118.71324593761918,
              32.20680111898751
            ],
            [
              118.71321610589965,
              32.20679696559986
            ],
            [
              118.71321644871588,
              32.2067951857243
            ],
            [
              118.71324732716242,
              32.20679948484485
            ],
            [
              118.7134870276457,
              32.20683285767897
            ],
            [
              118.71349011299185,
              32.20681683879896
            ],
            [
              118.71348121581235,
              32.20681560006931
            ],
            [
              118.71348155862859,
              32.20681382019375
            ],
            [
              118.7134904558081,
              32.206815058923404
            ],
            [
              118.71349713651695,
              32.20678037319681
            ],
            [
              118.71349733349909,
              32.2067789004205
            ],
            [
              118.7134973593501,
              32.2067774404824
            ],
            [
              118.7134972167665,
              32.20677598542
            ],
            [
              118.71349690712144,
              32.206774549246354
            ],
            [
              118.713496433397,
              32.20677314579259
            ],
            [
              118.71349580015537,
              32.20677178857474
            ],
            [
              118.71349501349502,
              32.20677049066356
            ],
            [
              118.71349408099195,
              32.20676926455863
            ],
            [
              118.71349301162664,
              32.20676812206802
            ],
            [
              118.71349181569767,
              32.20676707419454
            ],
            [
              118.7134905047225,
              32.20676613102978
            ],
            [
              118.71348909132652,
              32.20676530165694
            ],
            [
              118.71348758912153,
              32.20676459406332
            ],
            [
              118.71348601257458,
              32.20676401506344
            ],
            [
              118.71348437686865,
              32.2067635702334
            ],
            [
              118.71348269775652,
              32.206763263857134
            ],
            [
              118.71348099140893,
              32.20676309888522
            ],
            [
              118.71347927425896,
              32.206763076906434
            ],
            [
              118.71347756284369,
              32.206763198132435
            ],
            [
              118.713475873645,
              32.20676346139576
            ],
            [
              118.71347422293077,
              32.20676386416103
            ],
            [
              118.7134726265983,
              32.2067644025494
            ],
            [
              118.71347110002115,
              32.206765071375905
            ],
            [
              118.71346965790107,
              32.20676586419936
            ],
            [
              118.71346831412649,
              32.20676677338446
            ],
            [
              118.71346708163868,
              32.20676779017524
            ],
            [
              118.71346597230716,
              32.20676890477946
            ],
            [
              118.71346499681543,
              32.20677010646286
            ],
            [
              118.71346416455798,
              32.206771383652594
            ],
            [
              118.71346348354992,
              32.206772724048605
            ],
            [
              118.71346296034972,
              32.20677411474216
            ],
            [
              118.71346259452591,
              32.2067755640111
            ],
            [
              118.71345591381706,
              32.2068102497377
            ],
            [
              118.71346481099657,
              32.20681148846735
            ],
            [
              118.71346446818032,
              32.206813268342906
            ],
            [
              118.71345452427381,
              32.206811883880356
            ],
            [
              118.7134477205483,
              32.206810936616506
            ],
            [
              118.71344806336455,
              32.20680915674095
            ],
            [
              118.71345382036306,
              32.206809958271904
            ],
            [
              118.71346050527973,
              32.206775250698556
            ],
            [
              118.71347147539942,
              32.20671829468076
            ],
            [
              118.71332179343824,
              32.20669745487605
            ],
            [
              118.71330413840188,
              32.20678911846719
            ],
            [
              118.71330884867338,
              32.206789774265246
            ],
            [
              118.71330850585714,
              32.2067915541408
            ],
            [
              118.71330274885864,
              32.20679075260985
            ],
            [
              118.71329489840613,
              32.2067896596131
            ],
            [
              118.71329524122237,
              32.20678787973755
            ],
            [
              118.71330204494788,
              32.2067888270014
            ],
            [
              118.71331969998424,
              32.206697163410254
            ],
            [
              118.71317001802306,
              32.20667632360554
            ],
            [
              118.7131523629867,
              32.206767987196685
            ],
            [
              118.71317225079973,
              32.20677075612179
            ],
            [
              118.71317696107123,
              32.20677141191984
            ],
            [
              118.71317661825499,
              32.20677319179539
            ],
            [
              118.71317190798348,
              32.206772535997345
            ],
            [
              118.71315097344346,
              32.20676962133934
            ],
            [
              118.71314416971795,
              32.20676867407549
            ],
            [
              118.7131445125342,
              32.20676689419994
            ],
            [
              118.7131502695327,
              32.20676769573089
            ],
            [
              118.71316792456906,
              32.20667603213975
            ],
            [
              118.71301300897288,
              32.20665446367054
            ],
            [
              118.71299535393652,
              32.20674612726168
            ],
            [
              118.71300215766203,
              32.20674707452553
            ],
            [
              118.71300181484578,
              32.206748854401084
            ],
            [
              118.71299501112028,
              32.206747907137235
            ],
            [
              118.71299192577412,
              32.20676392601724
            ],
            [
              118.7130693835722,
              32.20677471025184
            ],
            [
              118.7131478880973,
              32.20678564021935
            ],
            [
              118.71314798986911,
              32.20678565878897
            ],
            [
              118.71314808901005,
              32.20678568575033
            ],
            [
              118.71314818456534,
              32.2067857208438
            ],
            [
              118.71314827561471,
              32.206785763731396
            ],
            [
              118.71314836128134,
              32.20678581400009
            ],
            [
              118.71314844074018,
              32.20678587116577
            ],
            [
              118.71314851322603,
              32.206785934677896
            ],
            [
              118.71314857804079,
              32.20678600392481
            ],
            [
              118.71314863456026,
              32.20678607823963
            ],
            [
              118.71314868224012,
              32.20678615690667
            ],
            [
              118.7131487206212,
              32.20678623916831
            ],
            [
              118.71314874933388,
              32.206786324232326
            ],
            [
              118.71314876810162,
              32.206786411279516
            ],
            [
              118.71314877674368,
              32.20678649947156
            ],
            [
              118.71314877517683,
              32.20678658795913
            ],
            [
              118.71314876341619,
              32.20678667589003
            ],
            [
              118.7131480777837,
              32.20679023564114
            ],
            [
              118.7131459843297,
              32.20678994417534
            ],
            [
              118.71314649855405,
              32.20678727436201
            ],
            [
              118.71307008748298,
              32.2067766358603
            ],
            [
              118.71306014581201,
              32.206828252251434
            ],
            [
              118.7131365568831,
              32.20683889075313
            ],
            [
              118.71314392743226,
              32.20680062342868
            ],
            [
              118.71314602088626,
              32.20680091489448
            ],
            [
              118.71313847892898,
              32.206840072156716
            ],
            [
              118.7131377932965,
              32.20684363190782
            ],
            [
              118.7131356998425,
              32.20684334044203
            ],
            [
              118.71313621406686,
              32.206840670628694
            ],
            [
              118.71305980299577,
              32.20683003212699
            ],
            [
              118.71304729020301,
              32.20689499758479
            ],
            [
              118.7131237012741,
              32.20690563608649
            ],
            [
              118.71313364294507,
              32.20685401969536
            ],
            [
              118.71313573639907,
              32.20685431116116
            ],
            [
              118.71312562331998,
              32.20690681749007
            ],
            [
              118.71311173926226,
              32.206978902450096
            ],
            [
              118.71310964580826,
              32.206978610984294
            ],
            [
              118.71312335845786,
              32.20690741596205
            ],
            [
              118.71304590065976,
              32.206896631727446
            ],
            [
              118.71296844286168,
              32.20688584749284
            ],
            [
              118.7129591868232,
              32.20693390413285
            ],
            [
              118.71295455880396,
              32.206957932452866
            ]
          ]
        ]
      },
      "properties": {
        "kind": "wall",
        "height_m": 2.8,
        "base_m": 0,
        "level_index": 3,
        "building_id": "OSM-Way862952692"
      }
    },
    {
      "type": "Feature",
      "geometry": {
        "type": "Polygon",
        "coordinates": [
          [
            [
              118.71310656046211,
              32.2069946298643
            ],
            [
              118.71310865391611,
              32.2069949213301
            ],
            [
              118.71309691245989,
              32.2070558820679
            ],
            [
              118.71309481900589,
              32.207055590602096
            ],
            [
              118.71310656046211,
              32.2069946298643
            ]
          ]
        ]
      },
      "properties": {
        "kind": "wall",
        "height_m": 2.8,
        "base_m": 0,
        "level_index": 3,
        "building_id": "OSM-Way862952692"
      }
    },
    {
      "type": "Feature",
      "geometry": {
        "type": "Polygon",
        "coordinates": [
          [
            [
              118.71323792470075,
              32.207012919343256
            ],
            [
              118.71323758188451,
              32.20701469921881
            ],
            [
              118.71314965681641,
              32.20700245765521
            ],
            [
              118.71314999963265,
              32.207000677779654
            ],
            [
              118.71323792470075,
              32.207012919343256
            ]
          ]
        ]
      },
      "properties": {
        "kind": "wall",
        "height_m": 2.8,
        "base_m": 0,
        "level_index": 3,
        "building_id": "OSM-Way862952692"
      }
    },
    {
      "type": "Feature",
      "geometry": {
        "type": "Polygon",
        "coordinates": [
          [
            [
              118.71338865338893,
              32.207033904880866
            ],
            [
              118.7133883105727,
              32.20703568475642
            ],
            [
              118.71328049769157,
              32.20702067426772
            ],
            [
              118.7132808405078,
              32.20701889439216
            ],
            [
              118.71338865338893,
              32.207033904880866
            ]
          ]
        ]
      },
      "properties": {
        "kind": "wall",
        "height_m": 2.8,
        "base_m": 0,
        "level_index": 3,
        "building_id": "OSM-Way862952692"
      }
    },
    {
      "type": "Feature",
      "geometry": {
        "type": "Polygon",
        "coordinates": [
          [
            [
              118.71345611244567,
              32.20702684857421
            ],
            [
              118.7134564552619,
              32.207025068698655
            ],
            [
              118.71357107186854,
              32.20704102645121
            ],
            [
              118.7135707290523,
              32.20704280632677
            ],
            [
              118.71345611244567,
              32.20702684857421
            ]
          ]
        ]
      },
      "properties": {
        "kind": "wall",
        "height_m": 2.8,
        "base_m": 0,
        "level_index": 3,
        "building_id": "OSM-Way862952692"
      }
    },
    {
      "type": "Feature",
      "geometry": {
        "type": "Polygon",
        "coordinates": [
          [
            [
              118.71328392585397,
              32.20700287551215
            ],
            [
              118.71328426867021,
              32.2070010956366
            ],
            [
              118.71339208155133,
              32.2070161061253
            ],
            [
              118.7133917387351,
              32.207017886000855
            ],
            [
              118.71328392585397,
              32.20700287551215
            ]
          ]
        ]
      },
      "properties": {
        "kind": "wall",
        "height_m": 2.8,
        "base_m": 0,
        "level_index": 3,
        "building_id": "OSM-Way862952692"
      }
    },
    {
      "type": "Feature",
      "geometry": {
        "type": "Polygon",
        "coordinates": [
          [
            [
              118.71315308497881,
              32.20698465889964
            ],
            [
              118.71315342779505,
              32.20698287902409
            ],
            [
              118.71324135286315,
              32.20699512058769
            ],
            [
              118.71324101004691,
              32.20699690046325
            ],
            [
              118.71315308497881,
              32.20698465889964
            ]
          ]
        ]
      },
      "properties": {
        "kind": "wall",
        "height_m": 2.8,
        "base_m": 0,
        "level_index": 3,
        "building_id": "OSM-Way862952692"
      }
    },
    {
      "type": "Feature",
      "geometry": {
        "type": "Polygon",
        "coordinates": [
          [
            [
              118.71332420676217,
              32.2067937401343
            ],
            [
              118.7133245495784,
              32.20679196025875
            ],
            [
              118.71343236245953,
              32.20680697074745
            ],
            [
              118.71343201964329,
              32.206808750623004
            ],
            [
              118.71332420676217,
              32.2067937401343
            ]
          ]
        ]
      },
      "properties": {
        "kind": "wall",
        "height_m": 2.8,
        "base_m": 0,
        "level_index": 3,
        "building_id": "OSM-Way862952692"
      }
    },
    {
      "type": "Feature",
      "geometry": {
        "type": "Polygon",
        "coordinates": [
          [
            [
              118.71319231916002,
              32.206775377788894
            ],
            [
              118.71319266197625,
              32.20677359791334
            ],
            [
              118.71327954031734,
              32.206785693744045
            ],
            [
              118.71327919750111,
              32.2067874736196
            ],
            [
              118.71319231916002,
              32.206775377788894
            ]
          ]
        ]
      },
      "properties": {
        "kind": "wall",
        "height_m": 2.8,
        "base_m": 0,
        "level_index": 3,
        "building_id": "OSM-Way862952692"
      }
    },
    {
      "type": "Feature",
      "geometry": {
        "type": "Polygon",
        "coordinates": [
          [
            [
              118.7130175157508,
              32.206751040394586
            ],
            [
              118.71301785856704,
              32.20674926051903
            ],
            [
              118.71312881162918,
              32.206764708206435
            ],
            [
              118.71312846881294,
              32.20676648808199
            ],
            [
              118.7130175157508,
              32.206751040394586
            ]
          ]
        ]
      },
      "properties": {
        "kind": "wall",
        "height_m": 2.8,
        "base_m": 0,
        "level_index": 3,
        "building_id": "OSM-Way862952692"
      }
    }
  ]
}