{
  "type": "FeatureCollection",
  "features": [
    {
      "type": "Feature",
      "geometry": {
        "type": "Polygon",
        "coordinates": [
          [
            [
              118.7136020197855,
              32.20706204703038
            ],
            [
              118.71360616446255,
              32.207044358801596
            ],
            [
              118.71314846466886,
              32.20696683417426
            ],
            [
              118.71314431999181,
              32.20698452240303
            ],
            [
              118.7136020197855,
              32.20706204703038
            ]
          ]
        ]
      },
      "properties": {
        "key": "north-corridor",
        "name": "北侧走廊",
        "kind": "corridor",
        "category": "corridor",
        "room_code": null,
        "level_index": 1,
        "building_id": "OSM-Way862952692",
        "estimated": true
      }
    },
    {
      "type": "Feature",
      "geometry": {
        "type": "Polygon",
        "coordinates": [
          [
            [
              118.71312566894512,
              32.20706411943254
            ],
            [
              118.7131971646241,
              32.20675899748612
            ],
            [
              118.71317636008803,
              32.20675547363942
            ],
            [
              118.71310486440905,
              32.20706059558584
            ],
            [
              118.71312566894512,
              32.20706411943254
            ]
          ]
        ]
      },
      "properties": {
        "key": "spine",
        "name": "南北连接走廊",
        "kind": "corridor",
        "category": "corridor",
        "room_code": null,
        "level_index": 1,
        "building_id": "OSM-Way862952692",
        "estimated": true
      }
    },
    {
      "type": "Feature",
      "geometry": {
        "type": "Polygon",
        "coordinates": [
          [
            [
              118.71351028912224,
              32.20683042437703
            ],
            [
              118.71351443379928,
              32.20681273614825
            ],
            [
              118.71302032606745,
              32.20672904478919
            ],
            [
              118.71301618139042,
              32.20674673301797
            ],
            [
              118.71351028912224,
              32.20683042437703
            ]
          ]
        ]
      },
      "properties": {
        "key": "south-corridor",
        "name": "南侧走廊",
        "kind": "corridor",
        "category": "corridor",
        "room_code": null,
        "level_index": 1,
        "building_id": "OSM-Way862952692",
        "estimated": true
      }
    },
    {
      "type": "Feature",
      "geometry": {
        "type": "Polygon",
        "coordinates": [
          [
            [
              118.71310486440905,
              32.20706059558584
            ],
            [
              118.71314423884095,
              32.20689255741245
            ],
            [
              118.71298820482038,
              32.20686612856222
            ],
            [
              118.71294883038847,
              32.20703416673561
            ],
            [
              118.71310486440905,
              32.20706059558584
            ]
          ]
        ]
      },
      "properties": {
        "key": "N212-215",
        "name": "N212-215",
        "kind": "room",
        "category": "classroom",
        "room_code": "N212-215",
        "level_index": 1,
        "building_id": "OSM-Way862952692",
        "estimated": true
      }
    },
    {
      "type": "Feature",
      "geometry": {
        "type": "Polygon",
        "coordinates": [
          [
            [
              118.71325569729561,
              32.20708614347439
            ],
            [
              118.7132743483423,
              32.207006546444894
            ],
            [
              118.71314431999181,
              32.20698452240303
            ],
            [
              118.71312566894512,
              32.20706411943254
            ],
            [
              118.71325569729561,
              32.20708614347439
            ]
          ]
        ]
      },
      "properties": {
        "key": "N208-210",
        "name": "N208-210",
        "kind": "room",
        "category": "classroom",
        "room_code": "N208-210",
        "level_index": 1,
        "building_id": "OSM-Way862952692",
        "estimated": true
      }
    },
    {
      "type": "Feature",
      "geometry": {
        "type": "Polygon",
        "coordinates": [
          [
            [
              118.71340653018216,
              32.20711169136295
            ],
            [
              118.71342518122884,
              32.20703209433345
            ],
            [
              118.7132743483423,
              32.207006546444894
            ],
            [
              118.71325569729561,
              32.20708614347439
            ],
            [
              118.71340653018216,
              32.20711169136295
            ]
          ]
        ]
      },
      "properties": {
        "key": "N204-206",
        "name": "N204-206",
        "kind": "room",
        "category": "classroom",
        "room_code": "N204-206",
        "level_index": 1,
        "building_id": "OSM-Way862952692",
        "estimated": true
      }
    },
    {
      "type": "Feature",
      "geometry": {
        "type": "Polygon",
        "coordinates": [
          [
            [
              118.71327849301933,
              32.206988858216114
            ],
            [
              118.7132950717275,
              32.20691810530101
            ],
            [
              118.71316504337703,
              32.206896081259146
            ],
            [
              118.71314846466886,
              32.20696683417426
            ],
            [
              118.71327849301933,
              32.206988858216114
            ]
          ]
        ]
      },
      "properties": {
        "key": "N209-211",
        "name": "N209-211",
        "kind": "room",
        "category": "classroom",
        "room_code": "N209-211",
        "level_index": 1,
        "building_id": "OSM-Way862952692",
        "estimated": true
      }
    },
    {
      "type": "Feature",
      "geometry": {
        "type": "Polygon",
        "coordinates": [
          [
            [
              118.71342932590589,
              32.20701440610467
            ],
            [
              118.71344590461406,
              32.20694365318956
            ],
            [
              118.7132950717275,
              32.20691810530101
            ],
            [
              118.71327849301933,
              32.206988858216114
            ],
            [
              118.71342932590589,
              32.20701440610467
            ]
          ]
        ]
      },
      "properties": {
        "key": "N205-207",
        "name": "N205-207",
        "kind": "room",
        "category": "classroom",
        "room_code": "N205-207",
        "level_index": 1,
        "building_id": "OSM-Way862952692",
        "estimated": true
      }
    },
    {
      "type": "Feature",
      "geometry": {
        "type": "Polygon",
        "coordinates": [
          [
            [
              118.71314423884095,
              32.20689255741245
            ],
            [
              118.71315978137986,
              32.20682622655453
            ],
            [
              118.71308176436958,
              32.206813012129416
            ],
            [
              118.71306622183066,
              32.206879342987335
            ],
            [
              118.71314423884095,
              32.20689255741245
            ]
          ]
        ]
      },
      "properties": {
        "key": "toilet-1",
        "name": "2F 卫生间1（性别未标注）",
        "kind": "facility",
        "category": "toilet",
        "room_code": null,
        "level_index": 1,
        "building_id": "OSM-Way862952692",
        "estimated": true
      }
    },
    {
      "type": "Feature",
      "geometry": {
        "type": "Polygon",
        "coordinates": [
          [
            [
              118.71315978137986,
              32.20682622655453
            ],
            [
              118.71317221541099,
              32.2067731618682
            ],
            [
              118.7130941984007,
              32.20675994744308
            ],
            [
              118.71308176436958,
              32.206813012129416
            ],
            [
              118.71315978137986,
              32.20682622655453
            ]
          ]
        ]
      },
      "properties": {
        "key": "toilet-2",
        "name": "2F 卫生间2（性别未标注）",
        "kind": "facility",
        "category": "toilet",
        "room_code": null,
        "level_index": 1,
        "building_id": "OSM-Way862952692",
        "estimated": true
      }
    },
    {
      "type": "Feature",
      "geometry": {
        "type": "Polygon",
        "coordinates": [
          [
            [
              118.71317636008803,
              32.20675547363942
            ],
            [
              118.71319811964251,
              32.206662610438336
            ],
            [
              118.71304208562194,
              32.20663618158811
            ],
            [
              118.71302032606745,
              32.20672904478919
            ],
            [
              118.71317636008803,
              32.20675547363942
            ]
          ]
        ]
      },
      "properties": {
        "key": "S205-206",
        "name": "S205-206",
        "kind": "room",
        "category": "classroom",
        "room_code": "S205-206",
        "level_index": 1,
        "building_id": "OSM-Way862952692",
        "estimated": true
      }
    },
    {
      "type": "Feature",
      "geometry": {
        "type": "Polygon",
        "coordinates": [
          [
            [
              118.71332719297459,
              32.20678102152797
            ],
            [
              118.71334895252906,
              32.20668815832689
            ],
            [
              118.71319811964251,
              32.206662610438336
            ],
            [
              118.71317636008803,
              32.20675547363942
            ],
            [
              118.71332719297459,
              32.20678102152797
            ]
          ]
        ]
      },
      "properties": {
        "key": "S203-204",
        "name": "S203-204",
        "kind": "room",
        "category": "classroom",
        "room_code": "S203-204",
        "level_index": 1,
        "building_id": "OSM-Way862952692",
        "estimated": true
      }
    },
    {
      "type": "Feature",
      "geometry": {
        "type": "Polygon",
        "coordinates": [
          [
            [
              118.71347802586115,
              32.20680656941653
            ],
            [
              118.71349978541562,
              32.206713706215446
            ],
            [
              118.71334895252906,
              32.20668815832689
            ],
            [
              118.71332719297459,
              32.20678102152797
            ],
            [
              118.71347802586115,
              32.20680656941653
            ]
          ]
        ]
      },
      "properties": {
        "key": "S201-202",
        "name": "S201-202",
        "kind": "room",
        "category": "classroom",
        "room_code": "S201-202",
        "level_index": 1,
        "building_id": "OSM-Way862952692",
        "estimated": true
      }
    },
    {
      "type": "Feature",
      "geometry": {
        "type": "Polygon",
        "coordinates": [
          [
            [
              118.71296540909664,
              32.206963413820496
            ],
            [
              118.7129290011585,
              32.20695724708878
            ],
            [
              118.71294039902037,
              32.20690860445964
            ],
            [
              118.71294084214568,
              32.206907102275984
            ],
            [
              118.71294145631762,
              32.20690564425368
            ],
            [
              118.71294223562138,
              32.20690424443428
            ],
            [
              118.71294317255185,
              32.2069029162988
            ],
            [
              118.71294425808586,
              32.20690167263792
            ],
            [
              118.71294548176913,
              32.20690052542877
            ],
            [
              118.71294683181694,
              32.2068994857196
            ],
            [
              118.71294829522756,
              32.20689856352339
            ],
            [
              118.71294985790756,
              32.20689776772138
            ],
            [
              118.71295150480749,
              32.206897105977575
            ],
            [
              118.7129532200668,
              32.206896584664946
            ],
            [
              118.71295498716658,
              32.206896208804004
            ],
            [
              118.71295678908872,
              32.2068959820145
            ],
            [
              118.71295860847971,
              32.20689590648054
            ],
            [
              118.71296042781783,
              32.20689598292957
            ],
            [
              118.71296222958185,
              32.20689621062532
            ],
            [
              118.71296399641982,
              32.20689658737497
            ],
            [
              118.71296571131609,
              32.20689710955022
            ],
            [
              118.71296735775529,
              32.206897772122225
            ],
            [
              118.7129689198813,
              32.20689856871006
            ],
            [
              118.71297038265003,
              32.206899491642154
            ],
            [
              118.71297173197416,
              32.206900532030154
            ],
            [
              118.71297295485901,
              32.20690167985457
            ],
            [
              118.7129740395275,
              32.206902924061204
            ],
            [
              118.7129749755337,
              32.20690425266769
            ],
            [
              118.71297575386333,
              32.2069056528788
            ],
            [
              118.71297636702069,
              32.20690711120976
            ],
            [
              118.71297680910071,
              32.20690861361602
            ],
            [
              118.71297707584591,
              32.206910145628605
            ],
            [
              118.71297716468743,
              32.206911692493385
            ],
            [
              118.71297707476964,
              32.20691323931321
            ],
            [
              118.71297680695851,
              32.20691477119136
            ],
            [
              118.71296540909664,
              32.206963413820496
            ]
          ]
        ]
      },
      "properties": {
        "key": "stairs-west",
        "name": "西侧楼梯",
        "kind": "facility",
        "category": "stair",
        "room_code": null,
        "level_index": 1,
        "building_id": "OSM-Way862952692",
        "estimated": true
      }
    },
    {
      "type": "Feature",
      "geometry": {
        "type": "Polygon",
        "coordinates": [
          [
            [
              118.71325860292623,
              32.20684296482634
            ],
            [
              118.71327103695735,
              32.20678990014001
            ],
            [
              118.71319301994707,
              32.2067766857149
            ],
            [
              118.71318058591594,
              32.20682975040123
            ],
            [
              118.71325860292623,
              32.20684296482634
            ]
          ]
        ]
      },
      "properties": {
        "key": "stairs-central",
        "name": "中部楼梯",
        "kind": "facility",
        "category": "stair",
        "room_code": null,
        "level_index": 1,
        "building_id": "OSM-Way862952692",
        "estimated": true
      }
    },
    {
      "type": "Feature",
      "geometry": {
        "type": "Polygon",
        "coordinates": [
          [
            [
              118.71351443379928,
              32.20681273614825
            ],
            [
              118.71347802586115,
              32.20680656941653
            ],
            [
              118.71348631521523,
              32.206771192958975
            ],
            [
              118.71348675834054,
              32.206769690775324
            ],
            [
              118.71348737251247,
              32.20676823275302
            ],
            [
              118.71348815181624,
              32.20676683293362
            ],
            [
              118.7134890887467,
              32.206765504798135
            ],
            [
              118.71349017428071,
              32.20676426113726
            ],
            [
              118.71349139796399,
              32.20676311392811
            ],
            [
              118.71349274801179,
              32.20676207421894
            ],
            [
              118.71349421142241,
              32.20676115202273
            ],
            [
              118.71349577410243,
              32.20676035622071
            ],
            [
              118.71349742100234,
              32.206759694476915
            ],
            [
              118.71349913626165,
              32.20675917316428
            ],
            [
              118.71350090336144,
              32.20675879730334
            ],
            [
              118.71350270528357,
              32.206758570513834
            ],
            [
              118.71350452467456,
              32.20675849497988
            ],
            [
              118.71350634401269,
              32.2067585714289
            ],
            [
              118.71350814577671,
              32.20675879912466
            ],
            [
              118.71350991261467,
              32.20675917587431
            ],
            [
              118.71351162751094,
              32.20675969804955
            ],
            [
              118.71351327395014,
              32.206760360621566
            ],
            [
              118.71351483607616,
              32.2067611572094
            ],
            [
              118.71351629884488,
              32.20676208014149
            ],
            [
              118.71351764816902,
              32.206763120529494
            ],
            [
              118.71351887105386,
              32.2067642683539
            ],
            [
              118.71351995572236,
              32.206765512560544
            ],
            [
              118.71352089172855,
              32.206766841167024
            ],
            [
              118.71352167005819,
              32.20676824137814
            ],
            [
              118.71352228321554,
              32.20676969970909
            ],
            [
              118.71352272529556,
              32.206771202115355
            ],
            [
              118.71352299204078,
              32.20677273412794
            ],
            [
              118.71352308088228,
              32.20677428099272
            ],
            [
              118.71352299096449,
              32.20677582781254
            ],
            [
              118.71352272315336,
              32.2067773596907
            ],
            [
              118.71351443379928,
              32.20681273614825
            ]
          ]
        ]
      },
      "properties": {
        "key": "stairs-southeast",
        "name": "东南楼梯",
        "kind": "facility",
        "category": "stair",
        "room_code": null,
        "level_index": 1,
        "building_id": "OSM-Way862952692",
        "estimated": true
      }
    },
    {
      "type": "Feature",
      "geometry": {
        "type": "Polygon",
        "coordinates": [
          [
            [
              118.71349279597109,
              32.207043546835216
            ],
            [
              118.7134741449244,
              32.20712314386471
            ],
            [
              118.71348235938238,
              32.20712430381659
            ],
            [
              118.713490632206,
              32.207125012142676
            ],
            [
              118.71349891713028,
              32.20712526488171
            ],
            [
              118.71350716782254,
              32.20712506062028
            ],
            [
              118.71351533814159,
              32.207124400500696
            ],
            [
              118.71352338239566,
              32.207123288214625
            ],
            [
              118.71353125559806,
              32.20712172998241
            ],
            [
              118.71353891371861,
              32.20711973451832
            ],
            [
              118.71354631393001,
              32.20711731298181
            ],
            [
              118.71355341484728,
              32.207114478915074
            ],
            [
              118.7135601767592,
              32.20711124816738
            ],
            [
              118.71356656185043,
              32.20710763880638
            ],
            [
              118.71357253441293,
              32.207103671017066
            ],
            [
              118.71357806104572,
              32.20709936698895
            ],
            [
              118.71358311084163,
              32.20709475079189
            ],
            [
              118.71358765556015,
              32.20708984824153
            ],
            [
              118.71359166978536,
              32.207084686754925
            ],
            [
              118.7135951310681,
              32.207079295197204
            ],
            [
              118.71359802005148,
              32.20707370372014
            ],
            [
              118.7136003205791,
              32.20706794359354
            ],
            [
              118.7136020197855,
              32.20706204703038
            ],
            [
              118.71349279597109,
              32.207043546835216
            ]
          ]
        ]
      },
      "properties": {
        "key": "N202",
        "name": "N202",
        "kind": "room",
        "category": "classroom",
        "room_code": "N202",
        "level_index": 1,
        "building_id": "OSM-Way862952692",
        "estimated": true
      }
    },
    {
      "type": "Feature",
      "geometry": {
        "type": "Polygon",
        "coordinates": [
          [
            [
              118.71362232858529,
              32.207034864239965
            ],
            [
              118.7136216378666,
              32.207036280816276
            ],
            [
              118.71362073558112,
              32.20703760862128
            ],
            [
              118.71361963716718,
              32.207038824935864
            ],
            [
              118.71361836141897,
              32.20703990894855
            ],
            [
              118.71361693016487,
              32.20704084211158
            ],
            [
              118.71361536789405,
              32.20704160845828
            ],
            [
              118.71361370133741,
              32.207042194876244
            ],
            [
              118.71361195901017,
              32.2070425913317
            ],
            [
              118.71361017072404,
              32.207042791041175
            ],
            [
              118.7136083670771,
              32.2070427905876
            ],
            [
              118.71360657893025,
              32.20704258997872
            ],
            [
              118.71360616446255,
              32.207044358801596
            ],
            [
              118.71342932590589,
              32.20701440610467
            ],
            [
              118.71345004929111,
              32.20692596496078
            ],
            [
              118.71362688784775,
              32.20695591765771
            ],
            [
              118.71361196701041,
              32.20701959528131
            ],
            [
              118.71361370906149,
              32.20701999261301
            ],
            [
              118.71361537520981,
              32.20702057986908
            ],
            [
              118.71361693694715,
              32.2070213470014
            ],
            [
              118.7136183675517,
              32.20702228088414
            ],
            [
              118.71361964254544,
              32.207023365538284
            ],
            [
              118.71362074011289,
              32.20702458240511
            ],
            [
              118.71362164147433,
              32.207025910663695
            ],
            [
              118.71362233120726,
              32.207027327587156
            ],
            [
              118.71362279751013,
              32.20702880893155
            ],
            [
              118.71362303240436,
              32.20703032935065
            ],
            [
              118.71362303187087,
              32.20703186282967
            ],
            [
              118.71362279591878,
              32.207033383130366
            ],
            [
              118.71362232858529,
              32.207034864239965
            ]
          ]
        ]
      },
      "properties": {
        "key": "N201-203",
        "name": "N201-203",
        "kind": "room",
        "category": "classroom",
        "room_code": "N201-203",
        "level_index": 1,
        "building_id": "OSM-Way862952692",
        "estimated": true
      }
    },
    {
      "type": "Feature",
      "geometry": {
        "type": "Polygon",
        "coordinates": [
          [
            [
              118.71347066974376,
              32.207123817034635
            ],
            [
              118.7134701784062,
              32.20712498345247
            ],
            [
              118.7134695549632,
              32.207126103308
            ],
            [
              118.71346880541883,
              32.20712716581638
            ],
            [
              118.7134679369916,
              32.207128160745086
            ],
            [
              118.71346695804499,
              32.2071290785124
            ],
            [
              118.71346587800674,
              32.20712991027974
            ],
            [
              118.71346470727825,
              32.20713064803671
            ],
            [
              118.71346345713424,
              32.20713128467832
            ],
            [
              118.71346213961431,
              32.207131814073364
            ],
            [
              118.71346076740686,
              32.20713223112347
            ],
            [
              118.71345935372703,
              32.20713253181222
            ],
            [
              118.71345791218933,
              32.20713271324382
            ],
            [
              118.71345645667652,
              32.20713277367099
            ],
            [
              118.71345500120603,
              32.20713271251177
            ],
            [
              118.71345355979481,
              32.20713253035517
            ],
            [
              118.71345214632444,
              32.207132228955444
            ],
            [
              118.71345077440742,
              32.20713181121525
            ],
            [
              118.71344945725606,
              32.20713128115764
            ],
            [
              118.71344820755525,
              32.207130643887375
            ],
            [
              118.71344703734027,
              32.2071299055417
            ],
            [
              118.71344595788096,
              32.2071290732313
            ],
            [
              118.71344497957308,
              32.20712815497177
            ],
            [
              118.7134441118383,
              32.20712715960646
            ],
            [
              118.71344336303333,
              32.207126096721275
            ],
            [
              118.71344274036963,
              32.20712497655238
            ],
            [
              118.71344224984375,
              32.20712380988762
            ],
            [
              118.71344189617973,
              32.2071226079626
            ],
            [
              118.71344168278355,
              32.20712138235254
            ],
            [
              118.71344161171035,
              32.20712014486072
            ],
            [
              118.71344168364459,
              32.207118907404855
            ],
            [
              118.71344189789349,
              32.20711768190233
            ],
            [
              118.71340653018216,
              32.20711169136295
            ],
            [
              118.71342518122884,
              32.20703209433345
            ],
            [
              118.71349279597109,
              32.207043546835216
            ],
            [
              118.7134741449244,
              32.20712314386471
            ],
            [
              118.713471024244,
              32.20712261528771
            ],
            [
              118.71347066974376,
              32.207123817034635
            ]
          ]
        ]
      },
      "properties": {
        "key": "stairs-northeast",
        "name": "东北楼梯（通至七层）",
        "kind": "facility",
        "category": "stair",
        "room_code": null,
        "level_index": 1,
        "building_id": "OSM-Way862952692",
        "estimated": true
      }
    },
    {
      "type": "Feature",
      "geometry": {
        "type": "Polygon",
        "coordinates": [
          [
            [
              118.71293936388088,
              32.206908406556224
            ],
            [
              118.71293982601635,
              32.20690683992858
            ],
            [
              118.71294047532615,
              32.206905298490234
            ],
            [
              118.71294129921526,
              32.206903818584685
            ],
            [
              118.71294228974918,
              32.206902414464224
            ],
            [
              118.71294343738852,
              32.206901099651304
            ],
            [
              118.71294473108088,
              32.20689988680829
            ],
            [
              118.7129461583673,
              32.206898787615515
            ],
            [
              118.71294770550224,
              32.206897812658816
            ],
            [
              118.71294935758594,
              32.206896971327566
            ],
            [
              118.71295109870793,
              32.206896271724226
            ],
            [
              118.71295291210025,
              32.206895720586374
            ],
            [
              118.71295478029894,
              32.206895323221765
            ],
            [
              118.71295668531225,
              32.20689508345723
            ],
            [
              118.71295860879381,
              32.20689500360184
            ],
            [
              118.7129605322195,
              32.20689508442465
            ],
            [
              118.71296243706563,
              32.206895325147286
            ],
            [
              118.71296430498751,
              32.20689572345145
            ],
            [
              118.71296611799605,
              32.20689627550127
            ],
            [
              118.71296785863095,
              32.20689697598019
            ],
            [
              118.71296951012897,
              32.20689781814223
            ],
            [
              118.71297105658527,
              32.2068987938769
            ],
            [
              118.71297248310664,
              32.206899893787345
            ],
            [
              118.71297377595488,
              32.20690110728082
            ],
            [
              118.71297492267918,
              32.20690242267073
            ],
            [
              118.71297591223595,
              32.20690382728914
            ],
            [
              118.71297673509521,
              32.206905307608814
            ],
            [
              118.71297738333237,
              32.20690684937347
            ],
            [
              118.71297749374737,
              32.20690722461817
            ],
            [
              118.71298737182742,
              32.20686506795845
            ],
            [
              118.7130653888377,
              32.20687828238356
            ],
            [
              118.71308072414277,
              32.206812835937086
            ],
            [
              118.71309295094005,
              32.20676065566219
            ],
            [
              118.71301493392976,
              32.20674744123708
            ],
            [
              118.71301928584066,
              32.206728868596855
            ],
            [
              118.71304125262898,
              32.20663512098434
            ],
            [
              118.71319832687635,
              32.2066617260269
            ],
            [
              118.71334915976291,
              32.206687273915456
            ],
            [
              118.71350103287628,
              32.20671299799634
            ],
            [
              118.71348908245771,
              32.206763998770455
            ],
            [
              118.71348935358337,
              32.20676368815064
            ],
            [
              118.71349064727573,
              32.20676247530762
            ],
            [
              118.71349207456215,
              32.206761376114855
            ],
            [
              118.7134936216971,
              32.20676040115816
            ],
            [
              118.7134952737808,
              32.2067595598269
            ],
            [
              118.71349701490279,
              32.206758860223566
            ],
            [
              118.7134988282951,
              32.206758309085714
            ],
            [
              118.71350069649381,
              32.2067579117211
            ],
            [
              118.7135026015071,
              32.20675767195657
            ],
            [
              118.71350452498868,
              32.206757592101184
            ],
            [
              118.71350644841435,
              32.206757672923985
            ],
            [
              118.71350835326048,
              32.20675791364662
            ],
            [
              118.71351022118237,
              32.206758311950786
            ],
            [
              118.7135120341909,
              32.206758864000605
            ],
            [
              118.7135137748258,
              32.20675956447953
            ],
            [
              118.71351542632382,
              32.20676040664157
            ],
            [
              118.71351697278013,
              32.206761382376236
            ],
            [
              118.71351839930149,
              32.20676248228668
            ],
            [
              118.71351969214975,
              32.20676369578016
            ],
            [
              118.71352083887405,
              32.20676501117006
            ],
            [
              118.7135218284308,
              32.20676641578848
            ],
            [
              118.71352265129006,
              32.206767896108154
            ],
            [
              118.71352329952724,
              32.2067694378728
            ],
            [
              118.71352376689943,
              32.206771026234385
            ],
            [
              118.71352404890561,
              32.20677264589612
            ],
            [
              118.7135241428299,
              32.206774281259776
            ],
            [
              118.71352404776776,
              32.20677591657591
            ],
            [
              118.71352376846747,
              32.20677751417195
            ],
            [
              118.71351547402608,
              32.20681291234059
            ],
            [
              118.7135111221152,
              32.2068314849808
            ],
            [
              118.7132718699503,
              32.20679096074379
            ],
            [
              118.71325964315302,
              32.20684314101868
            ],
            [
              118.71325961783158,
              32.20684322685774
            ],
            [
              118.71325958273604,
              32.206843310173305
            ],
            [
              118.7132595382044,
              32.20684339016299
            ],
            [
              118.71325948466551,
              32.20684346605644
            ],
            [
              118.713259422635,
              32.20684353712278
            ],
            [
              118.71325935271024,
              32.20684360267759
            ],
            [
              118.71325927556465,
              32.20684366208954
            ],
            [
              118.71325919194119,
              32.206843714786466
            ],
            [
              118.7132591026452,
              32.20684376026087
            ],
            [
              118.71325900853662,
              32.2068437980748
            ],
            [
              118.7132589105218,
              32.20684382786409
            ],
            [
              118.71325880954467,
              32.20684384934186
            ],
            [
              118.71325870657769,
              32.20684386230126
            ],
            [
              118.7132586026125,
              32.20684386661748
            ],
            [
              118.71325849865032,
              32.20684386224897
            ],
            [
              118.71325839569238,
              32.206843849237785
            ],
            [
              118.71318141890889,
              32.206830811005005
            ],
            [
              118.71316629083768,
              32.20689537304004
            ],
            [
              118.71329527896135,
              32.206917220889565
            ],
            [
              118.71344507162111,
              32.20694259258578
            ],
            [
              118.71344921629816,
              32.20692490435701
            ],
            [
              118.71362813530841,
              32.206955209438604
            ],
            [
              118.71361320133289,
              32.207018943131935
            ],
            [
              118.71361405103146,
              32.207019136933475
            ],
            [
              118.71361584562004,
              32.20701976946001
            ],
            [
              118.71361752774877,
              32.207020595729134
            ],
            [
              118.71361906863595,
              32.20702160160314
            ],
            [
              118.71362044191659,
              32.207022769871244
            ],
            [
              118.71362162409345,
              32.20702408054406
            ],
            [
              118.71362259493917,
              32.20702551119561
            ],
            [
              118.71362333784231,
              32.207027037347046
            ],
            [
              118.71362384009159,
              32.2070286328855
            ],
            [
              118.71362409309339,
              32.20703027051087
            ],
            [
              118.71362409251877,
              32.20703192220292
            ],
            [
              118.71362383837756,
              32.207033559700754
            ],
            [
              118.71362335303114,
              32.207035097898334
            ],
            [
              118.71362334771466,
              32.20703511195208
            ],
            [
              118.71362334349064,
              32.207035126271364
            ],
            [
              118.71362333178796,
              32.20703515405314
            ],
            [
              118.71362332116067,
              32.20703518214558
            ],
            [
              118.71362331424959,
              32.207035195688604
            ],
            [
              118.7136233083951,
              32.20703520958693
            ],
            [
              118.71362259105331,
              32.20703668076384
            ],
            [
              118.71362161921233,
              32.207038110926845
            ],
            [
              118.71362043612372,
              32.20703942100485
            ],
            [
              118.71361906203046,
              32.207040588582046
            ],
            [
              118.71361752044366,
              32.20704159368087
            ],
            [
              118.71361583774032,
              32.20704241910381
            ],
            [
              118.71361404271194,
              32.207043050727634
            ],
            [
              118.71361216607195,
              32.207043477745096
            ],
            [
              118.71361023993019,
              32.2070436928498
            ],
            [
              118.7136082972435,
              32.20704369236125
            ],
            [
              118.71360742506137,
              32.20704359451276
            ],
            [
              118.71360720468935,
              32.20704453499393
            ],
            [
              118.7136030600123,
              32.207062223222714
            ],
            [
              118.71360305438236,
              32.2070622423081
            ],
            [
              118.71360304998468,
              32.20706226162607
            ],
            [
              118.71360133978214,
              32.207068196347876
            ],
            [
              118.71359900962767,
              32.20707403065501
            ],
            [
              118.71359608387512,
              32.20707969329693
            ],
            [
              118.71359257928991,
              32.207085152305886
            ],
            [
              118.71358851593865,
              32.20709037695869
            ],
            [
              118.71358391703887,
              32.207095337956304
            ],
            [
              118.71357880879268,
              32.207100007584856
            ],
            [
              118.71357322020883,
              32.20710435985917
            ],
            [
              118.7135671829168,
              32.207108370650644
            ],
            [
              118.71356073097411,
              32.20711201780142
            ],
            [
              118.71355390066805,
              32.207115281226876
            ],
            [
              118.71354673031178,
              32.207118143007605
            ],
            [
              118.71353926003397,
              32.20712058747162
            ],
            [
              118.71353153156215,
              32.207122601267024
            ],
            [
              118.71352358799915,
              32.207124173424724
            ],
            [
              118.71351547359295,
              32.2071252954108
            ],
            [
              118.71350723350051,
              32.207125961167705
            ],
            [
              118.71349891354613,
              32.20712616714385
            ],
            [
              118.71349055997574,
              32.2071259123107
            ],
            [
              118.71348221920798,
              32.20712519816719
            ],
            [
              118.7134739711421,
              32.20712403346959
            ],
            [
              118.71347395451733,
              32.20712403040262
            ],
            [
              118.71347393769055,
              32.207124028276155
            ],
            [
              118.71347180738839,
              32.2071236674482
            ],
            [
              118.71347169854907,
              32.20712403641075
            ],
            [
              118.71347169854907,
              32.20712403641075
            ],
            [
              118.71347166830415,
              32.20712412109006
            ],
            [
              118.71347115939767,
              32.20712532921593
            ],
            [
              118.7134704913693,
              32.2071265291576
            ],
            [
              118.7134696882215,
              32.20712766765096
            ],
            [
              118.71346875768896,
              32.20712873373171
            ],
            [
              118.71346770873325,
              32.207129717132894
            ],
            [
              118.71346655145638,
              32.20713060838383
            ],
            [
              118.71346529700357,
              32.20713139890128
            ],
            [
              118.71346395745587,
              32.20713208107213
            ],
            [
              118.71346254571387,
              32.207132648326706
            ],
            [
              118.7134610753734,
              32.20713309520203
            ],
            [
              118.71345956059466,
              32.20713341739446
            ],
            [
              118.7134580159658,
              32.20713361180109
            ],
            [
              118.71345645636242,
              32.20713367654969
            ],
            [
              118.71345489680436,
              32.20713361101669
            ],
            [
              118.71345335231103,
              32.207133415833205
            ],
            [
              118.71345183775674,
              32.20713309287897
            ],
            [
              118.71345036772748,
              32.207132645264196
            ],
            [
              118.7134489563804,
              32.207132077299676
            ],
            [
              118.7134476173076,
              32.2071313944552
            ],
            [
              118.71344636340503,
              32.20713060330695
            ],
            [
              118.71344520674849,
              32.20712971147411
            ],
            [
              118.71344415847722,
              32.207128727545516
            ],
            [
              118.71344322868661,
              32.20712766099694
            ],
            [
              118.71344242633108,
              32.20712652209982
            ],
            [
              118.71344175913775,
              32.20712532182237
            ],
            [
              118.71344123353205,
              32.20712407172391
            ],
            [
              118.71344085457586,
              32.20712278384357
            ],
            [
              118.71344062591872,
              32.207121470584354
            ],
            [
              118.71344054976274,
              32.20712014459366
            ],
            [
              118.71344062684132,
              32.2071188186415
            ],
            [
              118.71344070028138,
              32.207118398564724
            ],
            [
              118.7134063229483,
              32.20711257577439
            ],
            [
              118.71325549006175,
              32.207087027885834
            ],
            [
              118.71312546171127,
              32.20706500384397
            ],
            [
              118.7131046571752,
              32.20706147999728
            ],
            [
              118.71294758292781,
              32.207034874954715
            ],
            [
              118.71296416163598,
              32.2069641220396
            ],
            [
              118.71292775369785,
              32.206957955307885
            ],
            [
              118.71293936388088,
              32.206908406556224
            ]
          ],
          [
            [
              118.7129722518713,
              32.20693882649255
            ],
            [
              118.7129701714177,
              32.20693847410787
            ],
            [
              118.7129757616444,
              32.20691461671011
            ],
            [
              118.71297601796637,
              32.20691315054985
            ],
            [
              118.71297610273982,
              32.20691169222633
            ],
            [
              118.71297601898108,
              32.20691023386042
            ],
            [
              118.71297576749683,
              32.20690878949699
            ],
            [
              118.71297535070899,
              32.20690737304605
            ],
            [
              118.71297477263145,
              32.2069059981488
            ],
            [
              118.71297403883143,
              32.206904678046236
            ],
            [
              118.71297315637581,
              32.206903425451685
            ],
            [
              118.71297213376313,
              32.20690225242831
            ],
            [
              118.71297098084169,
              32.206901170272964
            ],
            [
              118.71296970871478,
              32.206900189407406
            ],
            [
              118.71296832963365,
              32.206899319277895
            ],
            [
              118.71296685687963,
              32.20689856826426
            ],
            [
              118.71296530463613,
              32.20689794359917
            ],
            [
              118.71296368785211,
              32.206897451298495
            ],
            [
              118.71296202209808,
              32.206897096103354
            ],
            [
              118.71296032341617,
              32.206896881434474
            ],
            [
              118.71295860816561,
              32.206896809359236
            ],
            [
              118.7129568928652,
              32.20689688057176
            ],
            [
              118.71295519403421,
              32.206897094386235
            ],
            [
              118.71295352803332,
              32.20689744874351
            ],
            [
              118.71295191090705,
              32.206897940230924
            ],
            [
              118.7129503582292,
              32.20689856411519
            ],
            [
              118.71294888495287,
              32.20689931438796
            ],
            [
              118.71294750526656,
              32.2069001838237
            ],
            [
              118.71294623245738,
              32.20690116404926
            ],
            [
              118.71294507878319,
              32.20690224562454
            ],
            [
              118.71294405535451,
              32.20690341813338
            ],
            [
              118.7129431720275,
              32.206904670283876
            ],
            [
              118.71294243730908,
              32.206905990017134
            ],
            [
              118.712941858275,
              32.2069073646234
            ],
            [
              118.71294143415987,
              32.20690880236306
            ],
            [
              118.71293024861916,
              32.206956538869676
            ],
            [
              118.71296457610369,
              32.206962353216724
            ],
            [
              118.71296685567606,
              32.2069526246909
            ],
            [
              118.71296893612967,
              32.20695297707557
            ],
            [
              118.71296644932345,
              32.20696359001283
            ],
            [
              118.71295007784913,
              32.207033458516506
            ],
            [
              118.7131040314161,
              32.207059534982065
            ],
            [
              118.71310537843613,
              32.20705378630771
            ],
            [
              118.71310745888974,
              32.207054138692385
            ],
            [
              118.7131061118697,
              32.20705988736673
            ],
            [
              118.71312483595217,
              32.207063058828766
            ],
            [
              118.713143279765,
              32.2069843462107
            ],
            [
              118.71314330508646,
              32.206984260371634
            ],
            [
              118.713143340182,
              32.20698417705608
            ],
            [
              118.71314338471363,
              32.206984097066396
            ],
            [
              118.71314343825252,
              32.20698402117294
            ],
            [
              118.71314350028304,
              32.206983950106604
            ],
            [
              118.71314357020779,
              32.206983884551796
            ],
            [
              118.71314364735339,
              32.206983825139844
            ],
            [
              118.71314373097685,
              32.20698377244292
            ],
            [
              118.71314382027285,
              32.20698372696852
            ],
            [
              118.71314391438142,
              32.20698368915458
            ],
            [
              118.71314401239623,
              32.20698365936529
            ],
            [
              118.71314411337336,
              32.206983637887525
            ],
            [
              118.71314421634034,
              32.20698362492812
            ],
            [
              118.71314432030555,
              32.206983620611894
            ],
            [
              118.71314442426772,
              32.20698362498041
            ],
            [
              118.71314452722567,
              32.2069836379916
            ],
            [
              118.71315024847308,
              32.20698460704944
            ],
            [
              118.71314983400538,
              32.20698637587232
            ],
            [
              118.71314515298477,
              32.20698558300681
            ],
            [
              118.71312691640578,
              32.20706341121343
            ],
            [
              118.71325486430266,
              32.20708508287062
            ],
            [
              118.71327310088164,
              32.207007254664
            ],
            [
              118.71326841986102,
              32.20700646179849
            ],
            [
              118.71326883432873,
              32.207004692975616
            ],
            [
              118.71327455557615,
              32.20700566203345
            ],
            [
              118.71328027682357,
              32.207006631091296
            ],
            [
              118.71327986235586,
              32.20700839991417
            ],
            [
              118.71327518133525,
              32.207007607048666
            ],
            [
              118.71325694475625,
              32.207085435255294
            ],
            [
              118.7134056971892,
              32.207110630759175
            ],
            [
              118.7134239337682,
              32.207032802552554
            ],
            [
              118.71341821252078,
              32.20703183349471
            ],
            [
              118.71341862698847,
              32.207030064671834
            ],
            [
              118.7134253884627,
              32.20703120992201
            ],
            [
              118.71344619299877,
              32.20703473376871
            ],
            [
              118.71344577853107,
              32.207036502591585
            ],
            [
              118.7134260142218,
              32.20703315493722
            ],
            [
              118.71340777764281,
              32.20711098314385
            ],
            [
              118.71344309550558,
              32.20711696523995
            ],
            [
              118.71344274044785,
              32.20711899616822
            ],
            [
              118.71344267365797,
              32.207120145127774
            ],
            [
              118.7134427396484,
              32.207121294120725
            ],
            [
              118.7134429377836,
              32.20712243208164
            ],
            [
              118.71344326615544,
              32.20712354805132
            ],
            [
              118.7134437216015,
              32.20712463128239
            ],
            [
              118.7134442997356,
              32.20712567134272
            ],
            [
              118.71344499498998,
              32.20712665821598
            ],
            [
              118.71344580066896,
              32.20712758239803
            ],
            [
              118.71344670901344,
              32.20712843498849
            ],
            [
              118.71344771127552,
              32.20712920777645
            ],
            [
              118.71344879780291,
              32.20712989331954
            ],
            [
              118.71344995813172,
              32.20713048501561
            ],
            [
              118.71345118108738,
              32.207130977166294
            ],
            [
              118.71345245489215,
              32.20713136503193
            ],
            [
              118.7134537672786,
              32.20713164487713
            ],
            [
              118.7134551056077,
              32.20713181400686
            ],
            [
              118.71345645699064,
              32.20713187079229
            ],
            [
              118.71345780841285,
              32.207131814686555
            ],
            [
              118.7134591468594,
              32.20713164622998
            ],
            [
              118.71346045944033,
              32.2071313670449
            ],
            [
              118.71346173351473,
              32.207130979820015
            ],
            [
              118.71346295681262,
              32.207130488284506
            ],
            [
              118.71346411755293,
              32.207129897172145
            ],
            [
              118.71346520455712,
              32.207129212175644
            ],
            [
              118.71346620735673,
              32.20712843989192
            ],
            [
              118.71346711629427,
              32.207127587758464
            ],
            [
              118.71346792261616,
              32.2071266639818
            ],
            [
              118.71346861855707,
              32.20712567745841
            ],
            [
              118.71346919741474,
              32.20712463768903
            ],
            [
              118.71346965361442,
              32.20712355468722
            ],
            [
              118.7134702410996,
              32.207121563127224
            ],
            [
              118.71347331193145,
              32.20712208326094
            ],
            [
              118.71349154851045,
              32.20704425505432
            ],
            [
              118.71347178420118,
              32.20704090739996
            ],
            [
              118.71347219866887,
              32.20703913857708
            ],
            [
              118.71349300320495,
              32.207042662423774
            ],
            [
              118.71349768422557,
              32.20704345528928
            ],
            [
              118.71349726975787,
              32.207045224112164
            ],
            [
              118.71349362896405,
              32.20704460743899
            ],
            [
              118.71347539913802,
              32.207122406826
            ],
            [
              118.7134824995568,
              32.207123409466
            ],
            [
              118.71349070443628,
              32.20712411197464
            ],
            [
              118.71349892071441,
              32.20712436261957
            ],
            [
              118.71350710214458,
              32.20712416007285
            ],
            [
              118.71351520269022,
              32.2071235055906
            ],
            [
              118.7135231767922,
              32.20712240300452
            ],
            [
              118.71353097963396,
              32.20712085869779
            ],
            [
              118.71353856740325,
              32.20711888156502
            ],
            [
              118.71354589754826,
              32.207116482956
            ],
            [
              118.7135529290265,
              32.20711367660327
            ],
            [
              118.71355962254431,
              32.207110478533345
            ],
            [
              118.71356594078405,
              32.20710690696211
            ],
            [
              118.71357184861702,
              32.207102982174966
            ],
            [
              118.71357731329879,
              32.20709872639304
            ],
            [
              118.71358230464439,
              32.20709416362747
            ],
            [
              118.71358679518164,
              32.20708931952437
            ],
            [
              118.71359076028082,
              32.20708422120397
            ],
            [
              118.7135941782611,
              32.207078897097475
            ],
            [
              118.71359703047527,
              32.20707337678527
            ],
            [
              118.71359930137606,
              32.2070676908392
            ],
            [
              118.71360072592454,
              32.20706274739025
            ],
            [
              118.71351287315993,
              32.207047866997186
            ],
            [
              118.71351328762762,
              32.20704609817431
            ],
            [
              118.71360118679254,
              32.207060986426605
            ],
            [
              118.71360491700189,
              32.2070450670207
            ],
            [
              118.71360023598127,
              32.207044274155194
            ],
            [
              118.71360065044898,
              32.20704250533232
            ],
            [
              118.7136053314696,
              32.207043298197824
            ],
            [
              118.71360573279912,
              32.20704158544468
            ],
            [
              118.71360843691072,
              32.20704188881394
            ],
            [
              118.71361010151789,
              32.207041889232556
            ],
            [
              118.71361175194838,
              32.2070417049183
            ],
            [
              118.71361335996288,
              32.20704133902486
            ],
            [
              118.7136148980478,
              32.20704079781276
            ],
            [
              118.71361633988607,
              32.20704009054229
            ],
            [
              118.71361766080747,
              32.20703922931505
            ],
            [
              118.71361883821064,
              32.20703822886687
            ],
            [
              118.7136198519499,
              32.2070371063157
            ],
            [
              118.71362068467988,
              32.2070358808687
            ],
            [
              118.71362132215236,
              32.207034573493615
            ],
            [
              118.71362175345999,
              32.207033206559984
            ],
            [
              118.71362197122298,
              32.207031803456424
            ],
            [
              118.71362197171534,
              32.207030388190425
            ],
            [
              118.71362175492867,
              32.20702898497758
            ],
            [
              118.71362132457222,
              32.207027617827265
            ],
            [
              118.71362068800951,
              32.20702631013178
            ],
            [
              118.71361985613233,
              32.207025084266164
            ],
            [
              118.7136188431743,
              32.20702396120532
            ],
            [
              118.71361766646744,
              32.20702296016513
            ],
            [
              118.71361634614551,
              32.207022098273676
            ],
            [
              118.7136149047996,
              32.20702139027814
            ],
            [
              118.71361336709153,
              32.20702084829255
            ],
            [
              118.71361073268791,
              32.207020247430684
            ],
            [
              118.71362564038711,
              32.20695662587681
            ],
            [
              118.71345088228406,
              32.20692702556455
            ],
            [
              118.71344694484087,
              32.20694382938189
            ],
            [
              118.71343057336655,
              32.207013697885564
            ],
            [
              118.71345553880984,
              32.20701792650161
            ],
            [
              118.71345512434213,
              32.20701969532448
            ],
            [
              118.71342911867204,
              32.20701529051611
            ],
            [
              118.71342235719781,
              32.20701414526594
            ],
            [
              118.71342277166552,
              32.20701237644305
            ],
            [
              118.71342849291294,
              32.2070133455009
            ],
            [
              118.7134446571534,
              32.20694436140867
            ],
            [
              118.71329590472045,
              32.20691916590478
            ],
            [
              118.71327974047999,
              32.20698814999701
            ],
            [
              118.7132844215006,
              32.206988942862516
            ],
            [
              118.71328400703291,
              32.2069907116854
            ],
            [
              118.71327828578548,
              32.206989742627556
            ],
            [
              118.71327256453806,
              32.20698877356971
            ],
            [
              118.71327297900577,
              32.206987004746836
            ],
            [
              118.71327766002638,
              32.20698779761234
            ],
            [
              118.71329382426686,
              32.20691881352011
            ],
            [
              118.71316587636998,
              32.20689714186292
            ],
            [
              118.7131497121295,
              32.206966125955155
            ],
            [
              118.71315439315013,
              32.20696691882066
            ],
            [
              118.71315397868243,
              32.20696868764354
            ],
            [
              118.71314825743501,
              32.206967718585695
            ],
            [
              118.71314815647284,
              32.206967697057145
            ],
            [
              118.71314805847877,
              32.206967667218564
            ],
            [
              118.71314796439653,
              32.2069676293573
            ],
            [
              118.71314787513218,
              32.206967583838
            ],
            [
              118.7131477915454,
              32.206967531099025
            ],
            [
              118.71314771444116,
              32.20696747164828
            ],
            [
              118.71314764456203,
              32.20696740605831
            ],
            [
              118.71314758258097,
              32.20696733496079
            ],
            [
              118.7131475290949,
              32.20696725904042
            ],
            [
              118.71314748461891,
              32.206967179028354
            ],
            [
              118.71314744958136,
              32.206967095695155
            ],
            [
              118.71314742431964,
              32.206967009843375
            ],
            [
              118.71314740907705,
              32.2069669222998
            ],
            [
              118.7131474040004,
              32.20696683390752
            ],
            [
              118.71314740913856,
              32.20696674551782
            ],
            [
              118.71314742444206,
              32.20696665798192
            ],
            [
              118.71316400315023,
              32.206895905066816
            ],
            [
              118.71317954568913,
              32.206829574208896
            ],
            [
              118.71319197972026,
              32.20677650952256
            ],
            [
              118.7131920050417,
              32.20677642368349
            ],
            [
              118.71319204013724,
              32.20677634036794
            ],
            [
              118.71319208466889,
              32.206776260378255
            ],
            [
              118.71319213820777,
              32.2067761844848
            ],
            [
              118.7131922002383,
              32.206776113418464
            ],
            [
              118.71319227016305,
              32.206776047863656
            ],
            [
              118.71319234730863,
              32.2067759884517
            ],
            [
              118.7131924309321,
              32.20677593575478
            ],
            [
              118.7131925202281,
              32.206775890280376
            ],
            [
              118.71319261433666,
              32.20677585246644
            ],
            [
              118.71319271235149,
              32.20677582267715
            ],
            [
              118.71319281332862,
              32.206775801199385
            ],
            [
              118.7131929162956,
              32.20677578823998
            ],
            [
              118.71319302026079,
              32.20677578392375
            ],
            [
              118.71319312422297,
              32.20677578829227
            ],
            [
              118.71319322718092,
              32.20677580130346
            ],
            [
              118.71322391387163,
              32.20678099897734
            ],
            [
              118.71322349940392,
              32.20678276780021
            ],
            [
              118.71319385294002,
              32.20677774631867
            ],
            [
              118.7131818333766,
              32.20682904218213
            ],
            [
              118.71325776993328,
              32.20684190422257
            ],
            [
              118.71326978949669,
              32.206790608359114
            ],
            [
              118.71324014303279,
              32.20678558687757
            ],
            [
              118.7132405575005,
              32.206783818054696
            ],
            [
              118.7132712441912,
              32.206789015728575
            ],
            [
              118.71350945612929,
              32.20682936377326
            ],
            [
              118.71351318633862,
              32.206813444367356
            ],
            [
              118.7135043444108,
              32.20681194673251
            ],
            [
              118.7135047588785,
              32.20681017790963
            ],
            [
              118.71351360080632,
              32.20681167554448
            ],
            [
              118.71352167783925,
              32.20677720520944
            ],
            [
              118.71352193416124,
              32.206775739049185
            ],
            [
              118.71352201893467,
              32.20677428072566
            ],
            [
              118.71352193517593,
              32.20677282235975
            ],
            [
              118.71352168369168,
              32.206771377996326
            ],
            [
              118.71352126690385,
              32.20676996154538
            ],
            [
              118.71352068882632,
              32.20676858664813
            ],
            [
              118.7135199550263,
              32.206767266545576
            ],
            [
              118.71351907257068,
              32.20676601395102
            ],
            [
              118.71351804995798,
              32.20676484092765
            ],
            [
              118.71351689703656,
              32.206763758772304
            ],
            [
              118.71351562490963,
              32.20676277790674
            ],
            [
              118.7135142458285,
              32.20676190777723
            ],
            [
              118.71351277307448,
              32.2067611567636
            ],
            [
              118.71351122083098,
              32.20676053209851
            ],
            [
              118.71350960404696,
              32.20676003979783
            ],
            [
              118.71350793829293,
              32.206759684602694
            ],
            [
              118.71350623961102,
              32.206759469933814
            ],
            [
              118.71350452436046,
              32.206759397858576
            ],
            [
              118.71350280906005,
              32.2067594690711
            ],
            [
              118.71350111022906,
              32.206759682885576
            ],
            [
              118.71349944422819,
              32.206760037242844
            ],
            [
              118.7134978271019,
              32.20676052873026
            ],
            [
              118.71349627442405,
              32.206761152614526
            ],
            [
              118.71349480114773,
              32.206761902887294
            ],
            [
              118.71349342146141,
              32.20676277232303
            ],
            [
              118.71349214865224,
              32.206763752548596
            ],
            [
              118.71349099497805,
              32.20676483412388
            ],
            [
              118.71348997154936,
              32.20676600663272
            ],
            [
              118.71348908822235,
              32.20676725878321
            ],
            [
              118.71348835350393,
              32.20676857851647
            ],
            [
              118.71348777446987,
              32.20676995312273
            ],
            [
              118.71348735035473,
              32.20677139086239
            ],
            [
              118.7134792733218,
              32.20680586119743
            ],
            [
              118.71348811524963,
              32.20680735883227
            ],
            [
              118.71348770078193,
              32.20680912765515
            ],
            [
              118.7134778186273,
              32.20680745382797
            ],
            [
              118.71347105715307,
              32.2068063085778
            ],
            [
              118.71347147162078,
              32.20680453975491
            ],
            [
              118.7134771928682,
              32.20680550881276
            ],
            [
              118.71348527498843,
              32.20677101676664
            ],
            [
              118.71349853795496,
              32.20671441443455
            ],
            [
              118.71334978552201,
              32.20668921893067
            ],
            [
              118.71332844043525,
              32.206780313308876
            ],
            [
              118.71333312145586,
              32.20678110617438
            ],
            [
              118.71333270698815,
              32.20678287499726
            ],
            [
              118.71332698574074,
              32.206781905939415
            ],
            [
              118.7133191840397,
              32.206780584496904
            ],
            [
              118.71331959850741,
              32.20677881567403
            ],
            [
              118.71332635998164,
              32.2067799609242
            ],
            [
              118.7133477050684,
              32.206688866545996
            ],
            [
              118.71319895263545,
              32.206663671042115
            ],
            [
              118.71317760754869,
              32.20675476542032
            ],
            [
              118.71319737185796,
              32.20675811307468
            ],
            [
              118.71320205287857,
              32.206758905940184
            ],
            [
              118.71320163841088,
              32.20676067476307
            ],
            [
              118.71319695739025,
              32.20675988189756
            ],
            [
              118.71317615285417,
              32.20675635805086
            ],
            [
              118.71316939137995,
              32.20675521280069
            ],
            [
              118.71316980584766,
              32.2067534439778
            ],
            [
              118.71317552709507,
              32.20675441303565
            ],
            [
              118.71319687218185,
              32.20666331865744
            ],
            [
              118.71304291861489,
              32.20663724219188
            ],
            [
              118.71302157352811,
              32.20672833657009
            ],
            [
              118.71302833500233,
              32.20672948182027
            ],
            [
              118.71302792053463,
              32.206731250643145
            ],
            [
              118.7130211590604,
              32.206730105392964
            ],
            [
              118.71301742885107,
              32.20674602479887
            ],
            [
              118.71309440563455,
              32.20675906303165
            ],
            [
              118.71317242264485,
              32.20677227745676
            ],
            [
              118.71317252360701,
              32.206772298985314
            ],
            [
              118.71317262160109,
              32.206772328823895
            ],
            [
              118.71317271568333,
              32.20677236668516
            ],
            [
              118.71317280494766,
              32.20677241220446
            ],
            [
              118.71317288853444,
              32.206772464943434
            ],
            [
              118.71317296563869,
              32.20677252439418
            ],
            [
              118.71317303551783,
              32.20677258998415
            ],
            [
              118.71317309749888,
              32.206772661081665
            ],
            [
              118.71317315098494,
              32.20677273700204
            ],
            [
              118.71317319546093,
              32.206772817014105
            ],
            [
              118.71317323049848,
              32.2067729003473
            ],
            [
              118.71317325576021,
              32.206772986199084
            ],
            [
              118.71317327100279,
              32.20677307374266
            ],
            [
              118.71317327607944,
              32.20677316213494
            ],
            [
              118.71317327094128,
              32.20677325052464
            ],
            [
              118.7131732556378,
              32.206773338060536
            ],
            [
              118.71317242670239,
              32.20677687570629
            ],
            [
              118.71317034624877,
              32.20677652332162
            ],
            [
              118.71317096795033,
              32.206773870087304
            ],
            [
              118.71309503139365,
              32.20676100804686
            ],
            [
              118.71308301183024,
              32.20681230391031
            ],
            [
              118.7131589483869,
              32.20682516595076
            ],
            [
              118.71316785944255,
              32.20678713625889
            ],
            [
              118.71316993989616,
              32.206787488643556
            ],
            [
              118.71316082160666,
              32.20682640274687
            ],
            [
              118.71315999267125,
              32.20682994039262
            ],
            [
              118.71315791221765,
              32.206829588007956
            ],
            [
              118.7131585339192,
              32.20682693477364
            ],
            [
              118.71308259736253,
              32.206814072733195
            ],
            [
              118.71306746929132,
              32.20687863476823
            ],
            [
              118.713143405848,
              32.20689149680867
            ],
            [
              118.71315542541143,
              32.20684020094522
            ],
            [
              118.71315750586503,
              32.20684055332989
            ],
            [
              118.71314527906776,
              32.20689273360478
            ],
            [
              118.71312849312574,
              32.20696437093134
            ],
            [
              118.71312641267212,
              32.206964018546664
            ],
            [
              118.7131429913803,
              32.20689326563156
            ],
            [
              118.7130660145968,
              32.20688022739878
            ],
            [
              118.71298903781333,
              32.206867189166
            ],
            [
              118.71297784718531,
              32.206914947383694
            ],
            [
              118.7129722518713,
              32.20693882649255
            ]
          ]
        ]
      },
      "properties": {
        "kind": "wall",
        "height_m": 2.8,
        "base_m": 0,
        "level_index": 1,
        "building_id": "OSM-Way862952692"
      }
    },
    {
      "type": "Feature",
      "geometry": {
        "type": "Polygon",
        "coordinates": [
          [
            [
              118.71312268246278,
              32.20697993795257
            ],
            [
              118.7131247629164,
              32.206980290337235
            ],
            [
              118.71311056739752,
              32.2070408725208
            ],
            [
              118.71310848694391,
              32.20704052013613
            ],
            [
              118.71312268246278,
              32.20697993795257
            ]
          ]
        ]
      },
      "properties": {
        "kind": "wall",
        "height_m": 2.8,
        "base_m": 0,
        "level_index": 1,
        "building_id": "OSM-Way862952692"
      }
    },
    {
      "type": "Feature",
      "geometry": {
        "type": "Polygon",
        "coordinates": [
          [
            [
              118.71325323092667,
              32.207002050090594
            ],
            [
              118.71325281645896,
              32.20700381891347
            ],
            [
              118.71316543740744,
              32.20698901875734
            ],
            [
              118.71316585187515,
              32.206987249934464
            ],
            [
              118.71325323092667,
              32.207002050090594
            ]
          ]
        ]
      },
      "properties": {
        "kind": "wall",
        "height_m": 2.8,
        "base_m": 0,
        "level_index": 1,
        "building_id": "OSM-Way862952692"
      }
    },
    {
      "type": "Feature",
      "geometry": {
        "type": "Polygon",
        "coordinates": [
          [
            [
              118.71340302358642,
              32.20702742178681
            ],
            [
              118.71340260911872,
              32.20702919060969
            ],
            [
              118.71329546575792,
              32.207011042799195
            ],
            [
              118.71329588022563,
              32.20700927397632
            ],
            [
              118.71340302358642,
              32.20702742178681
            ]
          ]
        ]
      },
      "properties": {
        "kind": "wall",
        "height_m": 2.8,
        "base_m": 0,
        "level_index": 1,
        "building_id": "OSM-Way862952692"
      }
    },
    {
      "type": "Feature",
      "geometry": {
        "type": "Polygon",
        "coordinates": [
          [
            [
              118.7134707277442,
              32.207022338209505
            ],
            [
              118.7134711422119,
              32.20702056938663
            ],
            [
              118.71358504704692,
              32.207039862447296
            ],
            [
              118.71358463257921,
              32.20704163127017
            ],
            [
              118.7134707277442,
              32.207022338209505
            ]
          ]
        ]
      },
      "properties": {
        "kind": "wall",
        "height_m": 2.8,
        "base_m": 0,
        "level_index": 1,
        "building_id": "OSM-Way862952692"
      }
    },
    {
      "type": "Feature",
      "geometry": {
        "type": "Polygon",
        "coordinates": [
          [
            [
              118.71329961043496,
              32.20699335457042
            ],
            [
              118.71330002490267,
              32.206991585747545
            ],
            [
              118.71340716826346,
              32.20700973355803
            ],
            [
              118.71340675379575,
              32.20701150238091
            ],
            [
              118.71329961043496,
              32.20699335457042
            ]
          ]
        ]
      },
      "properties": {
        "kind": "wall",
        "height_m": 2.8,
        "base_m": 0,
        "level_index": 1,
        "building_id": "OSM-Way862952692"
      }
    },
    {
      "type": "Feature",
      "geometry": {
        "type": "Polygon",
        "coordinates": [
          [
            [
              118.71316958208449,
              32.20697133052856
            ],
            [
              118.71316999655218,
              32.206969561705684
            ],
            [
              118.7132573756037,
              32.206984361861814
            ],
            [
              118.71325696113601,
              32.20698613068469
            ],
            [
              118.71316958208449,
              32.20697133052856
            ]
          ]
        ]
      },
      "properties": {
        "kind": "wall",
        "height_m": 2.8,
        "base_m": 0,
        "level_index": 1,
        "building_id": "OSM-Way862952692"
      }
    },
    {
      "type": "Feature",
      "geometry": {
        "type": "Polygon",
        "coordinates": [
          [
            [
              118.71334831039022,
              32.20678551788228
            ],
            [
              118.71334872485792,
              32.206783749059404
            ],
            [
              118.71345586821872,
              32.20680189686989
            ],
            [
              118.71345545375101,
              32.206803665692775
            ],
            [
              118.71334831039022,
              32.20678551788228
            ]
          ]
        ]
      },
      "properties": {
        "kind": "wall",
        "height_m": 2.8,
        "base_m": 0,
        "level_index": 1,
        "building_id": "OSM-Way862952692"
      }
    },
    {
      "type": "Feature",
      "geometry": {
        "type": "Polygon",
        "coordinates": [
          [
            [
              118.71321724181293,
              32.20676331764809
            ],
            [
              118.71321765628063,
              32.20676154882521
            ],
            [
              118.71330399510535,
              32.206776172789006
            ],
            [
              118.71330358063764,
              32.20677794161188
            ],
            [
              118.71321724181293,
              32.20676331764809
            ]
          ]
        ]
      },
      "properties": {
        "kind": "wall",
        "height_m": 2.8,
        "base_m": 0,
        "level_index": 1,
        "building_id": "OSM-Way862952692"
      }
    },
    {
      "type": "Feature",
      "geometry": {
        "type": "Polygon",
        "coordinates": [
          [
            [
              118.71304352393669,
              32.20673389352817
            ],
            [
              118.7130439384044,
              32.20673212470529
            ],
            [
              118.71315420244561,
              32.20675080109278
            ],
            [
              118.7131537879779,
              32.20675256991566
            ],
            [
              118.71304352393669,
              32.20673389352817
            ]
          ]
        ]
      },
      "properties": {
        "kind": "wall",
        "height_m": 2.8,
        "base_m": 0,
        "level_index": 1,
        "building_id": "OSM-Way862952692"
      }
    }
  ]
}