{
  "type": "FeatureCollection",
  "features": [
    {
      "type": "Feature",
      "geometry": {
        "type": "Polygon",
        "coordinates": [
          [
            [
              118.7136020197855,
              32.20706204703038
            ],
            [
              118.71360616446255,
              32.207044358801596
            ],
            [
              118.71342932590589,
              32.20701440610467
            ],
            [
              118.71342518122884,
              32.20703209433345
            ],
            [
              118.7136020197855,
              32.20706204703038
            ]
          ]
        ]
      },
      "properties": {
        "key": "north-corridor",
        "name": "北侧走廊",
        "kind": "corridor",
        "category": "corridor",
        "room_code": null,
        "level_index": 6,
        "building_id": "OSM-Way862952692",
        "estimated": true
      }
    },
    {
      "type": "Feature",
      "geometry": {
        "type": "Polygon",
        "coordinates": [
          [
            [
              118.71349279597109,
              32.207043546835216
            ],
            [
              118.7134741449244,
              32.20712314386471
            ],
            [
              118.71348235938238,
              32.20712430381659
            ],
            [
              118.713490632206,
              32.207125012142676
            ],
            [
              118.71349891713028,
              32.20712526488171
            ],
            [
              118.71350716782254,
              32.20712506062028
            ],
            [
              118.71351533814159,
              32.207124400500696
            ],
            [
              118.71352338239566,
              32.207123288214625
            ],
            [
              118.71353125559806,
              32.20712172998241
            ],
            [
              118.71353891371861,
              32.20711973451832
            ],
            [
              118.71354631393001,
              32.20711731298181
            ],
            [
              118.71355341484728,
              32.207114478915074
            ],
            [
              118.7135601767592,
              32.20711124816738
            ],
            [
              118.71356656185043,
              32.20710763880638
            ],
            [
              118.71357253441293,
              32.207103671017066
            ],
            [
              118.71357806104572,
              32.20709936698895
            ],
            [
              118.71358311084163,
              32.20709475079189
            ],
            [
              118.71358765556015,
              32.20708984824153
            ],
            [
              118.71359166978536,
              32.207084686754925
            ],
            [
              118.7135951310681,
              32.207079295197204
            ],
            [
              118.71359802005148,
              32.20707370372014
            ],
            [
              118.7136003205791,
              32.20706794359354
            ],
            [
              118.7136020197855,
              32.20706204703038
            ],
            [
              118.71349279597109,
              32.207043546835216
            ]
          ]
        ]
      },
      "properties": {
        "key": "N702",
        "name": "N702",
        "kind": "room",
        "category": "classroom",
        "room_code": "N702",
        "level_index": 6,
        "building_id": "OSM-Way862952692",
        "estimated": true
      }
    },
    {
      "type": "Feature",
      "geometry": {
        "type": "Polygon",
        "coordinates": [
          [
            [
              118.71362232858529,
              32.207034864239965
            ],
            [
              118.7136216378666,
              32.207036280816276
            ],
            [
              118.71362073558112,
              32.20703760862128
            ],
            [
              118.71361963716718,
              32.207038824935864
            ],
            [
              118.71361836141897,
              32.20703990894855
            ],
            [
              118.71361693016487,
              32.20704084211158
            ],
            [
              118.71361536789405,
              32.20704160845828
            ],
            [
              118.71361370133741,
              32.207042194876244
            ],
            [
              118.71361195901017,
              32.2070425913317
            ],
            [
              118.71361017072404,
              32.207042791041175
            ],
            [
              118.7136083670771,
              32.2070427905876
            ],
            [
              118.71360657893025,
              32.20704258997872
            ],
            [
              118.71360616446255,
              32.207044358801596
            ],
            [
              118.71342932590589,
              32.20701440610467
            ],
            [
              118.71345004929111,
              32.20692596496078
            ],
            [
              118.71362688784775,
              32.20695591765771
            ],
            [
              118.71361196701041,
              32.20701959528131
            ],
            [
              118.71361370906149,
              32.20701999261301
            ],
            [
              118.71361537520981,
              32.20702057986908
            ],
            [
              118.71361693694715,
              32.2070213470014
            ],
            [
              118.7136183675517,
              32.20702228088414
            ],
            [
              118.71361964254544,
              32.207023365538284
            ],
            [
              118.71362074011289,
              32.20702458240511
            ],
            [
              118.71362164147433,
              32.207025910663695
            ],
            [
              118.71362233120726,
              32.207027327587156
            ],
            [
              118.71362279751013,
              32.20702880893155
            ],
            [
              118.71362303240436,
              32.20703032935065
            ],
            [
              118.71362303187087,
              32.20703186282967
            ],
            [
              118.71362279591878,
              32.207033383130366
            ],
            [
              118.71362232858529,
              32.207034864239965
            ]
          ]
        ]
      },
      "properties": {
        "key": "N701",
        "name": "N701",
        "kind": "room",
        "category": "classroom",
        "room_code": "N701",
        "level_index": 6,
        "building_id": "OSM-Way862952692",
        "estimated": true
      }
    },
    {
      "type": "Feature",
      "geometry": {
        "type": "Polygon",
        "coordinates": [
          [
            [
              118.71347066974376,
              32.207123817034635
            ],
            [
              118.7134701784062,
              32.20712498345247
            ],
            [
              118.7134695549632,
              32.207126103308
            ],
            [
              118.71346880541883,
              32.20712716581638
            ],
            [
              118.7134679369916,
              32.207128160745086
            ],
            [
              118.71346695804499,
              32.2071290785124
            ],
            [
              118.71346587800674,
              32.20712991027974
            ],
            [
              118.71346470727825,
              32.20713064803671
            ],
            [
              118.71346345713424,
              32.20713128467832
            ],
            [
              118.71346213961431,
              32.207131814073364
            ],
            [
              118.71346076740686,
              32.20713223112347
            ],
            [
              118.71345935372703,
              32.20713253181222
            ],
            [
              118.71345791218933,
              32.20713271324382
            ],
            [
              118.71345645667652,
              32.20713277367099
            ],
            [
              118.71345500120603,
              32.20713271251177
            ],
            [
              118.71345355979481,
              32.20713253035517
            ],
            [
              118.71345214632444,
              32.207132228955444
            ],
            [
              118.71345077440742,
              32.20713181121525
            ],
            [
              118.71344945725606,
              32.20713128115764
            ],
            [
              118.71344820755525,
              32.207130643887375
            ],
            [
              118.71344703734027,
              32.2071299055417
            ],
            [
              118.71344595788096,
              32.2071290732313
            ],
            [
              118.71344497957308,
              32.20712815497177
            ],
            [
              118.7134441118383,
              32.20712715960646
            ],
            [
              118.71344336303333,
              32.207126096721275
            ],
            [
              118.71344274036963,
              32.20712497655238
            ],
            [
              118.71344224984375,
              32.20712380988762
            ],
            [
              118.71344189617973,
              32.2071226079626
            ],
            [
              118.71344168278355,
              32.20712138235254
            ],
            [
              118.71344161171035,
              32.20712014486072
            ],
            [
              118.71344168364459,
              32.207118907404855
            ],
            [
              118.71344189789349,
              32.20711768190233
            ],
            [
              118.71340653018216,
              32.20711169136295
            ],
            [
              118.71342518122884,
              32.20703209433345
            ],
            [
              118.71349279597109,
              32.207043546835216
            ],
            [
              118.7134741449244,
              32.20712314386471
            ],
            [
              118.713471024244,
              32.20712261528771
            ],
            [
              118.71347066974376,
              32.207123817034635
            ]
          ]
        ]
      },
      "properties": {
        "key": "stairs-northeast",
        "name": "东北楼梯（通至七层）",
        "kind": "facility",
        "category": "stair",
        "room_code": null,
        "level_index": 6,
        "building_id": "OSM-Way862952692",
        "estimated": true
      }
    },
    {
      "type": "Feature",
      "geometry": {
        "type": "Polygon",
        "coordinates": [
          [
            [
              118.7134247627036,
              32.2070292649068
            ],
            [
              118.71342684315721,
              32.20702961729147
            ],
            [
              118.7134264286895,
              32.207031386114345
            ],
            [
              118.71344619299877,
              32.20703473376871
            ],
            [
              118.71344577853107,
              32.207036502591585
            ],
            [
              118.7134260142218,
              32.20703315493722
            ],
            [
              118.71340777764281,
              32.20711098314385
            ],
            [
              118.71344309550558,
              32.20711696523995
            ],
            [
              118.71344274044785,
              32.20711899616822
            ],
            [
              118.71344267365797,
              32.207120145127774
            ],
            [
              118.7134427396484,
              32.207121294120725
            ],
            [
              118.7134429377836,
              32.20712243208164
            ],
            [
              118.71344326615544,
              32.20712354805132
            ],
            [
              118.7134437216015,
              32.20712463128239
            ],
            [
              118.7134442997356,
              32.20712567134272
            ],
            [
              118.71344499498998,
              32.20712665821598
            ],
            [
              118.71344580066896,
              32.20712758239803
            ],
            [
              118.71344670901344,
              32.20712843498849
            ],
            [
              118.71344771127552,
              32.20712920777645
            ],
            [
              118.71344879780291,
              32.20712989331954
            ],
            [
              118.71344995813172,
              32.20713048501561
            ],
            [
              118.71345118108738,
              32.207130977166294
            ],
            [
              118.71345245489215,
              32.20713136503193
            ],
            [
              118.7134537672786,
              32.20713164487713
            ],
            [
              118.7134551056077,
              32.20713181400686
            ],
            [
              118.71345645699064,
              32.20713187079229
            ],
            [
              118.71345780841285,
              32.207131814686555
            ],
            [
              118.7134591468594,
              32.20713164622998
            ],
            [
              118.71346045944033,
              32.2071313670449
            ],
            [
              118.71346173351473,
              32.207130979820015
            ],
            [
              118.71346295681262,
              32.207130488284506
            ],
            [
              118.71346411755293,
              32.207129897172145
            ],
            [
              118.71346520455712,
              32.207129212175644
            ],
            [
              118.71346620735673,
              32.20712843989192
            ],
            [
              118.71346711629427,
              32.207127587758464
            ],
            [
              118.71346792261616,
              32.2071266639818
            ],
            [
              118.71346861855707,
              32.20712567745841
            ],
            [
              118.71346919741474,
              32.20712463768903
            ],
            [
              118.71346965361442,
              32.20712355468722
            ],
            [
              118.7134702410996,
              32.207121563127224
            ],
            [
              118.71347331193145,
              32.20712208326094
            ],
            [
              118.71349154851045,
              32.20704425505432
            ],
            [
              118.71347178420118,
              32.20704090739996
            ],
            [
              118.71347219866887,
              32.20703913857708
            ],
            [
              118.71349300320495,
              32.207042662423774
            ],
            [
              118.71349768422557,
              32.20704345528928
            ],
            [
              118.71349726975787,
              32.207045224112164
            ],
            [
              118.71349362896405,
              32.20704460743899
            ],
            [
              118.71347539913802,
              32.207122406826
            ],
            [
              118.7134824995568,
              32.207123409466
            ],
            [
              118.71349070443628,
              32.20712411197464
            ],
            [
              118.71349892071441,
              32.20712436261957
            ],
            [
              118.71350710214458,
              32.20712416007285
            ],
            [
              118.71351520269022,
              32.2071235055906
            ],
            [
              118.7135231767922,
              32.20712240300452
            ],
            [
              118.71353097963396,
              32.20712085869779
            ],
            [
              118.71353856740325,
              32.20711888156502
            ],
            [
              118.71354589754826,
              32.207116482956
            ],
            [
              118.7135529290265,
              32.20711367660327
            ],
            [
              118.71355962254431,
              32.207110478533345
            ],
            [
              118.71356594078405,
              32.20710690696211
            ],
            [
              118.71357184861702,
              32.207102982174966
            ],
            [
              118.71357731329879,
              32.20709872639304
            ],
            [
              118.71358230464439,
              32.20709416362747
            ],
            [
              118.71358679518164,
              32.20708931952437
            ],
            [
              118.71359076028082,
              32.20708422120397
            ],
            [
              118.7135941782611,
              32.207078897097475
            ],
            [
              118.71359703047527,
              32.20707337678527
            ],
            [
              118.71359930137606,
              32.2070676908392
            ],
            [
              118.71360072592454,
              32.20706274739025
            ],
            [
              118.71351287315993,
              32.207047866997186
            ],
            [
              118.71351328762762,
              32.20704609817431
            ],
            [
              118.71360118679254,
              32.207060986426605
            ],
            [
              118.71360491700189,
              32.2070450670207
            ],
            [
              118.71360023598127,
              32.207044274155194
            ],
            [
              118.71360065044898,
              32.20704250533232
            ],
            [
              118.7136053314696,
              32.207043298197824
            ],
            [
              118.71360573279912,
              32.20704158544468
            ],
            [
              118.71360843691072,
              32.20704188881394
            ],
            [
              118.71361010151789,
              32.207041889232556
            ],
            [
              118.71361175194838,
              32.2070417049183
            ],
            [
              118.71361335996288,
              32.20704133902486
            ],
            [
              118.7136148980478,
              32.20704079781276
            ],
            [
              118.71361633988607,
              32.20704009054229
            ],
            [
              118.71361766080747,
              32.20703922931505
            ],
            [
              118.71361883821064,
              32.20703822886687
            ],
            [
              118.7136198519499,
              32.2070371063157
            ],
            [
              118.71362068467988,
              32.2070358808687
            ],
            [
              118.71362132215236,
              32.207034573493615
            ],
            [
              118.71362175345999,
              32.207033206559984
            ],
            [
              118.71362197122298,
              32.207031803456424
            ],
            [
              118.71362197171534,
              32.207030388190425
            ],
            [
              118.71362175492867,
              32.20702898497758
            ],
            [
              118.71362132457222,
              32.207027617827265
            ],
            [
              118.71362068800951,
              32.20702631013178
            ],
            [
              118.71361985613233,
              32.207025084266164
            ],
            [
              118.7136188431743,
              32.20702396120532
            ],
            [
              118.71361766646744,
              32.20702296016513
            ],
            [
              118.71361634614551,
              32.207022098273676
            ],
            [
              118.7136149047996,
              32.20702139027814
            ],
            [
              118.71361336709153,
              32.20702084829255
            ],
            [
              118.71361073268791,
              32.207020247430684
            ],
            [
              118.71362564038711,
              32.20695662587681
            ],
            [
              118.71345088228406,
              32.20692702556455
            ],
            [
              118.71343057336655,
              32.207013697885564
            ],
            [
              118.71343525438716,
              32.20701449075107
            ],
            [
              118.71343483991946,
              32.207016259573955
            ],
            [
              118.71343015889884,
              32.20701546670845
            ],
            [
              118.71342974443114,
              32.207017235531325
            ],
            [
              118.71342766397753,
              32.20701688314665
            ],
            [
              118.71342828567909,
              32.20701422991234
            ],
            [
              118.71344921629816,
              32.20692490435701
            ],
            [
              118.71362813530841,
              32.206955209438604
            ],
            [
              118.71361320133289,
              32.207018943131935
            ],
            [
              118.71361405103146,
              32.207019136933475
            ],
            [
              118.71361584562004,
              32.20701976946001
            ],
            [
              118.71361752774877,
              32.207020595729134
            ],
            [
              118.71361906863595,
              32.20702160160314
            ],
            [
              118.71362044191659,
              32.207022769871244
            ],
            [
              118.71362162409345,
              32.20702408054406
            ],
            [
              118.71362259493917,
              32.20702551119561
            ],
            [
              118.71362333784231,
              32.207027037347046
            ],
            [
              118.71362384009159,
              32.2070286328855
            ],
            [
              118.71362409309339,
              32.20703027051087
            ],
            [
              118.71362409251877,
              32.20703192220292
            ],
            [
              118.71362383837756,
              32.207033559700754
            ],
            [
              118.71362335303114,
              32.207035097898334
            ],
            [
              118.71362334771466,
              32.20703511195208
            ],
            [
              118.71362334349064,
              32.207035126271364
            ],
            [
              118.71362333178796,
              32.20703515405314
            ],
            [
              118.71362332116067,
              32.20703518214558
            ],
            [
              118.71362331424959,
              32.207035195688604
            ],
            [
              118.7136233083951,
              32.20703520958693
            ],
            [
              118.71362259105331,
              32.20703668076384
            ],
            [
              118.71362161921233,
              32.207038110926845
            ],
            [
              118.71362043612372,
              32.20703942100485
            ],
            [
              118.71361906203046,
              32.207040588582046
            ],
            [
              118.71361752044366,
              32.20704159368087
            ],
            [
              118.71361583774032,
              32.20704241910381
            ],
            [
              118.71361404271194,
              32.207043050727634
            ],
            [
              118.71361216607195,
              32.207043477745096
            ],
            [
              118.71361023993019,
              32.2070436928498
            ],
            [
              118.7136082972435,
              32.20704369236125
            ],
            [
              118.71360742506137,
              32.20704359451276
            ],
            [
              118.71360720468935,
              32.20704453499393
            ],
            [
              118.7136030600123,
              32.207062223222714
            ],
            [
              118.71360305438236,
              32.2070622423081
            ],
            [
              118.71360304998468,
              32.20706226162607
            ],
            [
              118.71360133978214,
              32.207068196347876
            ],
            [
              118.71359900962767,
              32.20707403065501
            ],
            [
              118.71359608387512,
              32.20707969329693
            ],
            [
              118.71359257928991,
              32.207085152305886
            ],
            [
              118.71358851593865,
              32.20709037695869
            ],
            [
              118.71358391703887,
              32.207095337956304
            ],
            [
              118.71357880879268,
              32.207100007584856
            ],
            [
              118.71357322020883,
              32.20710435985917
            ],
            [
              118.7135671829168,
              32.207108370650644
            ],
            [
              118.71356073097411,
              32.20711201780142
            ],
            [
              118.71355390066805,
              32.207115281226876
            ],
            [
              118.71354673031178,
              32.207118143007605
            ],
            [
              118.71353926003397,
              32.20712058747162
            ],
            [
              118.71353153156215,
              32.207122601267024
            ],
            [
              118.71352358799915,
              32.207124173424724
            ],
            [
              118.71351547359295,
              32.2071252954108
            ],
            [
              118.71350723350051,
              32.207125961167705
            ],
            [
              118.71349891354613,
              32.20712616714385
            ],
            [
              118.71349055997574,
              32.2071259123107
            ],
            [
              118.71348221920798,
              32.20712519816719
            ],
            [
              118.7134739711421,
              32.20712403346959
            ],
            [
              118.71347395451733,
              32.20712403040262
            ],
            [
              118.71347393769055,
              32.207124028276155
            ],
            [
              118.71347180738839,
              32.2071236674482
            ],
            [
              118.71347169854907,
              32.20712403641075
            ],
            [
              118.71347169854907,
              32.20712403641075
            ],
            [
              118.71347166830415,
              32.20712412109006
            ],
            [
              118.71347115939767,
              32.20712532921593
            ],
            [
              118.7134704913693,
              32.2071265291576
            ],
            [
              118.7134696882215,
              32.20712766765096
            ],
            [
              118.71346875768896,
              32.20712873373171
            ],
            [
              118.71346770873325,
              32.207129717132894
            ],
            [
              118.71346655145638,
              32.20713060838383
            ],
            [
              118.71346529700357,
              32.20713139890128
            ],
            [
              118.71346395745587,
              32.20713208107213
            ],
            [
              118.71346254571387,
              32.207132648326706
            ],
            [
              118.7134610753734,
              32.20713309520203
            ],
            [
              118.71345956059466,
              32.20713341739446
            ],
            [
              118.7134580159658,
              32.20713361180109
            ],
            [
              118.71345645636242,
              32.20713367654969
            ],
            [
              118.71345489680436,
              32.20713361101669
            ],
            [
              118.71345335231103,
              32.207133415833205
            ],
            [
              118.71345183775674,
              32.20713309287897
            ],
            [
              118.71345036772748,
              32.207132645264196
            ],
            [
              118.7134489563804,
              32.207132077299676
            ],
            [
              118.7134476173076,
              32.2071313944552
            ],
            [
              118.71344636340503,
              32.20713060330695
            ],
            [
              118.71344520674849,
              32.20712971147411
            ],
            [
              118.71344415847722,
              32.207128727545516
            ],
            [
              118.71344322868661,
              32.20712766099694
            ],
            [
              118.71344242633108,
              32.20712652209982
            ],
            [
              118.71344175913775,
              32.20712532182237
            ],
            [
              118.71344123353205,
              32.20712407172391
            ],
            [
              118.71344085457586,
              32.20712278384357
            ],
            [
              118.71344062591872,
              32.207121470584354
            ],
            [
              118.71344054976274,
              32.20712014459366
            ],
            [
              118.71344062684132,
              32.2071188186415
            ],
            [
              118.71344070028138,
              32.207118398564724
            ],
            [
              118.7134052827215,
              32.20711239958205
            ],
            [
              118.71342414100205,
              32.20703191814111
            ],
            [
              118.7134247627036,
              32.2070292649068
            ]
          ]
        ]
      },
      "properties": {
        "kind": "wall",
        "height_m": 2.8,
        "base_m": 0,
        "level_index": 6,
        "building_id": "OSM-Way862952692"
      }
    },
    {
      "type": "Feature",
      "geometry": {
        "type": "Polygon",
        "coordinates": [
          [
            [
              118.71345044332152,
              32.20701890245898
            ],
            [
              118.71345085778923,
              32.2070171336361
            ],
            [
              118.71358504704692,
              32.207039862447296
            ],
            [
              118.71358463257921,
              32.20704163127017
            ],
            [
              118.71345044332152,
              32.20701890245898
            ]
          ]
        ]
      },
      "properties": {
        "kind": "wall",
        "height_m": 2.8,
        "base_m": 0,
        "level_index": 6,
        "building_id": "OSM-Way862952692"
      }
    }
  ]
}